Facility ID;Facility Name;Location (lat/lon);Address;city;county;Zip;state;rating(google);Website;Contact email;Contact Phone
ChIJQ-59PJMHFogROk9ni4vt8z8;Park Place Senior Living;41.1890379/-85.092113;4411 Park Place Drive, Fort Wayne, IN 46845, USA;city;Perry Township;46845;Allen County;4.6;http://www.parkplacelife.com/;N/A;(260) 480-2500
ChIJ_RzhpE7iFYgR_mQclVQcDMo;Yellow Retirement Communities;41.078941/-85.15765999999999;1214 W Main St, Fort Wayne, IN 46808, USA;city;Fort Wayne;46808;Wayne Township;4;http://www.yellowretirement.com/;N/A;(260) 424-0424
ChIJf2hUdFbmFYgRU6wJehNTHoc;Covington Commons;41.060165/-85.225488;2601 Covington Commons Dr, Fort Wayne, IN 46804, USA;city;Wayne Township;46804;Allen County;5;https://www.fivestarseniorliving.com/communities/in/fort-wayne/covington-commons;N/A;(260) 432-1932
ChIJS0iwobH8FYgRw2s8CRROJo0;Harbour Assisted Living of Fort Wayne;41.1089483/-85.10001199999999;3110 E Coliseum Blvd, Fort Wayne, IN 46805, USA;city;St Joseph Township;46805;Allen County;2.3;http://www.seniorlifestyle.com/property/harbour-assisted-living-of-fort-wayne/;N/A;(260) 579-4302
ChIJMYQUzSvjFYgR6CpPQ5rVOC0;Towne House Retirement Center;41.13428199999999/-85.1121641;2209 St Joe Center Rd, Fort Wayne, IN 46825, USA;city;St Joseph Township;46825;Allen County;5;http://www.townehouse.org/;N/A;(260) 483-3116
ChIJ51TFUVb7FYgR511JL5ar7SI;Heritage Park;41.09458100000001/-85.099098;2001 Hobson Rd, Fort Wayne, IN 46805, USA;city;St Joseph Township;46805;Allen County;4.6;http://www.ascseniorcare.com/location/heritage-park/?utm_source=google&utm_medium=organic&utm_content=fort-wayne-as48&utm_campaign=maps;N/A;(260) 484-9557
ChIJLcAu1-zkFYgR8EAAIuBJ-mA;Lamplight Inn of Fort Wayne by Priority Life Care;41.077414/-85.13467299999999;300 E Washington Blvd, Fort Wayne, IN 46802, USA;city;Wayne Township;46802;Allen County;4;http://www.prioritylc.com/communities/lamplight-inn-fort-wayne-priority-life-care/;N/A;(260) 422-5511
ChIJ0TR58MPnFYgRov4kIgAKL6o;Coventry Meadows Assisted Living;41.03850399999999/-85.2440893;7833 W Jefferson Blvd, Fort Wayne, IN 46804, USA;city;Aboite Township;46804;Allen County;3;http://www.ascseniorcare.com/location/coventry-meadows-assisted-living/?utm_source=google&utm_medium=organic&utm_content=fort-wayne-asccmal&utm_campaign=maps;N/A;(260) 435-2100
ChIJnyYm3ID7FYgROYOXOO3kbfc;Georgetowne Place;41.092654/-85.060717;1717 Maplecrest Rd, Fort Wayne, IN 46815, USA;city;St Joseph Township;46815;Allen County;4;http://www.capitalsenior.com/georgetowneplace;N/A;(877) 712-7869
ChIJFwYDE2jcFYgRd-uL--NOvzo;The Hearth at Sycamore Village;41.0771673/-85.3356009;611 W County Line Rd S, Fort Wayne, IN 46814, USA;city;Aboite Township;46814;Allen County;4.2;http://sycamorevillage.thehearth.net/contact;N/A;(260) 271-4180
ChIJVbW3k4DvFYgRZy8w7Cv8myg;Kingston Residence of Fort Wayne;41.01520550000001/-85.14242829999999;7515 Winchester Rd, Fort Wayne, IN 46819, USA;city;Wayne Township;46819;Allen County;;http://www.kingstonhealthcare.com/;N/A;(260) 747-1523
ChIJ5RfhDqj8FYgRK2aYP0lKaoA;Woodview;41.0970798/-85.096541;3320 E State Blvd, Fort Wayne, IN 46805, USA;city;St Joseph Township;46805;Allen County;;http://www.capitalsenior.com/woodview/;N/A;(866) 663-5891
ChIJP9GOE0LjFYgR8SDaLNVhApE;Glenbrook Rehabilitation and Skilled Nursing;41.111677/-85.12624;3811 Parnell Ave, Fort Wayne, IN 46805, USA;city;Washington Township;46805;Allen County;2.6;http://www.ascseniorcare.com/location/glenbrook-rehabilitation-skilled-nursing-center/?utm_source=google&utm_medium=organic&utm_content=fort-wayne-83&utm_campaign=maps;N/A;(260) 482-4651
ChIJa-ZtYxr8FYgREEjbShQ53R4;Golden Years Homestead, Inc.;41.106951/-85.0331709;8300 Maysville Rd, Fort Wayne, IN 46815, USA;city;Fort Wayne;46815;St. Joseph Township;5;http://www.goldenyearshome.org/;N/A;(260) 749-6725
ChIJneu9dMbnFYgRmQ_pieHuF-A;Coventry Meadows;41.0375309/-85.2419893;7843 W Jefferson Blvd, Fort Wayne, IN 46804, USA;city;Aboite Township;46804;Allen County;4.6;http://www.ascseniorcare.com/location/coventry-meadows/?utm_source=google&utm_medium=organic&utm_content=fort-wayne-as86&utm_campaign=maps;N/A;(260) 432-4848
ChIJGay3hR0IFogR7PgGAtKZ0Wc;Kingston At Dupont;41.1779376/-85.119967;1716 E Dupont Rd, Fort Wayne, IN 46825, USA;city;Washington Township;46825;Allen County;;http://www.kingstonhealthcare.com/;N/A;(260) 490-5111
ChIJ7_QouKvkFYgRIvhb264CTwM;Saint Anne Home & Retirement Community;41.0940216/-85.110275;1900 Randallia Dr, Fort Wayne, IN 46805, USA;city;Wayne Township;46805;Allen County;3.5;http://www.saintannehome.com/;N/A;(260) 484-5555
ChIJTRX-Yx_9FYgRgPbmpRjNANg;Bethlehem Woods Nursing and Rehabilitation;41.13954699999999/-85.085365;4430 Elsdale Dr, Fort Wayne, IN 46835, USA;city;St Joseph Township;46835;Allen County;4;http://www.ascseniorcare.com/location/bethlehem-woods-nursing-rehabilitation/?utm_source=google&utm_medium=organic&utm_content=fort-wayne-55&utm_campaign=maps;N/A;(260) 485-8157
ChIJy5tdURU2ZkARqKniybdvVbE;The Heritage of Fort Wayne;41.1591738/-85.06732099999999;5250 Heritage Pkwy, Fort Wayne, IN 46835, USA;city;St Joseph Township;46835;Allen County;4.8;http://www.lifeatheritage.org/;N/A;(260) 209-6279
ChIJAz_5p3zjFYgROljqwMwVu4k;Summit City Nursing and Rehabilitation;41.1026933/-85.13770749999999;2940 N Clinton St, Fort Wayne, IN 46805, USA;city;Fort Wayne;46805;Wayne Township;4.3;http://www.ascseniorcare.com/location/summit-city-nursing-rehabilitation/?utm_source=google&utm_medium=organic&utm_content=fort-wayne-as152&utm_campaign=maps;N/A;(260) 484-0602
ChIJwYdNptP8FYgRdjd2WCXIfJ0;Canterbury Nursing and Rehabilitation Center;41.130092/-85.103668;2827 Northgate Blvd, Fort Wayne, IN 46835, USA;city;St Joseph Township;46835;Allen County;3.5;http://www.ascseniorcare.com/location/canterbury-nursing-rehabilitation-center/?utm_source=google&utm_medium=organic&utm_content=fort-wayne-asc0072&utm_campaign=maps;N/A;(260) 492-1400
ChIJT9zWuBLnFYgRSJyaheZQG2M;North Woods Village at Inverness Lakes;41.073801/-85.2506064;8075 Glencarin Blvd, Fort Wayne, IN 46804, USA;city;Aboite Township;46804;Allen County;5;http://northwoodsmemorycare.com/;N/A;(260) 420-1866
ChIJubdr4JfdFYgRCUzeeTIEd3A;American Senior Communities;41.0756033/-85.29284030000001;901 Chestnut Hills Pkwy, Fort Wayne, IN 46814, USA;city;Aboite Township;46814;Allen County;;N/A;N/A;(260) 271-1274
ChIJvWhHK9D8FYgRjL7sMWqWbx8;Arbor Glen;41.12689590000001/-85.098778;5202 St Joe Rd, Fort Wayne, IN 46835, USA;city;St Joseph Township;46835;Allen County;4.3;http://www.holidaytouch.com/our-communities/arbor-glen?utm_source=Local&utm_medium=organic&utm_term=5474&utm_content=IL&utm_campaign=gmb;N/A;(260) 632-8116
ChIJI9YKem7lFYgRANnvJ_PQTA8;Villa of the Woods;41.0321848/-85.1357611;5610 Noll Ave, Fort Wayne, IN 46806, USA;city;Wayne Township;46806;Allen County;5;http://www.villaofthewoods.com/;N/A;(260) 745-7039
ChIJt8ANT6njFYgRUKmilYFsq4g;Kingston Care Center Fort Wayne;41.133105/-85.15257;1010 W Washington Center Rd, Fort Wayne, IN 46825, USA;city;Fort Wayne;46825;Washington Township;3.7;http://www.kingstonhealthcare.com/;N/A;(260) 489-2552
ChIJM-b1xXsbFogR7p71vvW9IXA;Smith Farms Manor;41.3709492/-85.0298966;406 Smith Dr, Auburn, IN 46706, USA;city;Union Township;46706;DeKalb County;4;https://www.fivestarseniorliving.com/communities/in/auburn/smith-farms-manor;N/A;(260) 925-4800
ChIJK9GSqVn7FYgR4--7aSG4GyY;Ryker Reserve Senior Living;41.0933948/-85.0935454;1825 Laverne Ave, Fort Wayne, IN 46805, USA;city;Fort Wayne;46805;St. Joseph Township;4.3;N/A;N/A;N/A
ChIJvdVl4fLjFYgRVG85m4WhpM4;Hamilton Place;41.107182/-85.17034799999999;2116 Butler Rd, Fort Wayne, IN 46808, USA;city;Fort Wayne;46808;Washington Township;4.2;http://www.enlivant.com/communities/indiana/hamilton-place-fort-wayne;N/A;(260) 344-2054
ChIJCcWjRVrcFYgRHT3oxhjzad4;The Cottages at Bridgewater - Senior Apartment Community;41.072434/-85.325805;14203 West Illinois Road, Fort Wayne, IN 46814, USA;city;IN;46814;United States;;http://www.cottagesatbridgewater.com/;N/A;(260) 422-1455
ChIJ83FWlJXjFYgR0cJSQCy8h04;Rescare Inc;41.11831569999999/-85.16510359999999;4410 Executive Blvd, Fort Wayne, IN 46808, USA;city;Washington Township;46808;Allen County;4;http://www.rescare.com/;N/A;(260) 490-3230
ChIJE26RV6qWFYgRWMBefgMZr-M;River Terrace Retirement Community;40.7773383/-85.19495789999999;400 Caylor Blvd, Bluffton, IN 46714, USA;city;Lancaster Township;46714;Wells County;4.2;http://www.riverterraceretirementcommunity.com/;N/A;(260) 824-8940
ChIJ8Vip2ACeFogRpX4rg19TEFM;Miller's Senior Living Community;41.210429/-85.85116599999999;1634 S County Farm Rd, Warsaw, IN 46580, USA;city;Wayne Township;46580;Kosciusko County;;http://www.millersseniorliving.com/warsaw-assisted-living;N/A;(574) 267-5292
ChIJcfI77cIJFogR6VT75g7B_40;Byron Health Center;41.19392/-85.169804;12101 Lima Rd, Fort Wayne, IN 46818, USA;city;Perry Township;46818;Allen County;3.8;http://byronhealth.org/;N/A;(260) 637-3166
ChIJG1lecFHlFYgRp77DvzAHiG0;Lutheran Life Villages - Village at Anthony Boulevard;41.023291/-85.10954439999999;6723 S Anthony Blvd, Fort Wayne, IN 46816, USA;city;Adams Township;46816;Allen County;2.7;http://lutheranlifevillages.org/communities/the-village-at-anthony-boulevard;N/A;(260) 447-1591
ChIJLf9ckx2_FYgR_JNu5NKfG_c;Markle Health and Rehabilitation;40.82604289999999/-85.3288123;170 N Tracy St, Markle, IN 46770, USA;city;Rockcreek Township;46770;Wells County;5;http://www.ascseniorcare.com/location/markle-health-rehabilitation/?utm_source=google&utm_medium=organic&utm_content=markle-74&utm_campaign=maps;N/A;(260) 758-2131
ChIJlyL8CxsBFogR9tVI4q38MS8;The Cedars;41.2208437/-84.9934614;14409 Sunrise Ct, Leo, IN 46765, USA;city;Cedar Creek Township;46765;Allen County;3.7;http://thecedarsrc.com/;N/A;(260) 627-2191
ChIJPfBDlPvmFYgRW3gVbZtM-qA;Alzheimers Association;41.0683517/-85.22457129999999;6324 Constitution Dr, Fort Wayne, IN 46804, USA;city;Wayne Township;46804;Allen County;;http://www.alz.org/;N/A;(260) 420-5547
ChIJrbzm5G_SFogRQNnudqFpN1k;Brookdale South Bend;41.7084758/-86.2058917;17441 IN-23, South Bend, IN 46635, USA;city;Clay Township;46635;St. Joseph County;;https://www.brookdale.com/en/communities/brookdale-south-bend.html;N/A;(574) 807-6020
ChIJKwIkq7vOFogR6vFKH-gYKGw;Primrose Retirement Community Mishawaka;41.6299154/-86.1681588;820 Fulmer Rd, Mishawaka, IN 46544, USA;city;Penn Township;46544;St. Joseph County;5;http://www.primroseretirement.com/mishawaka-indiana-senior-living-communities/;N/A;(574) 231-7456
ChIJtT18isnkFYgRYV4eqIaVfwg;Memorial Park Estates;41.07542689999999/-85.11071989999999;2024 Maumee Ave, Fort Wayne, IN 46803, USA;city;Fort Wayne;46803;Wayne Township;;N/A;N/A;(260) 424-7275
ChIJNQIDSFrHFogRWbwETfYVfLk;Miller's Senior Living Community;41.538897/-86.024289;303 N Washington St, Wakarusa, IN 46573, USA;city;Olive Township;46573;Elkhart County;;http://www.millersseniorliving.com/wakarusa-assisted-living;N/A;(574) 862-4511
ChIJLyaTDTvSFogRxUvL74fiOrM;Brookdale Granger;41.7245997/-86.1737009;430 Cleveland Road East, Granger, IN 46530, USA;city;IN;46530;United States;;https://www.brookdale.com/en/communities/brookdale-granger.html;N/A;(317) 324-9560
ChIJif3XopniFYgRcBceNVrVfOE;Lutheran Life Villages - The Village at Pine Valley;41.1705002/-85.1297788;9802 Coldwater Rd, Fort Wayne, IN 46825, USA;city;Washington Township;46825;Allen County;;http://lutheranlifevillages.org/communities/the-village-at-pine-valley;N/A;(260) 469-0600
ChIJ_621Srf6FYgRpHjRQXuVL7g;Adam & Bruce Apartments;41.031087/-85.09728299999999;5910 Hessen Cassel Rd, Fort Wayne, IN 46816, USA;city;Fort Wayne;46816;Adams Township;4.5;http://www.rhf.org/location/adam-bruce-apartments/;N/A;(260) 447-3496
ChIJzyn0Vm1WFIgRgQY8T8JzTAY;Brookdale Marion;40.57489939999999/-85.69501439999999;2452 W Kem Rd, Marion, IN 46952, USA;city;Pleasant Township;46952;Grant County;5;https://www.brookdale.com/en/communities/brookdale-marion-indiana.html;N/A;(765) 252-0456
ChIJR9cQi_XmFYgRBcZthxnFsBs;Home Is Where the Heart Is Let;41.061377/-85.2140721;5634 W Jefferson Blvd, Fort Wayne, IN 46804, USA;city;Wayne Township;46804;Allen County;3.7;http://www.homecareisheart.net/index.html;N/A;(260) 387-6369
ChIJue4pX0UgPogRM52B88hZvfI;Evergreen Court Apartments;40.817297/-84.909053;1145 Mercer Ave, Decatur, IN 46733, USA;city;Washington Township;46733;Adams County;;N/A;N/A;(260) 724-2145
ChIJjRBBtgwwFIgRLRd6Dp76y3s;Timbercrest Senior Living;41.0240567/-85.7584189;2201 East St, North Manchester, IN 46962, USA;city;Chester Township;46962;Wabash County;5;http://timbercrest.org/;N/A;(260) 982-2118
ChIJGdewZqEoFogRcdEpyN7yzSo;Cameron Woods, senior living community;41.6540954/-85.00825039999999;712 Cameron Woods Dr, Angola, IN 46703, USA;city;Pleasant Township;46703;Steuben County;;http://www.cameronwoods.net/;N/A;(260) 624-2197
ChIJRZo6gvYUFogRpEDvjyUltvg;Lutheran Life Villages - Village at Kendallville;41.447879/-85.233801;351 N Allen Chapel Rd, Kendallville, IN 46755, USA;city;Wayne Township;46755;Noble County;4.5;http://lutheranlifevillages.org/communities/the-village-at-kendallville;N/A;(260) 347-2256
ChIJpTDwuLsbFogRDyDux3JFA2M;Betz Nursing Home;41.3897509/-85.05212499999999;116 Betz Rd, Auburn, IN 46706, USA;city;Union Township;46706;DeKalb County;2.7;http://www.ascseniorcare.com/location/betz-nursing-home/?utm_source=google&utm_medium=organic&utm_content=auburn-as5&utm_campaign=maps;N/A;(260) 925-3814
ChIJUTUzG0ATFogRxzszpW0r8u0;Chandler House;41.4041799/-85.25197799999999;2879 S Lima Rd, Kendallville, IN 46755, USA;city;Allen Township;46755;Noble County;;N/A;N/A;(260) 349-1030
ChIJS2ASk_vmFYgRzDu8Rvwwl24;Senior Solutions;41.067564/-85.226187;6339 Constitution Dr, Fort Wayne, IN 46804, USA;city;Wayne Township;46804;Allen County;;N/A;N/A;(260) 459-2200
ChIJOeZc3HSRFYgRmxluOpv1XDc;Christian Care Retirement Comm;40.7557011/-85.151302;720 E Dustman Rd, Bluffton, IN 46714, USA;city;Lancaster Township;46714;Wells County;5;http://www.christiancarerc.org/;N/A;(260) 565-3000
ChIJP6q9-oY6FIgR4fj0oxN5xBU;Peabody Retirement Community;41.006034/-85.776561;400 W 7th St, North Manchester, IN 46962, USA;city;Chester Township;46962;Wabash County;3.5;http://www.peabodyrc.org/;N/A;(260) 982-8616
ChIJr5lSXJrkFYgRrwy5rk97PXk;Life Care Center of Fort Wayne;41.08980630000001/-85.1349687;1649 Spy Run Ave, Fort Wayne, IN 46805, USA;city;Fort Wayne;46805;Wayne Township;3.8;http://lifecarecenteroffortwaynein.com/;N/A;(260) 422-8520
ChIJlyeBYzVBFIgRF4vCSbPjhFk;Bickford Senior Living of Wabash;40.8240782/-85.8494666;3037 Niccum Rd, Wabash, IN 46992, USA;city;Noble Township;46992;Wabash County;5;http://www.enrichinghappiness.com/branch/bickford-of-wabash;N/A;(260) 569-2000
ChIJdy4P5O6ga4gREpoUEegRKUg;Four Seasons Retirement Center;39.21862369999999/-85.87462859999999;1901 Taylor Rd, Columbus, IN 47203, USA;city;Columbus Township;47203;Bartholomew County;4.6;http://www.fourseasonsretirement.com/;N/A;(812) 372-8481
ChIJ61Pz5OKea4gRe0sknpteyq0;Greentree At Columbus;39.1977298/-85.97602929999999;4895 Pine Ridge Dr, Columbus, IN 47201, USA;city;Columbus Township;47201;Bartholomew County;2.8;http://www.provisionliving.com/Columbus-IN-Assisted-Living-greentree-at-westwood;N/A;(812) 342-2148
ChIJ3fqtQuqga4gR-Wx7HUr3pQY;Keepsake Village of Columbus;39.2244245/-85.87089209999999;2564 Fox Pointe Dr, Columbus, IN 47203, USA;city;Columbus Township;47203;Bartholomew County;2.3;http://www.capitalsenior.com/keepsakevillageofcolumbus/;N/A;(866) 962-7609
ChIJfauD6tGha4gR6u81c_lmqDM;FirstLight HomeCare South Central;39.2203781/-85.9038046;2205 Central Ave, Columbus, IN 47201, USA;city;Columbus Township;47201;Bartholomew County;;http://www.firstlighthomecare.com/home-healthcare-south-central-indiana/;N/A;(812) 269-3800
ChIJ61Pz5OKea4gRn2Wrd7TI6z4;GreenTree at Westwood;39.1975388/-85.97347529999999;4895 Pine Ridge Dr, Columbus, IN 47201, USA;city;Columbus Township;47201;Bartholomew County;5;http://www.greentreewestwood.com/;N/A;(812) 342-2148
ChIJEWKfknGga4gRpxq9d6qBsCo;Parkside Court;39.24014499999999/-85.905142;3660 Central Ave, Columbus, IN 47203, USA;city;Columbus Township;47203;Bartholomew County;4.7;http://www.holidaytouch.com/our-communities/parkside-court?utm_source=Local&utm_medium=organic&utm_term=5404&utm_content=IL&utm_campaign=gmb;N/A;(812) 618-1840
ChIJE-5IAHega4gRcpxPbxRGFp4;Silver Oaks Health Campus;39.2454615/-85.9022375;2011 Chapa Dr, Columbus, IN 47203, USA;city;Columbus Township;47203;Bartholomew County;3;http://www.silveroakshc.com/;N/A;(812) 373-0787
ChIJEUGyTcaga4gRCAHbk_qnAIY;Hickory Creek At Columbus;39.2237453/-85.8605759;5480 E 25th St, Columbus, IN 47203, USA;city;Columbus Township;47203;Bartholomew County;5;http://www.hickorycreekhealthcare.org/columbus/;N/A;(812) 372-6136
ChIJW7XgwDTNjIgRp7i873g57Is;Senior Center Services;39.2038423/-85.92501799999999;900 Lindsey St, Columbus, IN 47201, USA;city;Columbus Township;47201;Bartholomew County;;N/A;N/A;(812) 376-9241
ChIJbfuhFEqga4gRKwHR_C2XdQc;Central Park Place;39.211905/-85.9085458;1500 13th St, Columbus, IN 47201, USA;city;Columbus Township;47201;Bartholomew County;5;https://yournextplacetolive.com/senior-living/central-park-place/;N/A;(812) 799-1165
ChIJI5Ao3DsHa4gRjaDpeI9e6Yg;The Hartsville House Senior Living;39.267679/-85.698498;150 E Harrison, St, Hartsville, IN 47244, USA;city;Haw Creek Township;47244;Bartholomew County;;N/A;N/A;N/A
ChIJ2STYB5Zua4gRGgKRLUhZtuI;Morning Pointe of Franklin;39.48013529999999/-86.0269806;75 S Milford Dr, Franklin, IN 46131, USA;city;Needham Township;46131;Johnson County;5;https://www.morningpointe.com/locations/franklin/;N/A;(317) 736-4665
ChIJ523rSqpca4gR7r25Q0Di5Tc;American Senior Communities;39.666785/-86.09724199999999;6900 Gray Rd, Indianapolis, IN 46237, USA;city;Indianapolis;46237;Perry Township;3.3;http://www.ascseniorcare.com/?utm_source=google&utm_medium=organic&utm_content=indianapolis-asc001&utm_campaign=maps;N/A;(317) 788-2500
ChIJJzxkCR-_a4gRAWjEyTT7Kx4;Seymour Crossing;38.95362859999999/-85.87071;707 S Jackson Park Dr, Seymour, IN 47274, USA;city;Jackson Township;47274;Jackson County;4;http://www.ascseniorcare.com/location/seymour-crossing/?utm_source=google&utm_medium=organic&utm_content=seymour-as158&utm_campaign=maps;N/A;(812) 522-2416
ChIJ1ff3a3Bca4gR9Ecu4RhrGNg;The Wellington at Southport;39.6608918/-86.1459318;7212 US-31, Indianapolis, IN 46227, USA;city;Indianapolis;46227;Perry Township;2.6;http://www.capitalsenior.com/wellingtonatsouthport/;N/A;(866) 661-9531
ChIJF-400ouibIgRFXIFdo7IEy0;Miller's Senior Living Community;39.61124199999999/-86.381361;225 W Harrison St, Mooresville, IN 46158, USA;city;Brown Township;46158;Morgan County;3.7;http://www.millersseniorliving.com/mooresville-assisted-living;N/A;(317) 834-6892
ChIJr60dwz5na4gRgIE-mCTAZ34;Aspen Trace Family-first Senior Living;39.5709606/-86.16057859999999;3154 S State Rd 135, Greenwood, IN 46143, USA;city;White River Township;46143;Johnson County;2.2;http://www.aspentrace.us/;N/A;(317) 535-3344
ChIJb2kpBIpba4gRud8TLMCbQAA;Forest Creek Commons;39.67149/-86.149373;6510 N U.S. 31, Indianapolis, IN 46227, USA;city;Indianapolis;46227;Perry Township;5;https://www.fivestarseniorliving.com/communities/in/indianapolis/forest-creek-commons;N/A;(317) 783-4663
ChIJHVMog3NmbIgRsfHEtQFVAfA;Brookdale Bloomington;39.1267832/-86.50535789999999;3802 S Sare Rd, Bloomington, IN 47401, USA;city;Perry Township;47401;Monroe County;2.5;https://www.brookdale.com/en/communities/brookdale-bloomington.html;N/A;(812) 558-2470
ChIJXd3j_sxMa4gRyotyTalgoQ0;Miller's Senior Living Community;39.911428/-86.039996;8400 Clearvista Pl, Indianapolis, IN 46256, USA;city;Lawrence Township;46256;Marion County;3.8;http://www.millersmerrymanor.com/locations/castleton;N/A;(317) 841-4187
ChIJw8YujWlva4gRIRyvsZAT0CE;Franklin Meadows;39.4818274/-86.0824399;1285 W Jefferson St, Franklin, IN 46131, USA;city;Franklin Township;46131;Johnson County;3.7;http://www.ascseniorcare.com/location/franklin-meadows/?utm_source=google&utm_medium=organic&utm_content=franklin-46&utm_campaign=maps;N/A;(317) 736-9113
ChIJ_4Mvju8Za4gRJbJQ2u2DW9M;McKay Manor;39.5038854/-85.75586249999999;1473 E McKay Rd, Shelbyville, IN 46176, USA;city;Addison Township;46176;Shelby County;5;https://www.fivestarseniorliving.com/communities/in/shelbyville/mckay-manor;N/A;(317) 398-3100
ChIJJ2h1pCy5a4gR3b-l2k6l4Tw;Seymour Place;38.96098769999999/-85.84662209999999;2288 Nicholas Ct, Seymour, IN 47274, USA;city;Jackson Township;47274;Jackson County;;http://www.enlivant.com/communities/indiana/seymour-place-seymour;N/A;(812) 202-4189
ChIJCxtgPCpNa4gRHqTIfWbL6LE;Brookdale Castleton;39.910402/-86.054417;8480 Craig St, Indianapolis, IN 46250, USA;city;Indianapolis;46250;Lawrence Township;4;https://www.brookdale.com/en/communities/brookdale-castleton.html;N/A;(317) 991-1069
ChIJOZRfOEqga4gRwqj6qgW1cFA;Thrive Alliance, Inc.;39.2114366/-85.9082473;1531 13th St # G900, Columbus, IN 47201, USA;city;Columbus;47201;Columbus Township;4;http://www.thrive-alliance.org/;N/A;(812) 372-6918
ChIJfQIHCRpkbIgRYSKcQlkuQ3s;Bell Trace Senior Living Community;39.17010399999999/-86.48971399999999;800 N. Bell Trace Circle, Bloomington, IN 47408, USA;city;IN;47408;United States;5;http://www.belltrace.com/;N/A;(812) 332-2355
ChIJi47BlFZca4gRXRCw8sLQ-Po;University Heights Health & Living Community;39.63794900000001/-86.133613;1380 E County Line Rd S, Indianapolis, IN 46227, USA;city;Marion County;46227;Indiana;2.8;http://www.university-heights.us/;N/A;(317) 885-7050
ChIJ-daydcJmbIgRv4g7FeZv1V0;Gentry Park Bloomington Senior Living Community;39.1577022/-86.4713757;901 S Hastings Dr, Bloomington, IN 47401, USA;city;Perry Township;47401;Monroe County;4;http://gentryparkbloomington.com/;N/A;(812) 668-1200
ChIJGQ5AUSZba4gR60_5GJzEfUo;Altenheim Family-first Senior Living;39.7073473/-86.1056385;3525 E Hanna Ave, Indianapolis, IN 46237, USA;city;Indianapolis;46237;Perry Township;4.6;http://www.altenheimseniorliving.com/;N/A;(317) 788-4261
ChIJoQGc7whJa4gR1neJCWjLXhM;Bloom at German Church Senior Living Facility;39.8002495/-85.9748381;2250 Harvest Moon Dr, Indianapolis, IN 46229, USA;city;Indianapolis;46229;Warren Township;5;http://www.bloomatgermanchurch.com/;N/A;(317) 249-8092
ChIJURfpFuVua4gRmq0NU3NdIM0;Compass Park;39.4726179/-86.0444632;690 State St, Franklin, IN 46131, USA;city;Franklin Township;46131;Johnson County;5;http://www.compasspark.org/;N/A;(317) 736-6141
ChIJk7yqD5WAa4gRbUFdys_-UdM;Brown County Health & Living Community;39.19957499999999/-86.238235;55 E. Willow Street, Nashville, IN 47448, USA;city;IN;47448;United States;2.5;http://www.browncountyhealth.us/;N/A;(812) 988-6666
ChIJt8WTSjFhbIgRQXeX_9WMG3s;Meadowood;39.1908156/-86.52085289999999;2455 N Tamarack Trail, Bloomington, IN 47408, USA;city;Bloomington Township;47408;Monroe County;5;https://www.fivestarseniorliving.com/communities/in/bloomington/meadowood;N/A;(812) 336-7060
ChIJ8-d5ZyX6aogRmMzoTh9I-w8;Crownpointe Senior Living Community;39.32480049999999/-85.4682152;1034 Crown Point, Greensburg, IN 47240, USA;city;Washington Township;47240;Decatur County;5;http://crownpointeliving.com/;N/A;(812) 662-8888
ChIJo9mkDm1Ma4gRoTeV6uEBoLs;Elmcroft of Fort Harrison;39.8545778/-86.0245929;8025 Doubleday Dr, Indianapolis, IN 46216, USA;city;Lawrence Township;46216;Marion County;5;http://www.elmcroft.com/community/elmcroft-of-fort-harrison/;N/A;(317) 546-2845
ChIJiWcpB-5da4gRbpHidGWJpiY;Bickford Senior Living;39.5992957/-86.16024469999999;3021 Stella Drive, Greenwood, IN 46143, USA;city;IN;46143;United States;4.8;http://www.enrichinghappiness.com/branch/bickford-of-greenwood;N/A;(317) 807-3077
ChIJIQLAXTPDaogR5ms4VINwyB4;Miller's Merry Manor;39.6187554/-85.4369014;612 E 11th St, Rushville, IN 46173, USA;city;Rushville Township;46173;Rush County;3;http://www.millersmerrymanor.com/locations/rushville;N/A;(765) 932-4127
ChIJ17_SBcVda4gRj6dQe_8fbkQ;Country Charm;39.617747/-86.162493;3177 Meridian Parke Dr, Greenwood, IN 46142, USA;city;White River Township;46142;Johnson County;5;http://www.capitalsenior.com/countrycharm/;N/A;(866) 661-9512
ChIJJ9Y4uFxna4gRVs1X2TMtfQY;The Hearth at Stones Crossing;39.5823526/-86.15723369999999;2339 S State Rd 135, Greenwood, IN 46143, USA;city;White River Township;46143;Johnson County;3;http://stonescrossing.thehearth.net/;N/A;(317) 215-7228
ChIJQ03YUxdkbIgRv6bRBXhC5Y0;Bell Trace Family-first Senior Living;39.1689365/-86.4894561;N, 725 Bell Trace Cir, Bloomington, IN 47408, USA;city;Bloomington Township;47408;Monroe County;5;http://www.belltrace.com/;N/A;(812) 323-2858
ChIJVTEJRE9da4gRLaVRHzyquAg;Greenwood Village South;39.6011895/-86.1045814;295 Village Ln, Greenwood, IN 46143, USA;city;Pleasant Township;46143;Johnson County;2.3;http://www.greenwoodvillagesouth.com/;N/A;(317) 881-2591
ChIJy4MqaoZVa4gR-PHU_lkJa7k;Brookdale Home Health Indianapolis;39.8711943/-86.25219229999999;5354 W 62nd St, Indianapolis, IN 46268, USA;city;Indianapolis;46268;Pike Township;4;https://www.brookdale.com/en/our-services/home-health-services/home-health/brookdale-home-health-indianapolis.html;N/A;(317) 328-2731
ChIJJ8GtKltDa4gRpCkD52m91ec;Rosegate Assisted Living and Garden Homes;39.6574281/-86.080799;7525 Rosegate Dr, Indianapolis, IN 46237, USA;city;Indianapolis;46237;Franklin Township;3.5;http://www.ascseniorcare.com/location/rosegate-assisted-living/?utm_source=google&utm_medium=organic&utm_content=indianapolis-191&utm_campaign=maps;N/A;(317) 889-0100
ChIJZd5ucB5Pa4gRiH0G62gCYpU;Crownpointe of Indianapolis;39.7884867/-86.03758259999999;7365 E 16th St, Indianapolis, IN 46219, USA;city;Indianapolis;46219;Warren Township;4.5;http://www.crownpointecommunities.com/;N/A;(317) 351-2578
ChIJSQ0PocVaa4gRKSKs5k3gxPo;Beech Grove Meadows;39.7239689/-86.10446159999999;2002 Albany St, Beech Grove, IN 46107, USA;city;Center Township;46107;Marion County;3.8;http://www.ascseniorcare.com/location/beech-grove-meadows/?utm_source=google&utm_medium=organic&utm_content=beech-grove-as34&utm_campaign=maps;N/A;(317) 783-2911
ChIJRZRfOEqga4gRWX-KvOS-1zA;United Way Bartholomew County;39.21099429999999/-85.9070825;1531 13th St #1100, Columbus, IN 47201, USA;city;Columbus;47201;Columbus Township;4.8;http://www.uwbarthco.org/;N/A;(812) 376-3001
ChIJryQQ2Wpva4gReMaaAgvl0JI;Otterbein Franklin SeniorLife Community;39.48155200000001/-86.073666;1070 W Jefferson St, Franklin, IN 46131, USA;city;Franklin Township;46131;Johnson County;3.1;http://www.franklinunitedmethodist.org/;N/A;(317) 736-7185
ChIJqz28PDRca4gRYVHzZvrYUvE;Greenwood Meadows;39.633916/-86.159865;1200 N State Rd 135, Greenwood, IN 46142, USA;city;IN;46142;United States;3.2;http://www.ascseniorcare.com/location/greenwood-meadows/?utm_source=google&utm_medium=organic&utm_content=greenwood-6&utm_campaign=maps;N/A;(317) 300-2200
ChIJT48a_vIXa4gRkwHN2Yxt9H4;Ashford Place Health Campus;39.5571969/-85.7745649;2200 N Riley Hwy, Shelbyville, IN 46176, USA;city;Marion Township;46176;Shelby County;3.7;http://ashfordplacehc.com/;N/A;(317) 398-8422
ChIJoaMc_ziibIgReyPsiOO40NU;Meadow Lakes;39.624016/-86.355239;200 Meadow Lakes Dr, Mooresville, IN 46158, USA;city;Brown Township;46158;Morgan County;3.4;http://www.ascseniorcare.com/location/meadow-lakes/?utm_source=google&utm_medium=organic&utm_content=mooresville-as92&utm_campaign=maps;N/A;(317) 834-1791
ChIJ7R2qMdAHa4gRjsmwgX8ZQnA;Miller's Merry Manor;39.2768021/-85.7573757;7440 N Co Rd 825 E, Hope, IN 47246, USA;city;Haw Creek Township;47246;Bartholomew County;3.3;http://www.millersmerrymanor.com/locations/hope;N/A;(812) 546-4416
ChIJgxmG8DZSa4gR842iUeq7xWU;American Village;39.8521291/-86.12750559999999;2026 E 54th St, Indianapolis, IN 46220, USA;city;Washington Township;46220;Marion County;4.8;http://www.ascseniorcare.com/location/american-village/?utm_source=google&utm_medium=organic&utm_content=indianapolis-as64&utm_campaign=maps;N/A;(317) 253-6950
ChIJ-Tjxk1Dsa4gRymoy-N3qaFo;Hoosier Christian Village;38.872251/-86.043773;621 S Sugar St, Brownstown, IN 47220, USA;city;Brownstown Township;47220;Jackson County;;http://www.hoosierchristianvillage.org/;N/A;(812) 358-2504
ChIJDxU5Ruhca4gRSmy7TNc-XRg;Crestwood Village South;39.641192/-86.115038;8809 Madison Ave, Indianapolis, IN 46227, USA;city;Indianapolis;46227;Perry Township;4;http://www.crestwood-living.com/;N/A;(317) 888-7973
ChIJC_5T_HGga4gRb2P1hDMf5PA;Willow Crossing Health & Rehab;39.2383448/-85.9049548;3550 Central Ave, Columbus, IN 47203, USA;city;Columbus Township;47203;Bartholomew County;2.7;http://willow-crossing.com/;N/A;(812) 379-9669
ChIJezymBbZPa4gRKiAD1ggJ3LU;Rosewalk Assisted Living;39.7856644/-86.07303589999999;1301 N Ritter Ave, Indianapolis, IN 46219, USA;city;Warren Township;46219;Marion County;3;http://www.ascseniorcare.com/location/rosewalk-assisted-living/?utm_source=google&utm_medium=organic&utm_content=indianapolis-as144&utm_campaign=maps;N/A;(317) 356-2760
ChIJh8JEIVhNa4gRPGBR-DWN4oQ;Clearwater Commons;39.9050767/-86.0920596;4519 E 82nd St, Indianapolis, IN 46250, USA;city;Indianapolis;46250;Washington Township;3.7;https://www.fivestarseniorliving.com/communities/in/indianapolis/clearwater-commons;N/A;(317) 849-2244
ChIJTXFNhc5Sa4gROliBWFZDjI4;The Forum at the Crossing;39.9114602/-86.1216142;8505 Woodfield Crossing Blvd, Indianapolis, IN 46240, USA;city;Indianapolis;46240;Washington Township;4;https://www.fivestarseniorliving.com/communities/in/indianapolis/the-forum-at-the-crossing;N/A;(317) 257-7406
ChIJFVSUn8NUa4gR7vLVR8CSxhc;Marquette;39.90372659999999/-86.20624029999999;8140 Township Line Rd, Indianapolis, IN 46260, USA;city;Indianapolis;46260;Pike Township;3.2;http://marquetteseniorliving.org/;N/A;(317) 875-9700
ChIJp0hnF4GkbIgR7Bz6m08UJ74;Cumberland Trace Family-first Senior Living;39.6814131/-86.37254829999999;1925 Reeves Rd, Plainfield, IN 46168, USA;city;Guilford Township;46168;Hendricks County;3.8;http://www.cumberlandtrace.us/;N/A;(317) 838-7070
ChIJUcogLxVVE4gRQ2TuQgcoufI;Zionsville Meadows;39.944671/-86.2785925;675 S 1000 E, Zionsville, IN 46077, USA;city;Eagle Township;46077;Boone County;3.3;http://www.ascseniorcare.com/location/zionsville-meadows/?utm_source=google&utm_medium=organic&utm_content=zionsville-52&utm_campaign=maps;N/A;(317) 873-5205
ChIJD03xSamqFIgRH8-yLGFwQC4;BHI Senior Living Inc.;39.927271/-86.25182699999999;5320 West 96th Street, Indianapolis, IN 46268, USA;city;Eagle Township;46268;Boone County;1;http://www.bhiseniorliving.org/;N/A;(317) 873-3371
ChIJ33aIgP2rFIgRVOT2sIG6Xyk;Copper Trace Family-first Senior Living;40.000438/-86.182655;1250 W 146th St, Westfield, IN 46074, USA;city;Washington Township;46074;Hamilton County;4.8;http://www.coppertrace.us/;N/A;(317) 844-5050
ChIJ_____2-sFIgRrltgKjrW8Hg;The Stratford;39.97387889999999/-86.2036751;2460 Glebe St, Carmel, IN 46032, USA;city;Carmel;46032;Clay Township;4.5;http://stratford-living.com/;N/A;(317) 733-9560
ChIJCSh4J1GrFIgRqWqEDAHtbho;Rittenhouse Village At Northside;39.92619499999999/-86.18106399999999;1251 West 96th Street, Indianapolis, IN 46260, USA;city;Indianapolis;46260;Washington Township;3.5;http://www.rittenhousevillages.com/senior-living/in/indianapolis/rittenhouse-village-at-northside/;N/A;(317) 584-5234
ChIJhcdxSa-qFIgRVOIBjwc6FlI;BHI Retirement Community Inc;39.9300993/-86.2488096;5300 W 96th St, Indianapolis, IN 46268, USA;city;Eagle Township;46268;Boone County;5;http://www.bhiseniorliving.org/;N/A;(317) 873-3371
ChIJgaaHlRNPE4gRl4szG5jBBlo;Homewood Health Campus;40.0749165/-86.476158;2494 N Lebanon St, Lebanon, IN 46052, USA;city;Center Township;46052;Boone County;3.8;http://www.homewoodhc.com/;N/A;(765) 482-2076
ChIJB8-GhG9TE4gRn6xOsBhQhZ0;Anson Senior Living;39.952395/-86.3373124;6800 Central Boulevard, Zionsville, IN 46077, USA;city;Eagle Township;46077;Boone County;;https://www.spectrumretirement.com/senior-living/in/whitestown/anson-senior-living/;N/A;(317) 202-1004
ChIJdyWcG5KqFIgRvbGYCgGOVdE;The Hearth at Tudor Gardens;39.9597122/-86.24488269999999;11755 N Michigan Rd, Zionsville, IN 46077, USA;city;Eagle Township;46077;Boone County;3.2;http://tudorgardens.thehearth.net/contact;N/A;(317) 732-5958
ChIJb3Ws3qWtFIgRWtepcq3aRd8;Brookdale Carmel;39.963301/-86.121956;301 Executive Dr, Carmel, IN 46032, USA;city;Clay Township;46032;Hamilton County;4;https://www.brookdale.com/en/communities/brookdale-carmel.html;N/A;(317) 991-1068
ChIJ3-qqcSpVa4gRJ-CMLoWUTjg;MorningSide of College Park;39.916197/-86.216471;8810 Colby Blvd, Indianapolis, IN 46268, USA;city;Pike Township;46268;Marion County;2;http://www.morningsideofcollegepark.com/;N/A;(317) 872-4567
ChIJ54iZ82esFIgRSpEYOIAYFoA;Sunrise on Old Meridian;39.9674225/-86.156781;12130 Old Meridian St, Carmel, IN 46032, USA;city;Clay Township;46032;Hamilton County;4.5;https://www.sunriseseniorliving.com/communities/sunrise-on-old-meridian/overview.aspx;N/A;(317) 569-0100
ChIJqZca1WhPE4gRTj1e5lvoUK0;Crown Pointe;40.0791201/-86.474493;610 Crown Pointe Dr, Lebanon, IN 46052, USA;city;Center Township;46052;Boone County;;http://crownpointecommunities.com/facilities/crownpointe-lebanon/;N/A;(765) 482-3436
ChIJSwXmZDmsFIgRySt4UDFo5E8;Carmel Senior Living;39.98433/-86.1482336;13390 N Illinois St, Carmel, IN 46032, USA;city;Clay Township;46032;Hamilton County;3.5;https://www.spectrumretirement.com/senior-living/in/carmel/carmel-senior-living/;N/A;(317) 451-4702
ChIJeRBlVECsFIgRSret0yjCdSQ;Rose Senior Living Carmel;39.9762613/-86.15075159999999;1285 Fairfax Manor Dr, Carmel, IN 46032, USA;city;Clay Township;46032;Hamilton County;5;http://www.roseseniorliving.com/;N/A;(317) 249-8830
ChIJy4MqaoZVa4gRBDgKBm_N7B0;Brookdale Hospice;39.87120669999999/-86.25220299999999;5354 W 62nd St, Indianapolis, IN 46268, USA;city;Indianapolis;46268;Pike Township;;http://www.brookdale.com/en/our-services/home-health-services/hospice/brookdale-hospice-indianapolis.html;N/A;(317) 396-0151
ChIJVYGD-gyubIgRBmpd3lfNUp0;Brownsburg Meadows;39.836341/-86.40049599999999;2 E Tilden Rd, Brownsburg, IN 46112, USA;city;Lincoln Township;46112;Hendricks County;3.3;http://www.ascseniorcare.com/location/brownsburg-meadows/?utm_source=google&utm_medium=organic&utm_content=brownsburg-as87&utm_campaign=maps;N/A;(317) 852-8585
ChIJoTu9CaWqFIgRK0zmRESaL9U;Hoosier Village Hickory Hall;39.9326946/-86.24875759999999;5292 Snowbell Ln, Indianapolis, IN 46268, USA;city;Eagle Township;46268;Boone County;;http://www.hoosiervillage.com/;N/A;(317) 873-3349
ChIJLcweb1-yFIgRml8azqeM4Ng;Bickford of Carmel;39.9559593/-86.06991119999999;5829 116th St. East, Carmel, IN 46033, USA;city;IN;46033;United States;4;http://www.enrichinghappiness.com/branch/bickford-of-carmel;N/A;(317) 813-3232
ChIJyT2hQPtVa4gRwLSF1tDm59o;Bloom At Eagle Creek;39.8452826/-86.2472861;5045 W 52nd St, Indianapolis, IN 46254, USA;city;Pike Township;46254;Marion County;4.7;http://www.bloomateaglecreek.com/;N/A;(317) 739-4300
ChIJt_N-C8lUa4gR04-conK5PC4;Spring Mill Meadows;39.9127717/-86.1984234;2140 W 86th St, Indianapolis, IN 46260, USA;city;Indianapolis;46260;Washington Township;3;http://www.ascseniorcare.com/location/spring-mill-meadows/?utm_source=google&utm_medium=organic&utm_content=indianapolis-37&utm_campaign=maps;N/A;(317) 872-7211
ChIJvUNU1q2qFIgRc9hvTAhC0oc;Hoosier Village Retirement Community;39.9257163/-86.24841029999999;5300 West 96th Street, Indianapolis, IN 46268, USA;city;Eagle Township;46268;Boone County;5;http://www.hoosiervillage.com/;N/A;(317) 873-3349
ChIJv3faVcuoFIgRzl2mg8TK-BU;Wellbrooke of Westfield;40.0559551/-86.14106219999999;937 E 186th St, Westfield, IN 46074, USA;city;Washington Township;46074;Hamilton County;5;http://www.wellbrookeofwestfield.com/;N/A;(317) 804-8044
ChIJy4MqaoZVa4gRJihtDYJkBpc;Robin Run Village;39.87085260000001/-86.25255969999999;5354 W 62nd St, Indianapolis, IN 46268, USA;city;Indianapolis;46268;Pike Township;3.4;https://lifecare.brookdale.com/en/communities/robin-run-village.html;N/A;(317) 324-9584
ChIJz4DncKiFFIgRbYoWwr2mHzM;Primrose Retirement Community of Kokomo;40.4491733/-86.1341389;329 Rainbow Dr, Kokomo, IN 46902, USA;city;Center Township;46902;Howard County;4.4;http://www.primroseretirement.com/kokomo-indiana-senior-care-communities/;N/A;(765) 252-1290
ChIJy3byFMJSa4gRv0XnCWgcT7g;Traditions at Solana;39.896897/-86.11785399999999;7721 Battery Pointe Way, Indianapolis, IN 46240, USA;city;Indianapolis;46240;Washington Township;5;http://www.traditionsatsolana.com/;N/A;(317) 860-0000
ChIJUcogLxVVE4gRLHKSxYJ9yGg;Auguste's Cottage;39.9443646/-86.2772808;675 S 1000 E, Zionsville, IN 46077, USA;city;Eagle Township;46077;Boone County;;http://www.ascseniorcare.com/service/augustes-cottage-memory-care/;N/A;(317) 973-0357
ChIJ6-Xv5-uvbIgRTRy7ZDMUbv8;Park Square Manor;39.778068/-86.4026779;6990 E County Road 100 N, Avon, IN 46123, USA;city;Washington Township;46123;Hendricks County;4.8;https://www.fivestarseniorliving.com/communities/in/avon/park-square-manor;N/A;(317) 272-7300
ChIJKx_YXQ-nFIgRiyIYmzBlcoc;Premier Healthcare of Sheridan (formally known as Sheridan Healthcare Center);40.13119200000001/-86.22633499999999;803 S Hamilton St, Sheridan, IN 46069, USA;city;Adams Township;46069;Hamilton County;2.3;http://www.premierofindiana.com/;N/A;(317) 758-4426
ChIJ04dW0rKvFIgRZYlktQxChFg;Sanders Glen Retirement Community;40.039784/-86.122242;334 S Cherry St, Westfield, IN 46074, USA;city;Washington Township;46074;Hamilton County;;http://www.sandersglen.com/;N/A;(317) 867-0212
ChIJQR8KTDJqE4gRUOs-4G3P_2I;Wesley Manor Retirement Community;40.29638199999999/-86.5109054;1555 N Main St, Frankfort, IN 46041, USA;city;Center Township;46041;Clinton County;3;http://www.wesleymanor.org/;N/A;(765) 659-1811
ChIJmYeyfOXbFIgRWhu-jqnPC_Q;Primrose Retirement Community of Anderson;40.1360782/-85.69324159999999;1118 W Cross St, Anderson, IN 46011, USA;city;Lafayette Township;46011;Madison County;4;http://www.primroseretirement.com/anderson-indiana-senior-care-communities/;N/A;(765) 274-4464
ChIJN55tM1GsFIgRum_uMGBTOIQ;The Barrington of Carmel;39.9597531/-86.1399335;1335 S Guilford Rd, Carmel, IN 46032, USA;city;Clay Township;46032;Hamilton County;3.9;http://www.thebarringtonofcarmel.com/;N/A;(317) 810-1800
ChIJX9btCdFUa4gRFJgN3sP-FM0;Willow Lake Place;39.9127276/-86.20831129999999;2725 Lake Cir Dr, Indianapolis, IN 46268, USA;city;Pike Township;46268;Marion County;1.5;http://www.enlivant.com/communities/indiana/willow-lake-place-indianapolis;N/A;(317) 315-5294
ChIJxRZ4C6itFIgR0KvpGnf3iV8;Carmel Health & Living Community;39.958454/-86.125349;118 Medical Dr, Carmel, IN 46032, USA;city;Clay Township;46032;Hamilton County;2.5;http://www.carmelhealthliving.com/;N/A;(317) 844-4211
ChIJkVSbwkGsFIgRxQUCePUxw_E;ManorCare Health Services-Summer Trace;39.9754655/-86.15393659999999;12999 N Pennsylvania St, Carmel, IN 46032, USA;city;Clay Township;46032;Hamilton County;3.4;https://www.manorcare.com/Summertrace;N/A;(317) 848-2448
ChIJh7AftZSobIgRgM1EIdo0VBQ;Westside Garden Plaza;39.78464079999999/-86.313785;8616 West 10th Street, Indianapolis, IN 46234, USA;city;Indianapolis;46234;Wayne Township;4.4;https://www.centurypa.com/senior-living/westside-garden-plaza/;N/A;(317) 271-1020
ChIJXUkwQQ-zFIgRjMfgg40NqL8;Meadow Brook Senior Living;39.9495536/-86.04076180000001;11011 Village Square Ln, Fishers, IN 46038, USA;city;Delaware Township;46038;Hamilton County;4.8;https://www.spectrumretirement.com/senior-living/in/fishers/meadow-brook-senior-living/;N/A;(317) 537-0157
ChIJCT6_SPuwFIgRGudlersYyP0;Riverwalk Commons;40.0419491/-86.0432426;7235 Riverwalk Way E, Noblesville, IN 46062, USA;city;Noblesville Township;46062;Hamilton County;4.5;https://www.fivestarseniorliving.com/communities/in/noblesville/riverwalk-commons;N/A;(317) 770-0011
ChIJb-YnEexVa4gRHZZdK5nSLso;Evergreen Crossing & The Lofts;39.8502281/-86.2425325;5404 Georgetown Rd, Indianapolis, IN 46254, USA;city;Indianapolis;46254;Pike Township;2.8;http://www.evergreenslc.com/indianapolis;N/A;(317) 291-5404
ChIJz7udS7dUa4gR6E2S46BuRkg;Traditions at North Willow;39.90960399999999/-86.19059799999999;1703 W 86th St, Indianapolis, IN 46260, USA;city;Indianapolis;46260;Washington Township;5;http://www.traditionsatnorthwillow.com/;N/A;(317) 876-2916
ChIJBy5w1betFIgRzEmK-2NBDO4;Woodland Terrace of Carmel;39.984101/-86.1381492;689 Pro-Med Ln, Carmel, IN 46032, USA;city;Clay Township;46032;Hamilton County;4.9;http://woodlandterraceofcarmel.com/;N/A;(317) 616-0858
ChIJhzMLgFisFIgRqC_jlpHzlLc;Crown Pointe of Carmel;39.9573276/-86.1481878;11610 Technology Dr, Carmel, IN 46032, USA;city;Clay Township;46032;Hamilton County;2.5;http://www.inhcf.com/crownpointeofcarmel/home/;N/A;(317) 818-1786
ChIJGSjno3f9EogRuJpKm36F7C8;Elmcroft of West Lafayette;40.469445/-86.91381899999999;3575 Senior Pl, West Lafayette, IN 47906, USA;city;Wabash Township;47906;Tippecanoe County;5;http://www.elmcroft.com/community/elmcroft-of-west-lafayette/;N/A;(765) 464-1805
ChIJbzqHYZyvbIgR79U5lSXxb98;Countryside Meadows;39.7738154/-86.3822811;762 N Dan Jones Road, Avon, IN 46123, USA;city;IN;46123;United States;3.1;http://www.ascseniorcare.com/location/countryside-meadows/?utm_source=google&utm_medium=organic&utm_content=avon-as95&utm_campaign=maps;N/A;(317) 495-7200
ChIJTzuECGe0FIgRFjSxdlH_uRM;Hamilton Trace Family-first Senior Living;39.960813/-85.99262499999999;11851 Cumberland Rd, Fishers, IN 46037, USA;city;Fall Creek Township;46037;Hamilton County;3;http://www.hamiltontrace.us/;N/A;(317) 813-4444
ChIJjRbIa4uwFIgRK8uav_JAGUE;Harbour Manor & The Lodge;40.059096/-86.04889399999999;1667 Sheridan Rd, Noblesville, IN 46062, USA;city;Noblesville Township;46062;Hamilton County;3.3;http://www.hmanorlodge.com/;N/A;(317) 770-3434
ChIJseXbMKKPbYgRM4eOUBhcRlg;Miller's Senior Living Community;39.10292099999999/-87.41539800000001;420 W Wolfe St, Sullivan, IN 47882, USA;city;Hamilton Township;47882;Sullivan County;;http://www.millersseniorliving.com/sullivan-assisted-living;N/A;(812) 268-5215
ChIJ6Wct5HRyaYgREB175f2NzPQ;Riverview Village;38.2992734/-85.7594761;586 Eastern Blvd, Clarksville, IN 47129, USA;city;Jeffersonville Township;47129;Clark County;1.2;http://www.ascseniorcare.com/location/riverview-village/?utm_source=google&utm_medium=organic&utm_content=clarksville-as49&utm_campaign=maps;N/A;(812) 282-6663
ChIJQ0KR9_xxaYgRJnx5pJP18mg;Westminster Village Kentuckiana;38.3335425/-85.76693899999999;2200 Greentree N, Clarksville, IN 47129, USA;city;Jeffersonville Township;47129;Clark County;;http://westminstervillageretirement.org/contact-us;N/A;(812) 282-9691
ChIJzRdk8opyaYgRP1d0Kfk3Cc4;Hillcrest Village;38.28112169999999/-85.7482941;203 Sparks Ave, Jeffersonville, IN 47130, USA;city;Jeffersonville Township;47130;Clark County;4.2;http://www.ascseniorcare.com/location/hillcrest-village/?utm_source=google&utm_medium=organic&utm_content=jeffersonville-asc220&utm_campaign=maps;N/A;(812) 283-7918
ChIJp4aKI9YowokRs3noA8xGxZU;The Villages at Historic Silvercrest;38.2922016/-85.8526122;1809 Old Vincennes Rd, New Albany, IN 47150, USA;city;New Albany Township;47150;Floyd County;4.6;http://www.trilogyhs.com/campuses/villages-historic-silvercrest-0;N/A;(812) 542-6720
ChIJJw58swxyaYgRtJ-XCvj3_4w;Clark Rehabilitation and Skilled Nursing Center;38.3046008/-85.76002989999999;517 Little League Blvd, Clarksville, IN 47129, USA;city;Jeffersonville Township;47129;Clark County;2.6;http://www.ascseniorcare.com/location/clark-rehabilitation-skilled-nursing-center/?utm_source=google&utm_medium=organic&utm_content=clarksville-as81&utm_campaign=maps;N/A;(812) 282-8406
ChIJHZhLLlMNaYgRT4ZtlBEFrgk;Christian Care Communities;38.24092700000001/-85.75985039999999;960 S 4th St, Louisville, KY 40203, USA;city;Louisville;40203;Jefferson County;2;http://www.christiancarecommunities.org/;N/A;(502) 583-6533
ChIJ00SztKxyaYgRPPj19Oo8sjw;Chapel House;38.2402495/-85.76043159999999;945 S 5th St, Louisville, KY 40203, USA;city;Louisville;40203;Jefferson County;3.7;http://www.christiancarecommunities.org/;N/A;(502) 584-5178
ChIJDeC0ZIJxaYgRTV7e-ADq-BU;Riverbend;38.3311002/-85.72693799999999;2715 Charlestown Pike, Jeffersonville, IN 47130, USA;city;Jeffersonville Township;47130;Clark County;;http://www.capitalsenior.com/riverbend/;N/A;(866) 699-6029
ChIJ9z8FtHB1aYgRzh77iD12ehM;Episcopal Church Home;38.269394/-85.61144299999999;7504 Westport Rd, Louisville, KY 40222, USA;city;Jefferson County;40222;Kentucky;4.2;http://episcopalchurchhome.org/;N/A;(502) 736-7800
ChIJo6fRr_1xaYgRZcCP4DU_Z6M;Yellowwood Terrace;38.33179700000001/-85.76453099999999;2100 Greentree N, Clarksville, IN 47129, USA;city;Jeffersonville Township;47129;Clark County;4.3;http://www.rhf.org/location/yellowwood-terrace/;N/A;(812) 282-7761
ChIJl4ijFHFyaYgRtY-OJIV8AoM;Colonial Village Apartments;38.3237618/-85.7679222;1830 Garrison Dr, Clarksville, IN 47129, USA;city;Jeffersonville Township;47129;Clark County;;http://www.justus.net/;N/A;(812) 288-6627
ChIJS_U0DHRyaYgRe2xURPM89ZU;Right At Home;38.29916230000001/-85.7621712;639 Eastern Blvd # D, Clarksville, IN 47129, USA;city;Clarksville;47129;Jeffersonville Township;;http://www.scindiana.rightathome.net/;N/A;(812) 285-9105
ChIJCXcC4SZ1aYgRiUwHRARJ2Sg;Atria St. Matthews;38.25038240000001/-85.6408524;120 S Hubbards Ln, Louisville, KY 40207, USA;city;Jefferson County;40207;Kentucky;5;http://www.atriaseniorliving.com/retirement-communities/atria-st-matthews-louisville-ky/;N/A;(502) 287-1448
ChIJXUJpudpvaYgRlP6-N4kSibQ;Traditions At Hunter Station;38.37861900000001/-85.7760509;400 Hunter Station Rd, Sellersburg, IN 47172, USA;city;Silver Creek Township;47172;Clark County;;http://www.traditionsathunterstation.com/;N/A;(812) 748-5258
ChIJ-fLlziURbYgRJigSdY0EaiE;Towne Park Assisted Living of Brazil;39.5208665/-87.10819979999999;503 S Murphy Ave, Brazil, IN 47834, USA;city;Brazil Township;47834;Clay County;;http://www.towneparkbrazil.com/;N/A;(812) 420-4100
ChIJUTOhfsUQbYgRB4-F9MB8t-4;Cloverleaf Healthcare of Knightsville;39.5222341/-87.09027270000001;9325 N Knightsville Crawford St, Brazil, IN 47834, USA;city;Van Buren Township;47834;Clay County;5;http://www.cloverleafhealthcare.com/;N/A;(812) 446-2309
ChIJtSFXECURbYgRbfb5oEYNzaw;Exceptional Living Center of Brazil;39.521257/-87.110626;501 S Murphy Ave, Brazil, IN 47834, USA;city;Brazil Township;47834;Clay County;3;http://elcbrazil.com/;N/A;(812) 446-2636
ChIJtfDNLfhvbYgR5rRmnrbAuRk;Sycamore Manor;39.4664323/-87.3781607;222 S 25th St, Terre Haute, IN 47803, USA;city;Harrison Township;47803;Vigo County;3.7;https://www.fivestarseniorliving.com/communities/in/terre-haute/sycamore-manor;N/A;(812) 478-2400
ChIJ_fG0DZkObYgRRK2uWiNPvtw;Cobblestone Crossings;39.38160860000001/-87.3873911;1850 E Howard Wayne Drive, Terre Haute, IN 47802, USA;city;Honey Creek Township;47802;Vigo County;3.3;http://www.cobblestonehc.com/;N/A;(812) 232-0406
ChIJow5RSmp6bYgRw3y4XG8a4lY;Bethesda Gardens Assisted Living Terre Haute;39.39979900000001/-87.39448399999999;1450 E Crossing Blvd, Terre Haute, IN 47802, USA;city;Honey Creek Township;47802;Vigo County;4;http://www.bethesdagardensin.com/;N/A;(812) 298-8209
ChIJTzcotGt6bYgRvrTKYPVAvL0;Wyndmoor Senior Living;39.3988362/-87.39438509999999;1465 E Crossing Blvd, Terre Haute, IN 47802, USA;city;Honey Creek Township;47802;Vigo County;5;https://www.thewyndmoor.com/;N/A;(812) 298-9963
ChIJNX9drpJ6bYgRnp5cGckGaoo;Davis Gardens Health Center;39.4273536/-87.4017599;1120 E Davis Dr, Terre Haute, IN 47802, USA;city;Honey Creek Township;47802;Vigo County;;http://westminstervillagein.com/;N/A;(812) 232-7533
ChIJnVdmrpJ6bYgRYv4CclnugBk;Westminster Village;39.429016/-87.40387699999999;1120 E Davis Dr, Terre Haute, IN 47802, USA;city;Honey Creek Township;47802;Vigo County;5;http://www.westminstervillagein.com/;N/A;(812) 232-7533
ChIJg-aoua3fbIgRUxyrUdKi7fA;Asbury Towers Retirement Community;39.6421008/-86.86571309999999;102 W Poplar St, Greencastle, IN 46135, USA;city;Greencastle Township;46135;Putnam County;5;http://www.asburytowers.com/;N/A;(765) 653-5148
ChIJhd5UPl56bYgRyKO5cK7n_rs;Springhill Village;39.4119832/-87.40220670000001;1001 E Springhill Dr, Terre Haute, IN 47802, USA;city;Honey Creek Township;47802;Vigo County;3.4;http://www.ascseniorcare.com/location/springhill-village/?utm_source=google&utm_medium=organic&utm_content=terre-haute-as45&utm_campaign=maps;N/A;(812) 299-6300
ChIJSX-A0EfebIgR63mk-ALeTJE;Visiting Angels;39.6147274/-86.8404094;3197 S US Highway 231, Greencastle, IN 46135, USA;city;IN;46135;United States;5;http://www.visitingangels.com/westcentralind/home/?utm_source=gmb&utm_medium=organic&utm_campaign=local;N/A;(765) 848-1411
ChIJAUGZXWpnbIgRFxsKwugKr5Y;BeeHive Homes of Bloomington;39.1648648/-86.56321009999999;2306 W 3rd St, Bloomington, IN 47404, USA;city;Bloomington Township;47404;Monroe County;5;http://beehivehomes.com/location/bloomington/;N/A;(812) 955-0800
ChIJw1742FWibYgRiv0tUxCrHPM;Shakamak Good Samaritan Center;39.163924/-87.187028;800 E Ohio St, Jasonville, IN 47438, USA;city;Wright Township;47438;Greene County;5;https://www.good-sam.com/locations/shakamak-retirement-community;N/A;(812) 665-2226
ChIJISgAVn3ebIgRe8EjAKVLmUg;Autumn Glen;39.64836849999999/-86.83374099999999;98 10th St, Greencastle, IN 46135, USA;city;Greencastle Township;46135;Putnam County;;http://www.capitalsenior.com/autumnglen/;N/A;(877) 929-7421
ChIJa6QIYKzfbIgRecz3WJVJDJQ;Mill Pond Health Campus;39.6418437/-86.8373134;1014 Mill Pond Ln, Greencastle, IN 46135, USA;city;Greencastle Township;46135;Putnam County;3;http://www.millpondhc.com/;N/A;(765) 653-4397
ChIJsY-TNSZkbIgRpviAo9ialgs;CarDon & Associates;39.15544999999999/-86.49651399999999;2749 E Covenanter Dr, Bloomington, IN 47401, USA;city;Perry Township;47401;Monroe County;4;http://www.cardon.us/;N/A;(812) 332-2265
ChIJOfUdNBplbYgRWk3C9NsRUFI;Harrison's Crossing Health Campus;39.4843133/-87.4128226;395 8th Ave, Terre Haute, IN 47807, USA;city;Harrison Township;47807;Vigo County;5;http://harrisonscrossinghc.com/;N/A;(812) 234-7111
ChIJ5_I8FGOobIgRF8WF8F_hWJs;Crestwood Village West;39.77002410000001/-86.2929616;230 Welcome Way Blvd W Dr, Indianapolis, IN 46214, USA;city;Indianapolis;46214;Wayne Township;2.5;http://www.crestwood-living.com/;N/A;(317) 271-6475
ChIJzy59U_-vbIgRVQQhR-0O9AU;Senior Helpers;39.7618031/-86.4137873;6319 E US Hwy 36, Avon, IN 46123, USA;city;Washington Township;46123;Hendricks County;;http://www.seniorhelpers.com/;N/A;(317) 272-5600
ChIJb4JehNJ6bYgRYkULQwaRWis;Anthony Square Senior Living;39.4558725/-87.41132689999999;500 College Ave, Terre Haute, IN 47802, USA;city;Terre Haute;47802;Harrison Township;;http://www.pfister-and-co.com/;N/A;(812) 235-0002
ChIJtZyUbK9lbYgRAvqzBkNwAG4;Cannon Inn;39.5055091/-87.4095148;200 Francis Ave Ct, Terre Haute, IN 47804, USA;city;Harrison Township;47804;Vigo County;;http://cannoninn.com/;N/A;(812) 466-3102
ChIJ4zzlsUz-bYgRXo8Kts05r6A;Colonial Assisted Living Comm;38.65326/-87.499656;1622 S Hart Street Rd, Vincennes, IN 47591, USA;city;Vincennes Township;47591;Knox County;5;http://colonialassistedliving.net/;N/A;(812) 895-1504
ChIJA9o4fKNnbIgRcSB4X53npP4;Monroe Place;39.13693850000001/-86.5550727;2770 S Adams St, Bloomington, IN 47403, USA;city;Perry Township;47403;Monroe County;2.4;http://www.enlivant.com/communities/indiana/monroe-place-bloomington;N/A;(812) 727-3559
ChIJ-daydcJmbIgRQ_IQS5T7l60;Hearthstone Health Campus;39.194416/-86.57498699999999;3043 N Lintel Dr, Bloomington, IN 47404, USA;city;Richland Township;47404;Monroe County;4.8;http://www.hearthstonehc.com/;N/A;(812) 333-7622
ChIJ5T8CfE27bIgRjL4sMu-T4Xs;Sugar Grove;39.6899616/-86.42094019999999;5865 Sugar Ln, Plainfield, IN 46168, USA;city;Guilford Township;46168;Hendricks County;2;http://www.capitalsenior.com/sugargrove/;N/A;(866) 277-5046
ChIJTcIxwwRdbYgR8PQjmJOoylQ;Clinton Gardens;39.6571565/-87.4119116;375 S 11th St, Clinton, IN 47842, USA;city;Clinton Township;47842;Vermillion County;5;http://www.ascseniorcare.com/location/clinton-gardens/?utm_source=google&utm_medium=organic&utm_content=clinton-as155&utm_campaign=maps;N/A;(765) 832-2491
ChIJUR8_E-ZcbYgRF3dkz9TxOJw;Meadow Park Apartments;39.67356/-87.40439239999999;645 Clinton St, Clinton, IN 47842, USA;city;Clinton Township;47842;Vermillion County;5;http://clintonapartment.com/;N/A;(844) 774-9641
ChIJranjW0BdbYgRZ0nYcSVI8fI;Vermillion Convalescent Center;39.641772/-87.39875800000002;1705 S Main St, Clinton, IN 47842, USA;city;Clinton Township;47842;Vermillion County;5;http://www.inhcf.com/vermillioncc/home/;N/A;(765) 832-3573
ChIJxeshvxh1bogRwGzBvfi4Z5Y;Prairie Village Nursing & Rehabilitation;38.6432651/-87.17906669999999;801 S State Rd 57, Washington, IN 47501, USA;city;IN;47501;United States;3.7;http://www.ascseniorcare.com/location/prairie-village-nursing-rehabilitation/?utm_source=google&utm_medium=organic&utm_content=washington-asc0082&utm_campaign=maps;N/A;(812) 254-4516
ChIJfYYx-5HObYgRKvr2OI-OjVw;Park View Village Christian Care;38.8347937/-86.99683279999999;800 S West St, Odon, IN 47562, USA;city;Madison Township;47562;Daviess County;5;http://www.parkview-village.org/;N/A;(812) 636-3000
ChIJsWcc1S3fbYgRVllEw2xbxIY;Emerald Place;38.6521014/-87.14760179999999;297 S 100 E, Washington, IN 47501, USA;city;Washington Township;47501;Daviess County;4;http://www.enlivant.com/communities/indiana/emerald-place-washington;N/A;(812) 213-4437
ChIJR4PUtGnfbYgRqJj_c33Zqho;The Villages at Oak Ridge;38.63184099999999/-87.16365499999999;1694 Troy Rd, Washington, IN 47501, USA;city;Washington Township;47501;Daviess County;4.8;http://villagesatoakridge.com/;N/A;(812) 254-3800
ChIJ9ToKR2jfbYgRM9q00xxvRmc;Legends Village;38.63100499999999/-87.16357499999999;1764 Troy Rd, Washington, IN 47501, USA;city;Washington Township;47501;Daviess County;5;http://thelegendsvillage.com/;N/A;(812) 254-9500
ChIJ5R12dP1ibogRppS8UT7DykU;The Timbers of Jasper;38.41603720000001/-86.9419846;2909 Howard Dr, Jasper, IN 47546, USA;city;Bainbridge Township;47546;Dubois County;3.2;http://www.ascseniorcare.com/location/the-timbers-of-jasper/?utm_source=google&utm_medium=organic&utm_content=jasper-156&utm_campaign=maps;N/A;(812) 482-6161
ChIJf7ZMABJibogRLpmibzq2wQ0;Brookside Village Family-first Senior Living;38.3769009/-86.91248600000002;1111 Church Ave, Jasper, IN 47546, USA;city;Bainbridge Township;47546;Dubois County;4;http://www.brooksidevillage.us/;N/A;(812) 634-7750
ChIJY-0K7BxjbogRRSnnY5GyhYQ;St. Charles Health Campus;38.4153598/-86.94580209999999;3150 St Charles St, Jasper, IN 47546, USA;city;Bainbridge Township;47546;Dubois County;5;http://www.stcharleshc.com/;N/A;(812) 634-6570
ChIJKUlzVSLfbYgRUZGNblBsxmI;Hillside Manor Nursing Home;38.65230059999999/-87.16284189999999;1109 E National Hwy, Washington, IN 47501, USA;city;Washington Township;47501;Daviess County;5;N/A;N/A;(812) 254-7159
ChIJVXEFxLEsbogRRfbJKxwcS50;Atria Newburgh;37.95802299999999/-87.449529;5311 Rosebud Ln, Newburgh, IN 47630, USA;city;Ohio Township;47630;Warrick County;4.6;http://www.atriaseniorliving.com/retirement-communities/atria-newburgh-newburgh-in/;N/A;(812) 618-9685
ChIJMRhmorn-bYgReucAMg3ARWE;Fox Ridge Manor;38.6984548/-87.4770113;150 Fox Ridge Dr, Vincennes, IN 47591, USA;city;Vincennes Township;47591;Knox County;4.7;https://www.fivestarseniorliving.com/communities/in/vincennes/fox-ridge-manor;N/A;(812) 895-1000
ChIJqcEy4cIsbogRSp_tl1mKrEw;Primrose Retirement Community of Newburgh;37.97131359999999/-87.4271588;9800 Lincoln Ave, Newburgh, IN 47630, USA;city;Ohio Township;47630;Warrick County;5;http://www.primroseretirement.com/newburgh-indiana-senior-living-communities/;N/A;(812) 801-4358
ChIJI-8HGxoUbIgR7wmR91VdR7A;Westview Nursing and Rehabilitation Center;38.863248/-86.513969;1510 Clinic Dr, Bedford, IN 47421, USA;city;Shawswick Township;47421;Lawrence County;4;http://www.ascseniorcare.com/location/westview-nursing-rehabilitation-center/?utm_source=google&utm_medium=organic&utm_content=bedford-78&utm_campaign=maps;N/A;(812) 279-4494
ChIJW6oAvRmnbogRpL6TrVzSB6U;Paoli Health & Living Community;38.56653799999999/-86.47566599999999;559 W Longest St, Paoli, IN 47454, USA;city;Paoli Township;47454;Orange County;1.5;http://www.paolihealth.com/;N/A;(812) 723-2595
ChIJ3cS5z7HScYgROPSnbYyEyRU;Solarbron Family-first Senior Living;37.9600942/-87.68615659999999;1501 McDowell Rd, Evansville, IN 47712, USA;city;Evansville;47712;Perry Township;5;http://www.solarbron.org/;N/A;(812) 985-0055
ChIJAdj8kLc3R4YRM7wl6dkNqfM;RidgeWood Health Campus;39.111126/-84.88515599999999;Lawrenceburg St, Conroe, TX 77385, USA;city;Dearborn County;77385;Texas;;http://www.ridgewoodhs.com/;N/A;(812) 537-5700
ChIJ69MirjDRQYgRM_XBWNEURb0;Edenburg Senior Apartments;39.0974392/-84.84722259999999;333 St Clair St, Lawrenceburg, IN 47025, USA;city;Lawrenceburg Township;47025;Dearborn County;;N/A;N/A;(812) 532-3557
ChIJo55YWy7RQYgRoAJb8-hbG1E;Dearborn County GSI;39.090891/-84.8499504;Lawrenceburg, IN 47025, USA;city;IN;47025;United States;;N/A;N/A;(812) 537-2015
ChIJqROJZJvWQYgR5RDw1iNFgSI;Shady Nook Care Center;39.119733/-84.88694900000002;36 Valley Dr, Lawrenceburg, IN 47025, USA;city;Lawrenceburg Township;47025;Dearborn County;;http://shadynookcarecenter.com/;N/A;(812) 537-0930
ChIJ769ME4hMQIgR5keh9B6QWiA;Brookdale Finneytown;39.23124759999999/-84.51079349999999;9101 Winton Rd, Cincinnati, OH 45231, USA;city;Springfield Township;45231;Hamilton County;3;https://www.brookdale.com/en/communities/brookdale-finneytown.html;N/A;(513) 258-2351
ChIJbTSs2jq4QYgRrJmKj3jJZvQ;Brookdale Edgewood;39.0173234/-84.57685859999999;2950 Turkeyfoot Rd, Edgewood, KY 41017, USA;city;Kenton County;41017;Kentucky;5;https://www.brookdale.com/en/communities/brookdale-edgewood.html;N/A;(859) 908-9904
ChIJC9R13e-LaogR0fK6TWjGRAA;St Andrews Health Campus;39.294929/-85.1988451;1400 Lammers Pike, Batesville, IN 47006, USA;city;Adams Township;47006;Ripley County;5;http://www.standrewshc.com/;N/A;(812) 934-5090
ChIJA7D0JpTHQYgRAG5Cvk09Ckk;Elmcroft of Florence KY;39.004456/-84.6236615;212 Main St, Florence, KY 41042, USA;city;Boone County;41042;Kentucky;3;http://www.elmcroft.com/community/elmcroft-of-florence-ky/;N/A;(859) 980-7200
ChIJ31xL4IZOQIgRmkZlbfg8nPQ;Brookdale Springdale;39.2797394/-84.4830123;11320 Springfield Pike, Cincinnati, OH 45246, USA;city;Hamilton County;45246;Ohio;5;https://www.brookdale.com/en/communities/brookdale-springdale.html;N/A;(513) 815-4345
ChIJTYaqsMe0QYgR3r1tgSD3qNw;Twin Towers Senior Living Community;39.1876132/-84.54737539999999;5343 Hamilton Ave, Cincinnati, OH 45224, USA;city;Cincinnati;45224;Hamilton County;5;http://www.lec.org/;N/A;(513) 853-2000
ChIJ5y-n0HxKQIgRljV6y47WOzo;Atria Northgate Park;39.2400334/-84.59657050000001;9191 Round Top Rd, Cincinnati, OH 45251, USA;city;Colerain Township;45251;Hamilton County;4.7;http://www.atriaseniorliving.com/retirement-communities/atria-northgate-park-cincinnati-oh/;N/A;(513) 457-4733
ChIJpYhRcuhSQIgR3mgYPOYVKkk;Brookdale Deer Park;39.2084216/-84.4062988;3801 E Galbraith Rd, Cincinnati, OH 45236, USA;city;Hamilton County;45236;Ohio;2;https://www.brookdale.com/en/communities/brookdale-deer-park.html;N/A;(513) 258-2361
ChIJU3S7HfCLaogRSTFeUGsM4ZY;Chateau of Batesville;39.2946814/-85.2001739;44 Chateau Blvd, Batesville, IN 47006, USA;city;Adams Township;47006;Ripley County;5;http://www.capitalsenior.com/chateauofbatesville/;N/A;(866) 480-8817
ChIJZcfV6SkHQIgRxyOLWpPUM24;Brookdale Richmond;39.82703429999999/-84.8502123;3700 S A St, Richmond, IN 47374, USA;city;Wayne Township;47374;Wayne County;1;https://www.brookdale.com/en/communities/brookdale-richmond.html;N/A;(765) 252-1467
ChIJh5XH2tysQYgRDRqhKrw0uoc;The Kenwood by Senior Star;39.1672758/-84.38759549999999;5435 Kenwood Rd, Cincinnati, OH 45227, USA;city;Cincinnati;45227;Hamilton County;3.5;http://www.seniorstar.com/kenwood/;N/A;(513) 258-2815
ChIJi7g37NG5QYgRYe5Yuwv-00c;Atria Summit Hills;39.018439/-84.55860699999999;2625 Legends Way, Crestview Hills, KY 41017, USA;city;Kenton County;41017;Kentucky;5;http://www.atriaseniorliving.com/retirement-communities/atria-summit-hills-crestview-hills-ky/;N/A;(859) 757-4951
ChIJyV_rJE1fQIgRk0DuD7pfiBI;Otterbein Lebanon Senior Lifestyle Community;39.4459866/-84.279611;585 N State Route 741, Lebanon, OH 45036, USA;city;OH;45036;United States;3.4;http://www.otterbein.org/lebanon;N/A;(513) 933-5471
ChIJkbAsC35TQIgRTNaaBc8wjf0;Brookdale Kenwood;39.2207431/-84.35621999999999;9090 Montgomery Rd, Cincinnati, OH 45242, USA;city;Sycamore Township;45242;Hamilton County;3.3;https://www.brookdale.com/en/communities/brookdale-kenwood.html;N/A;(513) 815-4347
ChIJnTt0PzW3QYgRO1v8S_hrbRs;Atria Highland Crossing;39.048304/-84.52405499999999;400 Farrell Dr, Covington, KY 41011, USA;city;Kenton County;41011;Kentucky;2;http://www.atriaseniorliving.com/retirement-communities/atria-highland-crossing-fort-wright-ky/;N/A;(859) 654-0433
ChIJ_SX-e_dwaogRLkLiSzcrRas;Rescare Homecare;39.0188969/-85.0620359;10078 Western Row, Dillsboro, IN 47018, USA;city;Clay Township;47018;Dearborn County;;https://www.rescare.com/homecare-services/;N/A;(812) 432-5834
ChIJ10sPn_nKQYgRLnJCRR54gZ4;Artis Senior Living of Bridgetown;39.1600983/-84.6398844;5799 Bridgetown Rd, Cincinnati, OH 45248, USA;city;Green Township;45248;Hamilton County;;http://www.artisseniorliving.com/senior-living/oh/cincinnati/artis-senior-living-of-bridgetown/;N/A;(513) 832-1597
ChIJmzSWrqutQYgRs0lzrzPRpB8;Episcopal Retirement Services;39.1419837/-84.39964980000001;3870 Virginia Ave, Cincinnati, OH 45227, USA;city;Columbia Township;45227;Hamilton County;3.6;http://episcopalretirement.com/;N/A;(513) 271-9610
ChIJwzD4IRZeQIgRWwgy7NN6WQw;Spring Hills Middletown - Assisted Senior Living Facility;39.50008010000001/-84.33351929999999;3851 Towne Blvd, Franklin, OH 45005, USA;city;Franklin Township;45005;Warren County;1;http://www.spring-hills.com/home-health-memory-care-in-franklin/;N/A;(513) 464-9121
ChIJsYVgWYWLaogRtWClijzyopo;Romweber Flats;39.29633889999999/-85.22078610000001;322 South St, Batesville, IN 47006, USA;city;Laughery Township;47006;Ripley County;4;http://www.romweberflats.com/;N/A;(812) 932-3528
ChIJBWIgN3-yQYgRguYwdT7KLTk;Marjorie P. Lee Retirement Community;39.1415978/-84.4395255;3550 Shaw Ave, Cincinnati, OH 45208, USA;city;Cincinnati;45208;Hamilton County;3;http://www.episcopalretirement.com/marjorie-p-lee;N/A;(513) 871-2090
ChIJkVubI5DMQYgRpi8NYsqnMhU;Pristine Senior Living and Post-Acute Care of Cincinnati-Three Rivers;39.16883989999999/-84.7018645;7800 Jandaracres Dr, Cincinnati, OH 45248, USA;city;Miami Township;45248;Hamilton County;3.8;http://www.pristinesrthreerivers.com/;N/A;(513) 941-0787
ChIJjWHrkqjKQYgReiu8W7J3_VA;Renaissance West at North Bend Crossing;39.1874544/-84.6072638;5156 N Bend Crossing, Cincinnati, OH 45247, USA;city;Green Township;45247;Hamilton County;3.4;http://www.renaissancewestnorthbend.com/;N/A;(513) 661-4100
ChIJy3yJuwitQYgRZVaRprpEi8U;Deupree House;39.148462/-84.40784819999999;3939 Erie Ave, Cincinnati, OH 45209, USA;city;Cincinnati;45209;Hamilton County;4.5;http://www.episcopalretirement.com/deupree-house/home;N/A;(513) 561-6363
ChIJFe3BEZrWQYgR8aUxf0D1w3s;Woodland Hills Care Center;39.11585220000001/-84.8838083;403 Bielby Rd, Lawrenceburg, IN 47025, USA;city;Lawrenceburg Township;47025;Dearborn County;;http://www.inhcf.com/woodlandhills-center/home/;N/A;(812) 537-1132
ChIJy1cUvM4GQIgRG9mFz7f6ky4;Arbor Trace Family-first Senior Living;39.81177599999999/-84.850674;3701 Hodgin Rd, Richmond, IN 47374, USA;city;Wayne Township;47374;Wayne County;3.2;http://www.arbortrace.us/;N/A;(765) 939-3701
ChIJ-2wgBFnGQYgRKjg-k_IRixs;Colonial Heights and Gardens;38.99483949999999/-84.66032269999999;6900 Hopeful Rd, Florence, KY 41042, USA;city;Boone County;41042;Kentucky;5;http://colonialheightsandgardens.org/contact-us;N/A;(859) 525-6900
ChIJAYe8c50yQIgRZ6uFEllQbuE;Shawnee Carespring Healthcare;39.2359635/-84.77697810000001;10111 Simonson Rd, Harrison, OH 45030, USA;city;Harrison Township;45030;Hamilton County;2.2;N/A;N/A;(513) 367-7780
ChIJwxkXLX5OQIgRZQDoPuQZakM;Maple Knoll Village;39.2775324/-84.4796047;11100 Springfield Pike, Cincinnati, OH 45246, USA;city;Hamilton County;45246;Ohio;3.7;http://www.mkcommunities.org/;N/A;(513) 782-2717
ChIJk6TJFHwbFogRb8WO4aWmhYM;DeKalb County Council on Aging, Inc.;41.3686459/-85.0312378;1800 E 7th St, Auburn, IN 46706, USA;city;Union Township;46706;DeKalb County;5;http://heimach.org/;N/A;(260) 925-3311
ChIJUTUzG0ATFogRp056bGRz7XE;Chandler Place;41.404129/-85.251987;2879 S Lima Rd, Kendallville, IN 46755, USA;city;Allen Township;46755;Noble County;4.7;http://www.enlivant.com/communities/indiana/chandler-place-kendallville;N/A;(260) 205-8928
ChIJ7_h9C-USFogRt3RtzmhHI6s;LaVerna Terrace;41.3745959/-85.243461;517 N Main St, Avilla, IN 46710, USA;city;Allen Township;46710;Noble County;3.7;http://www.presencehealth.org/presence-sacred-heart-home-avilla-laverna-terrace-assisted-living;N/A;(260) 897-3120
ChIJuzA2MRZrFogRwkWPKrLxfWc;Orchard Pointe Health Campus;41.452804/-85.292958;702 Sawyer Rd, Kendallville, IN 46755, USA;city;Wayne Township;46755;Noble County;;http://orchardpointehc.com/;N/A;(260) 347-3333
ChIJofAMwKJ1F4gRQo6cbxCpeuI;Brookdale Portage  Memory Care;42.2017581/-85.62489069999999;3150 Old Centre Rd, Portage, MI 49024, USA;city;Portage;49024;Kalamazoo County;;https://www.brookdale.com/en/communities/brookdale-portage-mi-mc.html;N/A;(269) 601-7325
ChIJZYP7-V_MFogRm0dkPDJiEaI;St Paul's Retirement Community;41.6390439/-86.21324369999999;3602 S Ironwood Dr, South Bend, IN 46614, USA;city;Penn Township;46614;St. Joseph County;5;http://www.trinityhealthseniorcommunities.org/st-pauls-south-bend;N/A;(574) 284-9000
ChIJnyoPytsPFogR8E_x9TCdrVI;Miller's Merry Manor;41.33038899999999/-85.134109;1367 S Randolph St, Garrett, IN 46738, USA;city;Keyser Township;46738;DeKalb County;4.5;http://www.millersmerrymanor.com/locations/garrett;N/A;(260) 357-5174
ChIJD0AUQ0BFFogRLLQtnYrejMc;Miller's Merry Manor;41.6505889/-85.41966499999999;787 N Detroit St, LaGrange, IN 46761, USA;city;Bloomfield Township;46761;LaGrange County;2.7;http://www.millersmerrymanor.com/locations/lagrange;N/A;(260) 463-2172
ChIJB8VvFXGKFogRt46ECz8nstk;Avalon Village;41.46490300000001/-85.60844449999999;200 Kingston Cir, Ligonier, IN 46767, USA;city;Perry Township;46767;Noble County;3;http://www.ascseniorcare.com/location/avalon-village/?utm_source=google&utm_medium=organic&utm_content=ligonier-asc210&utm_campaign=maps;N/A;(260) 894-7131
ChIJq1l7p83tF4gRdmFoVZPLYhg;Brookdale Battle Creek;42.2561498/-85.2000757;191 Lois Dr, Battle Creek, MI 49015, USA;city;Calhoun County;49015;Michigan;;https://www.brookdale.com/en/communities/brookdale-battle-creek-al.html;N/A;(269) 979-1694
ChIJ8TFxXqNSPogRfBKLZO9abUA;Otterbein St Marys Retirement;40.5162005/-84.4289601;11230 OH-364, St Marys, OH 45885, USA;city;St Marys Township;45885;Auglaize County;5;https://www.otterbein.org/st-marys;N/A;(419) 394-2366
ChIJ9wZdZWPRPYgROAoUF_dEyIw;Glenn Park Senior Living Community;41.2514375/-84.3588371;2429 William A. Diehl Ct, Defiance, OH 43512, USA;city;Defiance Township;43512;Defiance County;;http://www.chancellorhealth.com/nursing_home/Defiance_OH/zip_43512/chancellor_senior_management_ltd/5086;N/A;(419) 956-0962
ChIJQSu-E_ASFogRLt6CSRdrnrw;Presence Sacred Heart Home;41.371679/-85.2401196;515 N Main St, Avilla, IN 46710, USA;city;Allen Township;46710;Noble County;3;http://www.presencehealth.org/presence-sacred-heart-home-avilla-short-stay-rehabilitation;N/A;(260) 897-2841
ChIJbaJMYm2_PYgRqBGVp4UwwKc;Fountain Park Assisted Living, Memory Care & Villas;41.490939/-84.55278199999999;1391 N Main St, Bryan, OH 43506, USA;city;Williams County;43506;Ohio;5;http://www.pslgroupllc.com/locations/fountain-park/;N/A;(419) 633-9191
ChIJNzsDO1bsFogRymVAjeO4PD4;Greencroft Communities;41.565426/-85.815046;1721 Greencroft Blvd, Goshen, IN 46526, USA;city;Elkhart Township;46526;Elkhart County;;http://www.greencroft.org/communities/goshen/;N/A;(574) 537-4000
ChIJ7QCA8QnSFogRS0LK-DaZlME;Tanglewood Trace;41.7006094/-86.1892852;530 Tanglewood Ln, Mishawaka, IN 46545, USA;city;Clay Township;46545;St. Joseph County;5;http://www.tanglewoodtracealc.com/;N/A;(574) 285-0120
ChIJRRXNFa7SFogRPmtl-83eUFw;Holy Cross Village-Notre Dame;41.70292109999999/-86.2541823;54515 IN-933, Notre Dame, IN 46556, USA;city;Portage Township;46556;St. Joseph County;3;http://www.holycrossvillage.com/;N/A;(574) 287-1838
ChIJC87FQoO-FogRFm4UIh-IgGU;Heritage House Senior Living;41.45557000000001/-85.98035999999999;1700 Waterfall Dr, Nappanee, IN 46550, USA;city;Union Township;46550;Elkhart County;4.7;http://www.millersseniorliving.com/heritage-house-assisted-living-in-nappanee;N/A;(574) 773-3592
ChIJTbcayIXDFogRAuOGVwnD60o;Hubbard Hill Retirement Community;41.6422592/-86.00501059999999;28070 Co Rd 24, Elkhart, IN 46517, USA;city;Baugo Township;46517;Elkhart County;4;https://www.hubbardhill.org/;N/A;(574) 295-6260
ChIJk5c_p5DwFogRvxWj0HOo264;Greencroft Middlebury;41.6681484/-85.7161873;701 Windridge Dr, Middlebury, IN 46540, USA;city;Middlebury Township;46540;Elkhart County;3;http://www.greencroft.org/communities/middlebury/;N/A;(574) 825-6785
ChIJ44T7-V_MFogRnjarfwp6ov4;Sanctuary at St. Paul's;41.63883800000001/-86.212324;3602 S Ironwood Dr, South Bend, IN 46614, USA;city;Penn Township;46614;St. Joseph County;3.7;http://www.sanctuaryatstpauls.org/;N/A;(574) 284-9000
ChIJY6fy9FjdFogRHlitk4bUKT8;Eastlake Terrace;41.701501/-85.93173399999999;3109 E Bristol St, Elkhart, IN 46514, USA;city;Osolo Township;46514;Elkhart County;4;http://www.eastlaketerracealc.com/;N/A;(574) 330-4004
ChIJz5zYvWjSFogRnruSxf36EdI;Wood Ridge Assisted Living;41.71120500000001/-86.20897699999999;17650 Generations Dr, South Bend, IN 46635, USA;city;Clay Township;46635;St. Joseph County;5;http://www.woodridgealf.com/;N/A;(574) 307-6734
ChIJG8KaPMTVFYgRut_2RYbFKIg;Oak Pointe;41.1681297/-85.5347168;413 N Wolf Rd, Columbia City, IN 46725, USA;city;Columbia Township;46725;Whitley County;;N/A;N/A;(260) 248-9860
ChIJ23rgPt3sFogRkwIkBoryFpo;Waterford Crossing;41.5429962/-85.81680129999999;1212 Waterford Cir, Goshen, IN 46526, USA;city;Elkhart Township;46526;Elkhart County;5;http://trilogyhs.com/browse-locations/item/waterford-crossing-2;N/A;(574) 537-0300
ChIJ1f6jCSsRaYgRxix_K3GNUaI;Brookdale Stonestreet;38.1202934/-85.8459342;9251 Stonestreet Rd, Louisville, KY 40272, USA;city;Jefferson County;40272;Kentucky;4;https://www.brookdale.com/en/communities/brookdale-stonestreet.html;N/A;(502) 513-3292
ChIJrX9Vi_HnFogRuvqQjRDvFqQ;Brentwood at Elkhart;41.703092/-85.92152;3600 E Bristol St, Elkhart, IN 46514, USA;city;Osolo Township;46514;Elkhart County;4.2;http://www.elkhartalc.com/;N/A;(574) 281-0058
ChIJwbcokYvnFogRLLOsbGqkwxg;East Lake Nursing and Rehabilitation Center;41.71257629999999/-85.9261202;1900 Jeanwood Dr, Elkhart, IN 46514, USA;city;Osolo Township;46514;Elkhart County;3;http://www.ascseniorcare.com/location/east-lake-nursing-rehabilitation/?utm_source=google&utm_medium=organic&utm_content=elkhart-as75&utm_campaign=maps;N/A;(574) 264-1133
ChIJjVv33e_CFogRPD15DWMxkF0;Elkhart Rehabilitation Center;41.66048600000001/-85.95991699999999;2600 Morehouse Ave, Elkhart, IN 46517, USA;city;Concord Township;46517;Elkhart County;2;http://www.ascseniorcare.com/location/elkhart-rehabilitation-center/?utm_source=google&utm_medium=organic&utm_content=elkhart-asc0076&utm_campaign=maps;N/A;(574) 295-8800
ChIJY2eu4jjDFogRyQJE5Qu9f2s;Riverside Village;41.6776959/-85.9891251;1400 W Franklin St, Elkhart, IN 46516, USA;city;Concord Township;46516;Elkhart County;4.7;http://www.ascseniorcare.com/location/riverside-village/?utm_source=google&utm_medium=organic&utm_content=elkhart-as72&utm_campaign=maps;N/A;(574) 522-2020
ChIJlbRwETHdFogRbf1kVfM6WW0;Greenleaf Health Campus;41.6964836/-85.95790959999999;1201 E Beardsley Ave, Elkhart, IN 46514, USA;city;Osolo Township;46514;Elkhart County;5;http://www.greenleafhs.com/;N/A;(574) 206-0086
ChIJC2ee8g_DFogRYkO-CRq6lWw;Golden LivingCenter - Elkhart;41.6584738/-85.98108649999999;1001 W Hively Ave, Elkhart, IN 46517, USA;city;Concord Township;46517;Elkhart County;3;http://www.goldenlivingcenters.com/elkhart;N/A;(574) 294-7641
ChIJhVwdhpzDFogRrqYF59TDC7Q;Beardsley House;41.6468875/-85.99967749999999;27833 Co Rd 24, Elkhart, IN 46517, USA;city;Concord Township;46517;Elkhart County;4.8;http://www.seniorlifestyle.com/property/beardsley-house/;N/A;(574) 218-6301
ChIJJwaIhpzDFogRaxmfAyGLlzI;Elkhart Place;41.64689600000001/-85.999678;2024 County Road 24, Elkhart, IN 46517, USA;city;IN;46517;United States;5;http://www.enlivant.com/communities/indiana/elkhart-place;N/A;(574) 216-4330
ChIJH29nv7lTEYgR-AvqxgwAxhE;Miller's Senior Living Community;41.331048/-86.31414700000001;625 Oakhill Ave, Plymouth, IN 46563, USA;city;Center Township;46563;Marshall County;;http://www.millersseniorliving.com/plymouth-assisted-living;N/A;(574) 936-9801
ChIJFT5kkFrDFogRupQ4ev-LWSg;Woodland Manor Nursing and Rehab;41.6812704/-86.0043589;343 S Nappanee St, Elkhart, IN 46514, USA;city;Cleveland Township;46514;Elkhart County;5;http://www.woodlandmanornursingandrehab.com/;N/A;(574) 295-0096
ChIJK1AUlxTdFogR8kO7jCpwEN4;Boardwalk Retirement Community;41.713726/-85.95239699999999;2105 Osolo Rd, Elkhart, IN 46514, USA;city;Osolo Township;46514;Elkhart County;4.7;http://www.boardwalkretirementelkhart.com/;N/A;(574) 266-0038
ChIJq-38AInRFogRQ1Hb4T8IWqU;Village At Arborwood;41.7250327/-86.170231;820 Cleveland Rd, Granger, IN 46530, USA;city;Harris Township;46530;St. Joseph County;4.5;https://www.heritageseniorcommunities.com/communities/the-village-at-arborwood-senior-community-granger-indiana/;N/A;(574) 247-4680
ChIJ7z8OBs7SFogRGAnLyVzrGCs;Wellbrooke of South Bend;41.7294613/-86.25081899999999;52565 IN-933, South Bend, IN 46637, USA;city;Clay Township;46637;St. Joseph County;4.7;http://www.wellbrookeofsouthbend.com/;N/A;(574) 247-7044
ChIJI4yraPzsFogRl1mki6WCKgI;Greencroft Goshen;41.563691/-85.81448499999999;1820 Greencroft Blvd, Goshen, IN 46526, USA;city;Elkhart Township;46526;Elkhart County;4.8;http://www.greencroft.org/communities/goshen/;N/A;(574) 537-4000
ChIJR9Jrnu_RFogRwKSd0Mg4RWg;Heritage Point Assisted Living and Memory Care;41.7071737/-86.16281669999999;1215 Trinity Pl, Mishawaka, IN 46545, USA;city;Penn Township;46545;St. Joseph County;5;https://www.sunshineretirementliving.com/mishawaka-retirement-living/;N/A;(574) 208-6844
ChIJazbK-ADOFogRCsDeXgMZo2Y;The Waterford at Edison Lakes;41.6938281/-86.17048269999999;1025 Park Pl, Mishawaka, IN 46545, USA;city;Penn Township;46545;St. Joseph County;4.5;http://www.capitalsenior.com/thewaterfordatedisonlakes/;N/A;(877) 931-3285
ChIJhZsKP-XcFogReTXfZNS-uQc;The Highlands Apartments;41.71958850000001/-85.98037409999999;2641 Muirfield Dr, Elkhart, IN 46514, USA;city;Osolo Township;46514;Elkhart County;4.2;http://www.edwardrose.com/;N/A;(844) 578-8711
ChIJC4k1DSfDFogRNWV3fy7iXhY;Water Tower Place;41.677297/-85.972612;320 La Salle St, Elkhart, IN 46516, USA;city;Concord Township;46516;Elkhart County;;http://lacasainc.net/project/water-tower-apartments-2/;N/A;(574) 296-7900
ChIJk8XgtJSobIgRRP8e6FJeBus;Bridge At Garden Plaza;39.7788724/-86.3133646;8614 W 10th St, Indianapolis, IN 46234, USA;city;Indianapolis;46234;Wayne Township;5;http://www.westsideretirement.com/;N/A;(317) 271-1020
ChIJjdSq6QZPa4gRHAHYMMI1hag;Crestwood Village East;39.78429599999999/-86.04961399999999;1123 N Edmondson Ave, Indianapolis, IN 46219, USA;city;Indianapolis;46219;Warren Township;;http://www.crestwood-living.com/;N/A;(317) 356-4173
ChIJw7sbtv9Ka4gRsXcUPN3wP_E;Westminster Village North;39.872544/-85.9700189;11050 Presbyterian Dr, Indianapolis, IN 46236, USA;city;Lawrence Township;46236;Marion County;4;http://www.westminstervillage.com/;N/A;(317) 823-6841
ChIJB-EMoFNaa4gRjKSWjcmBS5Q;Bethany Village Assisted Living;39.714808/-86.14056429999999;3530 S Shelby Street, Indianapolis, IN 46227, USA;city;IN;46227;United States;4;http://www.ascseniorcare.com/location/bethany-village-assisted-living/?utm_source=google&utm_medium=organic&utm_content=indianapolis-bval001&utm_campaign=maps;N/A;(317) 784-3066
ChIJcwTNCGBpaYgRd3WfNyQC6L8;Azalea Hills Assisted Living;38.327669/-85.87300999999999;3700 Lafayette Pkwy, Floyds Knobs, IN 47119, USA;city;Lafayette Township;47119;Floyd County;5;http://www.inhcf.com/azalea-hills/home/;N/A;(812) 923-4888
ChIJ-6BS18lBaYgRyy-Ng2mZu3c;BeeHive Homes of Georgetown;38.29619599999999/-85.95048300000001;1040 Estate Dr, Georgetown, IN 47122, USA;city;Georgetown Township;47122;Floyd County;2.3;http://beehivehomes.com/location/georgetown/;N/A;(812) 951-1808
ChIJ8W172NpBaYgRxM5cNLQ0ass;The Villas of Guerin Woods;38.2994843/-85.9540451;8037 Unruh Dr, Georgetown, IN 47122, USA;city;Georgetown Township;47122;Floyd County;4.6;http://guerininc.org/;N/A;(812) 951-1878
ChIJf6Vaz11uaYgR1I8NVkjc29k;Bennett Place;38.348428/-85.80083599999999;3928 Horne Ave, New Albany, IN 47150, USA;city;New Albany Township;47150;Floyd County;4.7;http://www.enlivant.com/communities/indiana/bennett-place-new-albany;N/A;(812) 213-4472
ChIJHUaAsE1saYgRD63U9Hey0c4;Quality Community Services;38.2966389/-85.8110813;1620 Shelby St, New Albany, IN 47150, USA;city;New Albany Township;47150;Floyd County;;N/A;N/A;(812) 948-8183
ChIJmT7fGrdBaYgRfyyQGZdfG30;Providence Self Sufficiency Ministries, Inc.;38.3001723/-85.9549231;8037 Unruh Dr, Georgetown, IN 47122, USA;city;Georgetown Township;47122;Floyd County;5;http://guerininc.org/;N/A;(812) 951-1878
ChIJBd_W5BxsaYgRLRwLnMxyRmI;Green Valley Care Center;38.3246984/-85.8344659;3118 Green Valley Rd, New Albany, IN 47150, USA;city;New Albany Township;47150;Floyd County;3.5;http://greenvalleycarecenter.com/;N/A;(812) 945-2341
ChIJcVucUtpvaYgR_-Twcw4bIy8;Traditions at Hunter Station;38.3800087/-85.7737265;164-182 Hunter Station Rd, Sellersburg, IN 47172, USA;city;Silver Creek Township;47172;Clark County;;http://www.traditionsathunterstation.com/;N/A;(812) 252-2000
ChIJGWHZKFlsaYgRwA2H5CnX2zI;New Albany Nursing and Rehabilitation;38.28813/-85.822464;201 E Elm St, New Albany, IN 47150, USA;city;New Albany Township;47150;Floyd County;3;http://www.newalbanynursingandrehab.com/;N/A;(812) 945-9517
ChIJM5otkeChaYgR0YVxTgYB5Mw;Brookdale Blankenbaker;38.22876830000001/-85.5401049;901 Blankenbaker Pkwy, Louisville, KY 40243, USA;city;Jefferson County;40243;Kentucky;4;https://www.brookdale.com/en/communities/brookdale-blankenbaker.html;N/A;(502) 791-8447
ChIJL45sbRtsaYgR0gw1AVKziC4;Autumn Woods Health Campus;38.32064109999999/-85.83825739999999;2911 Green Valley Rd, New Albany, IN 47150, USA;city;New Albany Township;47150;Floyd County;5;http://autumnwoodshc.com/;N/A;(812) 941-9893
ChIJP-vzFwyeaYgRnqrYLM1XTv4;Atria Springdale;38.3115076/-85.5863986;4501 Springdale Rd, Louisville, KY 40241, USA;city;Jefferson County;40241;Kentucky;5;http://www.atriaseniorliving.com/retirement-communities/atria-springdale-louisville-ky/;N/A;(502) 650-8896
ChIJhWsxQjp1aYgRgpIXQ2QL6Ls;Belmont Village Senior Living St. Matthews;38.241374/-85.62850999999999;4600 Bowling Blvd, Louisville, KY 40207, USA;city;Jefferson County;40207;Kentucky;3.6;http://www.belmontvillage.com/locations/st-matthews-kentucky/;N/A;(502) 721-7500
ChIJr3UBzkZsaYgRIMoSCWmp53Y;Brookview Glen Apartments;38.303461/-85.82183599999999;1810 Graybrook Ln, New Albany, IN 47150, USA;city;New Albany Township;47150;Floyd County;;http://www.vanrooy.com/;N/A;(812) 981-0804
ChIJd1wKq3igaYgR5fWWNkhveY0;Atria Stony Brook;38.197699/-85.60213499999999;3451 S Hurstbourne Pkwy, Louisville, KY 40299, USA;city;Jefferson County;40299;Kentucky;4.5;http://www.atriaseniorliving.com/retirement-communities/atria-stony-brook-louisville-ky/;N/A;(502) 287-1449
ChIJz3aDuUtxaYgRgM_zQOItbbo;Windsor Ridge Assisted Living;38.339408/-85.68813899999999;2700 Waters Edge Pkwy, Jeffersonville, IN 47130, USA;city;Utica;47130;Clark County;5;http://www.inhcf.com/windsor-ridge/home/;N/A;(812) 284-4336
ChIJV3S291ENaYgRkG3d8h_PGb8;Treyton Oak Towers;38.2352337/-85.7578118;211 W Oak St, Louisville, KY 40203, USA;city;Louisville;40203;Jefferson County;4.5;http://www.treytonoaktowers.com/;N/A;(502) 589-3211
ChIJWV1U2_dsaYgR-rHbGxpAyIo;Area Agency On Aging;38.28316600000001/-85.82324699999999;33 State St, New Albany, IN 47150, USA;city;New Albany Township;47150;Floyd County;;http://lsr14.org/;N/A;(812) 948-8330
ChIJj4eSJAgJaYgRrli0hm9LXsA;BeeHive Homes of Louisville;38.121707/-85.64421600000001;8800 Smyrna Pkwy, Louisville, KY 40228, USA;city;Louisville;40228;Jefferson County;4.7;http://beehivehomes.com/location/smyrna/;N/A;(502) 694-2956
ChIJmWYQtTmZaYgRjR0VmLSAc2A;Oasis Senior Advisors Louisville;38.29128619999999/-85.50831789999999;12468 La Grange Rd #338, Louisville, KY 40245, USA;city;Louisville;40245;Jefferson County;5;http://louisville.oasissenioradvisors.com/;N/A;(502) 631-3002
ChIJpYYjcmtsaYgRq0in5JLoa6A;Lincoln Hills Health Center;38.3035472/-85.8301709;326 Country Club Dr, New Albany, IN 47150, USA;city;New Albany Township;47150;Floyd County;5;http://www.lincolnhillshealthcare.com/;N/A;(812) 948-1311
ChIJH6RHYTAXaYgRLfetc-RAPic;Symphony at Valley Farms;38.1061588/-85.85709009999999;10201 Valley Farms Blvd, Louisville, KY 40272, USA;city;Jefferson County;40272;Kentucky;5;https://www.milestoneretirement.com/senior-living/ky/louisville/symphony-at-valley-farms/;N/A;(502) 908-9277
ChIJZQ1O1UN5aYgRCHTN9iFv2fY;River Crossing;38.4763919/-85.6696061;2400 Market St, Charlestown, IN 47111, USA;city;Charlestown Township;47111;Clark County;;http://www.capitalsenior.com/rivercrossing/;N/A;(866) 587-2172
ChIJlZZLpr51aYgRUgs2ZlSCFt8;Sunrise of Louisville;38.2948804/-85.6265375;6700 Overlook Dr, Louisville, KY 40241, USA;city;Jefferson County;40241;Kentucky;4.5;https://www.sunriseseniorliving.com/communities/sunrise-of-louisville/overview.aspx;N/A;(502) 425-0820
ChIJB76xcdqfaYgRYx-DBNArPFM;BeeHive Homes of Lyndon;38.2652208/-85.59547669999999;8401 La Grange Rd, Lyndon, KY 40222, USA;city;Jefferson County;40222;Kentucky;5;http://beehivehomes.com/location/lyndon/;N/A;(502) 541-4719
ChIJ4_e_ArKfaYgRC868XjdG5ko;Trilogy Health Services;38.25131549999999/-85.5766941;303 N Hurstbourne Pkwy #200, Louisville, KY 40222, USA;city;Louisville;40222;Jefferson County;5;http://www.trilogyhs.com/;N/A;(502) 412-5847
ChIJYfIQoVVzaYgR4-78b5CvQzU;Presbyterian Homes & Services of Kentucky (Home Office);38.2395732/-85.685249;1030 Alta Vista Rd, Louisville, KY 40205, USA;city;Louisville;40205;Jefferson County;;http://www.phsk.org/;N/A;(502) 259-9101
ChIJt8KJzysRaYgR1rzA3N_g-qg;Ponder Creek Estates;38.11998949999999/-85.84387819999999;620 Valley College Dr, Louisville, KY 40272, USA;city;Jefferson County;40272;Kentucky;4.2;http://www.holidaytouch.com/our-communities/ponder-creek-estates;N/A;(502) 871-4625
ChIJe36szD92aYgRJv2AKRn69EI;Exceptional Senior Living;38.3412999/-85.62036999999999;6901 Carslaw Ct, Prospect, KY 40059, USA;city;Jefferson County;40059;Kentucky;;http://www.exceptionalseniors.com/;N/A;(502) 907-3778
ChIJP00bYzZuaYgR-7ikT8Qa_50;Providence - A Diversicare Transitional Care Community;38.36122099999999/-85.7848382;4915 Charlestown Rd, New Albany, IN 47150, USA;city;New Albany Township;47150;Floyd County;3;http://diversicareprovidence.com/;N/A;(812) 945-5221
ChIJEQuDhOzoaIgRL_iYyacSmKY;Atria Elizabethtown;37.7129665/-85.87547889999999;133 Heartland Dr, Elizabethtown, KY 42701, USA;city;Hardin County;42701;Kentucky;5;http://www.atriaseniorliving.com/retirement-communities/atria-elizabethtown-elizabethtown-ky/;N/A;(270) 872-4447
ChIJN3jZG9cQaYgRTQZbx650VJU;Almost Family;38.1128115/-85.8374458;9820 3rd Street Rd, Louisville, KY 40272, USA;city;Jefferson County;40272;Kentucky;1;http://www.almostfamily.com/;N/A;(502) 933-2785
ChIJQep-QV9saYgRfUg1wJz2pgM;AccessiCare Elder Home Care;38.315702/-85.899103;708 Highlander Point Dr, Floyds Knobs, IN 47119, USA;city;Lafayette Township;47119;Floyd County;5;http://www.accessicare.com/;N/A;(812) 725-3843
ChIJB5IG-Tv9a4gRXDqhwAQhsso;Salem Crossing;38.6151268/-86.11024979999999;200 Connie Ave, Salem, IN 47167, USA;city;Washington Township;47167;Washington County;3;http://www.ascseniorcare.com/location/salem-crossing/?utm_source=google&utm_medium=organic&utm_content=salem-as157&utm_campaign=maps;N/A;(812) 883-1877
ChIJhQuBdEedaYgRQ-AB8MQFSVQ;BeeHive Homes of Goshen;38.3924759/-85.58098339999999;12336 West Highway 42, Goshen, KY 40026, USA;city;Oldham County;40026;Kentucky;5;http://beehivehomes.com/location/goshen/;N/A;(502) 694-3888
ChIJIz1w0PKoaYgR51RMYSMGiEU;Elmcroft of Mount Washington;38.0452077/-85.55822529999999;520 E Woodlake Cir, Mt Washington, KY 40047, USA;city;Bullitt County;40047;Kentucky;3;http://www.elmcroft.com/community/elmcroft-of-mount-washington/;N/A;(502) 538-3172
ChIJvfrwC643aYgR2Z66eoGrJLU;Cedar Court Assisted Living;38.219904/-86.1285041;125 Hilltop Dr, Corydon, IN 47112, USA;city;Harrison Township;47112;Harrison County;;http://www.cedarcourtassistedliving.com/;N/A;(812) 734-0888
ChIJL3UO52ZyaYgRf1GV2WnDh8A;Hanger's Homecare;38.2885478/-85.7489193;207 Sparks Ave, Jeffersonville, IN 47130, USA;city;Jeffersonville Township;47130;Clark County;;N/A;N/A;(812) 280-7135
ChIJMURQEHKfaYgRXUCLIY_rCGE;The Forum at Brookside;38.24881/-85.5525755;200 Brookside Dr, Louisville, KY 40243, USA;city;Jefferson County;40243;Kentucky;5;https://www.fivestarseniorliving.com/communities/ky/louisville/the-forum-at-brookside;N/A;(502) 245-3048
ChIJORSH4ThzaYgRyDwrF0ML_-0;Mercy Sacred Heart;38.2511794/-85.70705009999999;2120 Payne St, Louisville, KY 40206, USA;city;Louisville;40206;Jefferson County;5;http://sacredheartlou.org/;N/A;(502) 895-9425
ChIJ_TQk8asLaYgRrVgF0sSyeBg;Presbyterian Homes Westminster;38.188971/-85.646914;2116 Buechel Bank Rd, Louisville, KY 40218, USA;city;Jefferson County;40218;Kentucky;2.3;http://www.phsk.org/;N/A;(502) 499-9383
ChIJWYwEVk-faYgR_dnCCffH9Rg;Kentucky Assisted Living;38.247141/-85.530299;133 Evergreen Rd # 212, Louisville, KY 40243, USA;city;Louisville;40243;Jefferson County;;http://kentuckyassistedliving.org/;N/A;(502) 225-5201
ChIJE2mi4aaZaYgR5Blgg2qBlVM;CarePatrol of Louisville;38.2859534/-85.4761286;3404 Sasse Way, Louisville, KY 40245, USA;city;Jefferson County;40245;Kentucky;;http://www.carepatrol.com/;N/A;(502) 214-5975
ChIJM956RhOgaYgRQPj8ctkGlsc;Forest Hills Commons;38.21371000000001/-85.58779;9107 Taylorsville Rd, Louisville, KY 40299, USA;city;Jefferson County;40299;Kentucky;4.7;http://www.ascseniorcare.com/location/forest-hills-commons/?utm_source=google&utm_medium=organic&utm_content=louisville-asc0071&utm_campaign=maps;N/A;(888) 788-2501
ChIJJeoCu1l1aYgRCV61nBSQbLA;Oxmoor Lodge;38.2470253/-85.60559479999999;8021 Christian Ct, Louisville, KY 40222, USA;city;Jefferson County;40222;Kentucky;4;http://www.holidaytouch.com/our-communities/oxmoor-lodge?utm_source=Local&utm_medium=organic&utm_term=5208&utm_content=IL&utm_campaign=gmb;N/A;(502) 799-4063
ChIJiS1lDfQraYgRxjTim6C_acg;BeeHive Homes of Brandenburg;37.99662399999999/-86.190991;103 Commerce Dr, Brandenburg, KY 40108, USA;city;Meade County;40108;Kentucky;5;http://beehivehomes.com/location/brandenburg/;N/A;(502) 694-2956
ChIJj8ihyAIXbogRgbxdMy2LwEY;Good Samaritan Home and Rehabilitative Center;38.3385018/-87.34192569999999;231 N Jackson St, Oakland City, IN 47660, USA;city;Columbia Township;47660;Gibson County;;http://www.ascseniorcare.com/location/good-samaritan-home-rehabilitative-center/?utm_source=google&utm_medium=organic&utm_content=oakland-city-as15&utm_campaign=maps;N/A;(812) 749-4774
ChIJh98-NxjhcYgRPb4fPr6ekNE;RiverOaks Health Campus;38.341849/-87.596824;1244 Vail St, Princeton, IN 47670, USA;city;Patoka Township;47670;Gibson County;5;http://www.riveroakshc.com/;N/A;(812) 385-0794
ChIJDd-EmgLYcYgR4Oem0WEcbJs;North River Health Campus;38.12242099999999/-87.547826;811 E Baseline Rd, Evansville, IN 47725, USA;city;Scott Township;47725;Vanderburgh County;5;http://nriverhc.com/;N/A;(812) 867-7256
ChIJXbRmRZPCcYgRd6vqMWxd7H8;Owensville Convalescent Center;38.26999740000001/-87.7029113;IN-165, Owensville, IN 47665, USA;city;Gibson County;47665;Indiana;;N/A;N/A;(812) 479-8339
ChIJqzPDBSTVcYgRHl6tGJvYpQQ;Riverwalk Communities;37.9684805/-87.5667368;401 SE 6th St, Evansville, IN 47713, USA;city;Evansville;47713;Pigeon Township;2.3;http://www.riverwalkcommunities.org/;N/A;(812) 425-1041
ChIJkZEsYSgrbogRNo8XHSvIDvE;SWIRCA & More;37.9817268/-87.5649904;16 W Virginia St, Evansville, IN 47710, USA;city;Evansville;47710;Pigeon Township;5;http://www.swirca.org/;N/A;(812) 464-7800
ChIJN-yYFKuwcYgRYTkfVS0RXh0;Charles Ford Retirement Communities of New Harmony;38.12594499999999/-87.934911;920 Main St, New Harmony, IN 47631, USA;city;Harmony Township;47631;Posey County;5;https://www.facebook.com/Charles-Ford-Retirement-Communities-of-New-Harmony-286904591373407/;N/A;(812) 682-4675
ChIJd0jcBrHVcYgRoUFA2PxrtT4;North Park Nursing Center;38.009301/-87.5720996;650 Fairway Dr, Evansville, IN 47710, USA;city;Center Township;47710;Vanderburgh County;2.6;http://www.ascseniorcare.com/location/north-park-nursing-center/?utm_source=google&utm_medium=organic&utm_content=evansville-as82&utm_campaign=maps;N/A;(812) 425-5243
ChIJ8xkvarArbogRY_9_DPrfdBA;Family First Companion Care;38.006716/-87.49197199999999;3101 N Green River Rd #240, Evansville, IN 47715, USA;city;Evansville;47715;Knight Township;4;http://www.familyfirstcompanioncare.com/;N/A;(812) 401-4311
ChIJvysutQTVcYgRJag-5SXA-Ww;Columbia Healthcare Center;37.985315/-87.57306799999999;621 W Columbia St, Evansville, IN 47710, USA;city;Evansville;47710;Pigeon Township;3.1;http://www.ascseniorcare.com/location/columbia-healthcare-center/?utm_source=google&utm_medium=organic&utm_content=evansville-79&utm_campaign=maps;N/A;(812) 428-5678
ChIJ_114V8nSb4gR4Gr5t3Y-ED0;Village At Hamilton Pointe;37.9790538/-87.4466022;3800 Eli Place, Newburgh, IN 47630, USA;city;Ohio Township;47630;Warrick County;3.7;http://www.hamiltonpointehealthandrehab.com/;N/A;(812) 858-5300
ChIJSyGg0krUcYgRSUzEvJtL1DI;Heritage Center;38.0151215/-87.57954099999999;1201 W Buena Vista Rd, Evansville, IN 47710, USA;city;Center Township;47710;Vanderburgh County;;http://holidayhealthcare.com/;N/A;(812) 429-0700
ChIJVVTRaDQocIgREh-tgd4AHNU;Colonial Assisted Living & Independent Living;37.822425/-87.55539;2637 Stadium Dr, Henderson, KY 42420, USA;city;Henderson County;42420;Kentucky;4;http://colonialassistedliving.net/;N/A;(270) 826-2493
ChIJRRKr1rgSbogRzEPir3lq_wk;Lakewood Home LLC;38.433806/-87.236628;840 Lakewood Dr, Petersburg, IN 47567, USA;city;Washington Township;47567;Pike County;5;N/A;N/A;(812) 354-8387
ChIJgcyrHSLVcYgRAXbhNzidugQ;Market Street Living;37.973881/-87.574049;304 Market St, Evansville, IN 47708, USA;city;Pigeon Township;47708;Vanderburgh County;;http://www.marketstreetliving.com/;N/A;(812) 402-9955
ChIJg9KIHKUrbogRrVZuaedvAJM;River Pointe Health Campus;38.0052431/-87.48879819999999;3001 Galaxy Dr, Evansville, IN 47715, USA;city;Knight Township;47715;Vanderburgh County;4.8;http://riverpointehs.com/;N/A;(812) 475-2822
ChIJJ-P9xulXFIgRFFPHCqZ1bHw;Suite Living Senior Community;40.570129/-85.74727399999999;1256 N 400 W, Marion, IN 46952, USA;city;Pleasant Township;46952;Grant County;5;http://www.suite-living.net/;N/A;(765) 384-4323
ChIJrX5Pq95VFIgRp83KwcP7tk8;Northwood Manor;40.5795424/-85.67988459999999;1590 W Timberview Dr, Marion, IN 46952, USA;city;Pleasant Township;46952;Grant County;3.5;https://www.fivestarseniorliving.com/communities/in/marion/northwood-manor;N/A;(765) 662-9700
ChIJ6wtp5EVfFIgRHArkE4o1kVY;Gaslight Apartments;40.575543/-85.859713;111 N 980 W, Converse, IN 46919, USA;city;Richland Township;46919;Grant County;;http://www.rhf.org/;N/A;(765) 395-3331
ChIJtU5RrxgEFYgRyY0ZOeuUGYk;University Nursing Center;40.4603309/-85.499765;1564 University Blvd, Upland, IN 46989, USA;city;Jefferson Township;46989;Grant County;;http://www.ascseniorcare.com/location/university/?utm_source=google&utm_medium=organic&utm_content=upland-asc250&utm_campaign=maps;N/A;(765) 998-2761
ChIJ1RkNyN_-FIgRsHZplkQhfhU;Colonial Oaks Health & Rehabilitation Center;40.51184600000001/-85.66640000000001;4725 S Colonial Oaks Dr, Marion, IN 46953, USA;city;Center Township;46953;Grant County;4.3;http://www.colonialoakshealthandrehab.com/;N/A;(765) 674-9791
ChIJRZovY97-FIgR8AulUD9sZkU;York Place;40.508603/-85.66644599999999;725 W 50th St, Marion, IN 46953, USA;city;Mill Township;46953;Grant County;5;http://www.enlivant.com/communities/indiana/york-place-marion;N/A;(765) 293-0187
ChIJ5-84nLEiFYgRC15gX4WSiSU;Elmcroft of Muncie;40.206872/-85.443609;1601 N Morrison Rd, Muncie, IN 47304, USA;city;Mt Pleasant;47304;Delaware County;4;http://www.elmcroft.com/community/elmcroft-of-muncie/;N/A;(765) 289-4260
ChIJ_fGSQQhWFIgRgLXl5Evnhgw;Miller's Merry Manor;40.565872/-85.68613599999999;505 N Bradner Ave, Marion, IN 46952, USA;city;Franklin Township;46952;Grant County;4;http://www.millersmerrymanor.com/locations/marion;N/A;(765) 662-3981
ChIJ4Xorhl7_FIgRiBb8BsvyYHs;Marion Rehabilitation & Assisted Living Center;40.54924920000001/-85.6668164;614 W 14th St, Marion, IN 46953, USA;city;Center Township;46953;Grant County;5;http://www.covenantcare.com/Locations/Marion-Rehabilitation-Assisted-Living-Center/Facility-Home;N/A;(765) 662-3701
ChIJOery3BOjFYgRSwuhp87kDLQ;Heritage Pointe of Warren;40.6877311/-85.42997199999999;801 N Huntington Ave, Warren, IN 46792, USA;city;Salamonie Township;46792;Huntington County;4;http://www.heritagepointeofwarren.org/;N/A;(260) 375-2201
ChIJT5IS8wsYFYgRsA_N516mVWw;Westminster Village Muncie Inc.;40.22551120000001/-85.45427869999999;5801 W Bethel Ave, Muncie, IN 47304, USA;city;Harrison Township;47304;Delaware County;5;http://www.wvmuncie.com/;N/A;(765) 288-2155
ChIJFXhJMUgJFYgR83zZwqdTylU;Crown Pointe of Hartford City;40.4691059/-85.374679;100 Independence Pkwy, Hartford City, IN 47348, USA;city;Licking Township;47348;Blackford County;;http://crownpointecommunities.com/;N/A;(765) 348-3250
ChIJmV9Euy8WFYgRCLN2ht1drJo;Ashgrove Crossing;40.225549/-85.38761599999999;4001 N Walnut St, Muncie, IN 47303, USA;city;Muncie;47303;Center Township;;https://www.nationalchurchresidences.org/;N/A;(765) 287-9424
ChIJteaclYNGFIgRANnv75WDeG4;Autumn Ridge Rehabilitation Centre;40.80603120000001/-85.8141851;600 Washington St, Wabash, IN 46992, USA;city;Noble Township;46992;Wabash County;4.5;http://www.ascseniorcare.com/location/autumn-ridge-rehabilitation-centre/?utm_source=google&utm_medium=organic&utm_content=wabash-as32&utm_campaign=maps;N/A;(260) 563-8402
ChIJpe0XVK-GFIgRTXhDzPAog0U;North Woods Commons;40.4955484/-86.16802009999999;2501 Friendship Blvd, Kokomo, IN 46901, USA;city;Center Township;46901;Howard County;5;https://www.fivestarseniorliving.com/communities/in/kokomo/northwoods-commons;N/A;(765) 454-0001
ChIJ7cye-jv_FIgReeafIIwCa6o;Wesleyan Health and Rehabiltiation Center;40.52771490000001/-85.66971989999999;729 W 35th St, Marion, IN 46953, USA;city;Center Township;46953;Grant County;4.9;http://www.wesleyanhealthandrehab.com/;N/A;(765) 674-3371
ChIJEUnHyorZFIgRoSdu-59a6V8;Countryside Family-first Senior Living;40.0856405/-85.68319369999999;205 Marine Dr, Anderson, IN 46016, USA;city;Anderson Township;46016;Madison County;3;http://www.countrysidehealthliving.com/;N/A;(765) 649-4558
ChIJGxZBMuTbFIgR-SgVf038Og8;Edgewater Woods;40.132496/-85.691847;1809 N Madison Ave, Anderson, IN 46011, USA;city;Anderson Township;46011;Madison County;3.7;http://www.ascseniorcare.com/location/edgewater-woods/?utm_source=google&utm_medium=organic&utm_content=anderson-as71&utm_campaign=maps;N/A;(765) 644-0903
ChIJ70Govm3pFIgRMOLFOe7AoLM;Park Place Assisted Living;40.28658/-85.831672;2304 Parkview Lane, Elwood, IN 46036, USA;city;Pipe Creek Township;46036;Madison County;;N/A;N/A;(765) 552-1742
ChIJGQurYbDZFIgRPeKPurm_2Io;Home Instead Senior Care;40.22095399999999/-85.427553;3414 W Fox Ridge Ln, Muncie, IN 47304, USA;city;Center Township;47304;Delaware County;;http://www.homeinstead.com/681;N/A;(765) 643-5200
ChIJuVe_caeGFIgRWPBzgKsQe-w;Jefferson Manor;40.4915122/-86.16257010000001;603 St Joseph Dr, Kokomo, IN 46901, USA;city;Center Township;46901;Howard County;5;https://www.fivestarseniorliving.com/communities/in/kokomo/jefferson-manor;N/A;(765) 868-3000
ChIJ2fpOXwIYFYgRMKVF4Ff4WtU;Morrison Woods Health Campus;40.2270532/-85.44160669999999;4100 N Morrison Rd, Muncie, IN 47304, USA;city;Center Township;47304;Delaware County;4.2;http://www.morrisonwoodshc.com/;N/A;(765) 286-9066
ChIJQS81BH6LFIgRX2TuNueR9Pg;Century Fields Retirement Comm;40.48474350000001/-85.9666091;825 N Meridian St, Greentown, IN 46936, USA;city;Liberty Township;46936;Howard County;5;http://centuryfields.com/;N/A;(765) 628-3377
ChIJP2pBTyeEFIgR7aOLjaAmI_A;Always Best Care Senior Services;40.488549/-86.1491659;1520 W Mulberry St, Kokomo, IN 46901, USA;city;Center Township;46901;Howard County;5;https://www.alwaysbestcare.com/;N/A;(765) 889-5509
ChIJQRawDkWWFIgRsvW9R2SvcLA;Autumnwood Village Assisted Living;40.269766/-86.0411221;1102 S Main St, Tipton, IN 46072, USA;city;Cicero Township;46072;Tipton County;;http://www.millersseniorliving.com/autumnwood-village-assisted-living-in-tipton;N/A;(765) 675-9800
ChIJLZarrvvbFIgRXY1blUlXc4E;Keystone Woods;40.140368/-85.692275;2335 N Madison Ave, Anderson, IN 46011, USA;city;Lafayette Township;46011;Madison County;5;http://www.keystonewoodsassistedliving.com/;N/A;(866) 962-9589
ChIJSUSV-s-wFIgRxwFYGprL1g4;American Senior Communities;40.0450402/-86.0213945;295 Westfield Rd, Noblesville, IN 46060, USA;city;Noblesville Township;46060;Hamilton County;;http://www.ascseniorcare.com/;N/A;(317) 565-1018
ChIJeyC3W8gdE4gRW_HDXyqpd38;Bickford Senior Living of Lafayette;40.3665874/-86.87032119999999;3633 Regal Valley Dr, Lafayette, IN 47909, USA;city;Wea Township;47909;Tippecanoe County;5;http://www.enrichinghappiness.com/branch/bickford-of-lafayette;N/A;(765) 477-0770
ChIJwUvtbJjRFIgRLbGUbSk6QKM;Rawlins House Family-first Senior Living;40.005078/-85.733059;300 JH Walker Dr, Pendleton, IN 46064, USA;city;Fall Creek Township;46064;Madison County;2;http://www.rawlinshousehealth.com/;N/A;(765) 778-7501
ChIJ3amTjORMa4gRlLUPN3i8mng;Ahepa Management;39.9440968/-86.0201081;10706 Sky Prairie St, Fishers, IN 46038, USA;city;Delaware Township;46038;Hamilton County;;http://www.ahepahousing.org/;N/A;(317) 845-3410
ChIJB9XIGwfKFIgRRF6EL7fHdhM;The Enclave Senior Living at Saxony;39.9857635/-85.9339433;12950 Tablick Street, Fishers, IN 46037, USA;city;Hamilton County;46037;Indiana;5;https://www.spectrumretirement.com/senior-living/in/fishers/enclave-senior-living-at-saxony/;N/A;(317) 207-2767
ChIJ0TDnP967bYgRx4mkQRk1_tE;Golf Course Apartments Road;39.0396271/-87.1212153;Golf Course Apartments Rd, Linton, IN 47441, USA;city;Greene County;47441;Indiana;;N/A;N/A;N/A
ChIJG7oaJHLwPIgRcgcoqV7XvOM;Brookdale Adrian;41.90204550000001/-84.09224689999999;1200 Corporate Dr, Adrian, MI 49221, USA;city;Adrian Township;49221;Lenawee County;;https://www.brookdale.com/en/communities/brookdale-adrian.html;N/A;(517) 455-7622
ChIJqfoGDScua4gR4c0Hz_R_iLI;Crownpointe Senior Living;39.794151/-85.76442999999999;831 N Swope St, Greenfield, IN 46140, USA;city;Center Township;46140;Hancock County;;http://www.crownpointecommunities.com/;N/A;(317) 467-9317
ChIJmdWXUbE3a4gR5wF3utGEUvg;Sugar Creek Nursing and Rehabilitation;39.780183/-85.90449699999999;5430 W US Hwy 40, Greenfield, IN 46140, USA;city;Sugar Creek Township;46140;Hancock County;1.8;http://www.sugarcreeknursingandrehab.com/;N/A;(317) 894-3301
ChIJwZlRbqzKFIgREFF2tT34yyM;Traditions at Brookside;39.91322/-85.9245775;6311 W. CR 900 N., McCordsville, IN 46055, USA;city;IN;46055;United States;;http://www.traditionsatbrookside.com/;N/A;(317) 335-9900
ChIJc-pSNNQxa4gRooOusZPPUZM;Springhurst Health Campus;39.792572/-85.803253;628 N Meridian Rd, Greenfield, IN 46140, USA;city;Center Township;46140;Hancock County;5;http://www.springhursthc.com/;N/A;(317) 462-7067
ChIJr0Qmsicua4gRWRsKj3uNaIg;Golden LivingCenter - Brandywine;39.7934369/-85.7642755;745 N Swope St, Greenfield, IN 46140, USA;city;Center Township;46140;Hancock County;3;http://www.goldenlivingcenters.com/brandywine;N/A;(317) 462-9221
ChIJ1T9WG0A4a4gRFkTep6XnAxg;Woodland Terrace of New Palestine;39.723643/-85.9096849;4400 Terrace Drive, New Palestine, IN 46163, USA;city;IN;46163;United States;5;http://woodlandterraceofnewpal.com/;N/A;(317) 620-4551
ChIJt6MerALZFIgR5A3VHCJ2oiY;Crown Pointe of Anderson;40.1154448/-85.64541390000001;2727 Crown Pointe Cir, Anderson, IN 46012, USA;city;Anderson Township;46012;Madison County;2.5;http://crownpointecommunities.com/;N/A;(765) 641-9995
ChIJn9urx-cxa4gRd4LvfEFm9CQ;Graceworks;39.80359429999999/-85.7757768;471 W Green Meadows Dr, Greenfield, IN 46140, USA;city;Center Township;46140;Hancock County;;https://graceworksaffordablehousing.org/communities/good-shepherd-community/;N/A;(317) 462-8718
ChIJu_5PJcO0FIgR6rX8GLI5MmE;The Hearth at Windermere;39.9292256/-85.98230869999999;9745 Olympia Dr, Fishers, IN 46037, USA;city;Fishers;46037;Fall Creek Township;2.6;http://www.hearthatwindermere.com/;N/A;(877) 931-3245
ChIJqXVxGJBLa4gRUjI4dqAKwqM;One Penrose Place;39.8585433/-86.00832229999999;9115 Hawkins Rd, Indianapolis, IN 46216, USA;city;Lawrence Township;46216;Marion County;5;https://yournextplacetolive.com/senior-living/one-penrose-place/;N/A;(317) 543-9848
ChIJ92I2XOgxa4gRuyVZzhPOZdE;The Ellison House;39.7873357/-85.7824693;915 W 4th St, Greenfield, IN 46140, USA;city;Center Township;46140;Hancock County;;http://ellisonhouse.com/;N/A;(317) 462-5009
ChIJ0w1MJ95Oa4gRYsLKR1DUcKQ;Harrison Terrace;39.793811/-86.032505;1924 Wellesley Blvd, Indianapolis, IN 46219, USA;city;Indianapolis;46219;Warren Township;3.5;http://www.ascseniorcare.com/location/harrison-terrace/?utm_source=google&utm_medium=organic&utm_content=indianapolis-29&utm_campaign=maps;N/A;(317) 353-6270
ChIJ253V9ykua4gRe3-qDF7IStE;Hancock County Senior Services;39.8121561/-85.77423349999999;1870 Fields Blvd, Greenfield, IN 46140, USA;city;Center Township;46140;Hancock County;4.8;http://hcssi.org/;N/A;(317) 462-3758
ChIJN68DttRIa4gRvmIvK0GQyy8;GreenTree Assisted Living at Post Road;39.7860725/-86.01132310000001;8800 Spoon Dr, Indianapolis, IN 46219, USA;city;Indianapolis;46219;Warren Township;3.7;N/A;N/A;(317) 210-4252
ChIJMS7JEx6zFIgR8xtW1IzVdnQ;Allisonville Meadows Assisted Living;39.9389224/-86.0533985;10410 Allisonville Rd, Fishers, IN 46038, USA;city;Delaware Township;46038;Hamilton County;5;http://www.ascseniorcare.com/location/allisonville-meadows-assisted-living/?utm_source=google&utm_medium=organic&utm_content=fishers-amal66&utm_campaign=maps;N/A;(317) 436-6400
ChIJo2peYK1Pa4gRfvSdzs1ksmU;Arlington Place Health Campus;39.78995799999999/-86.063012;1635 N Arlington Ave, Indianapolis, IN 46218, USA;city;Warren Township;46218;Marion County;3.8;http://www.trilogyhs.com/campuses/arlington-place-health-campus-0;N/A;(317) 353-6000
ChIJKTyYrwipbIgRPfw1-2JioVE;The Harrison;39.8093681/-86.303016;3060 Valley Farms Rd, Indianapolis, IN 46214, USA;city;Indianapolis;46214;Wayne Township;4.3;http://www.capitalsenior.com/theharrison/;N/A;(877) 931-3056
ChIJe-zCJZuobIgR2WIHy_Bvr_c;The Hearth at Prestwick;39.7593469/-86.4299123;182 S County Rd 550 E, Avon, IN 46123, USA;city;Washington Township;46123;Hendricks County;3.4;http://www.capitalsenior.com/thehearthatprestwick/;N/A;(866) 672-2391
ChIJX2ovAAC6bIgRDZugEW_oW44;Danville Regional Rehabilitation;39.763689/-86.498671;255 Meadow Dr, Danville, IN 46122, USA;city;Center Township;46122;Hendricks County;;http://www.ascseniorcare.com/location/danville-regional-rehabilitation/?utm_source=google&utm_medium=organic&utm_content=danville-asc0074&utm_campaign=maps;N/A;(317) 745-5451
ChIJrZH05UevbIgR8wt-IEQCLpA;Traditions at Reagan Park;39.7811844/-86.3496517;1176 Kingwood Dr, Avon, IN 46123, USA;city;Washington Township;46123;Hendricks County;4.2;http://www.traditionsatreaganpark.com/;N/A;(317) 271-0100
ChIJ-fLSEcW5bIgRG8Z2ysss1xo;Ivy Trace;39.752805/-86.528239;337 W Lincoln St, Danville, IN 46122, USA;city;Center Township;46122;Hendricks County;5;http://goivytrace.com/;N/A;(317) 718-7592
ChIJ-Wdj90imbIgRUSyF8bepx64;Washington Healthcare Center;39.735048/-86.30553999999999;8201 Washington St, Indianapolis, IN 46231, USA;city;Indianapolis;46231;Wayne Township;2.3;http://www.ascseniorcare.com/location/washington-healthcare-center/?utm_source=google&utm_medium=organic&utm_content=indianapolis-84&utm_campaign=maps;N/A;(317) 244-6848
ChIJ56E1WkqvbIgRdnPD4dQNxFE;Wellbrooke of Avon;39.77694849999999/-86.3397181;10307 E County Road 100 N, Indianapolis, IN 46234, USA;city;Washington Township;46234;Hendricks County;3.8;http://www.wellbrookeofavon.com/;N/A;(317) 273-2144
ChIJs7gxuQyq4IgRpYR7yLK41b8;Avon Health and Rehabilitation Center;39.7598576/-86.45289129999999;4171 Forest Pointe Cir, Avon, IN 46123, USA;city;Washington Township;46123;Hendricks County;4.7;http://www.avonhealthandrehab.com/;N/A;(317) 745-5184
ChIJJ4-J8XihbIgRWSICTcWdTP4;Worthington Place;39.6371209/-86.33057579999999;10799 Alliance Dr, Camby, IN 46113, USA;city;Guilford Township;46113;Hendricks County;4.1;http://www.enlivant.com/communities/indiana/worthington-place-camby;N/A;(317) 218-9715
ChIJe_FOow2obIgRWvlZPQ-kcMU;Summit Place West;39.7659868/-86.2734894;55 Mission Dr, Indianapolis, IN 46214, USA;city;Indianapolis;46214;Wayne Township;4;http://www.inhcf.com/summitplacewest/home/;N/A;(317) 244-2600
ChIJQ1QLEAapbIgRcGZLQ5XcE2E;Eagle Valley Meadows;39.808775/-86.30145999999999;3017 Valley Farms Rd, Indianapolis, IN 46214, USA;city;Indianapolis;46214;Wayne Township;4.1;http://www.ascseniorcare.com/location/eagle-valley-meadows/?utm_source=google&utm_medium=organic&utm_content=indianapolis-38&utm_campaign=maps;N/A;(317) 293-2555
ChIJD4OTdkivbIgR3yUAyN3B2Eo;Thornbury Pointe;39.77835109999999/-86.3475984;9868 E County Road 100 N, Avon, IN 46123, USA;city;Washington Township;46123;Hendricks County;;http://www.thornburypointe.com/;N/A;N/A
ChIJ6xjoCdKpbIgR0pCw9ErIr3g;Roland Retirement Clubs;39.802297/-86.26660199999999;6038 W 25th St, Indianapolis, IN 46224, USA;city;Wayne Township;46224;Marion County;4;N/A;N/A;(317) 291-5228
ChIJE2JTco5Ya4gRuwplH2DevFY;ABBEY APARTMENTS;39.70586/-86.24082539999999;4012 Mann Rd, Indianapolis, IN 46221, USA;city;Indianapolis;46221;Decatur Township;;http://www.rhf.org/;N/A;(317) 821-1903
ChIJkTYC3_bebIgRctI_WDlj-PU;Ivy Trace Greencastle;39.6530426/-86.85411239999999;815 Tacoma Dr, Greencastle, IN 46135, USA;city;Greencastle Township;46135;Putnam County;;http://www.goivytrace.com/;N/A;(765) 653-6900
ChIJZaJ1NDwzFYgRAJa0gxgQxZg;Woodlands At Forest Ridge;39.908769/-85.38292369999999;2800 Forest Ridge Pkwy, New Castle, IN 47362, USA;city;Henry Township;47362;Henry County;;http://trilogyhs.com/browse-locations/item/senior-living-at-forest-ridge;N/A;(765) 521-4740
ChIJ7bVKwo8zFYgRze-UaN35rKg;Stonebrooke Rehabilitation Center;39.941555/-85.364413;990 N 16th St, New Castle, IN 47362, USA;city;Henry Township;47362;Henry County;3;http://www.ascseniorcare.com/location/stonebrooke-rehabilitation-center/?utm_source=google&utm_medium=organic&utm_content=new-castle-as33&utm_campaign=maps;N/A;(765) 529-0230
ChIJ1S4OC3YzFYgRzUPiFaw-74c;Senior Living at Forest Ridge;39.906682/-85.382869;2800 Forest Ridge Pkwy, New Castle, IN 47362, USA;city;Henry Township;47362;Henry County;4.8;http://seniorlivingatforestridge.com/;N/A;(765) 521-4740
ChIJR4qfGGAzFYgRGpw-aosry4U;Addison Place;39.91026599999999/-85.355369;2244 Q Ave, New Castle, IN 47362, USA;city;Henry Township;47362;Henry County;5;http://www.enlivant.com/communities/indiana/addison-place-new-castle;N/A;(765) 200-6323
ChIJsbcikZozFYgRM-7xFem4WD0;DSI-Developmental Services Inc.;39.939378/-85.366986;1510 Washington St, New Castle, IN 47362, USA;city;Henry Township;47362;Henry County;;https://www.dsiservices.org/;N/A;(765) 529-3331
ChIJAZ_1j67JFYgR-p595i8Bgzw;Heritage Pointe of Huntington;40.903889/-85.48460899999999;1180 500 N, Huntington, IN 46750, USA;city;Huntington Township;46750;Huntington County;4.5;http://www.heritagepointeofhuntington.org/;N/A;(260) 355-2750
ChIJaVHATQ7KFYgRNmP_MXgJ7gw;Tipton Place;40.88050370000001/-85.53326109999999;460 Forks of the Wabash Way, Huntington, IN 46750, USA;city;Huntington Township;46750;Huntington County;5;http://www.enlivant.com/communities/indiana/tipton-place-huntington;N/A;(260) 204-0041
ChIJv_BuF83JFYgRWnQM1xmy-4Q;Pathfinder Services Inc;40.897321/-85.52344099999999;2824 Theater Ave, Huntington, IN 46750, USA;city;Huntington Township;46750;Huntington County;2.7;https://pathfinderservices.org/;N/A;(260) 356-0500
ChIJh6lCBsPJFYgRaTc-mho2FxI;Central Living Senior Apartments;40.8839921/-85.4962287;601 N Jefferson St, Huntington, IN 46750, USA;city;Huntington Township;46750;Huntington County;5;http://huntingtonseniorapartments.com/;N/A;(260) 356-6460
ChIJS-vDMgO2FYgRUxkGE0EJGC4;Oakbrook Village;40.8682609/-85.509787;930 Ash St, Huntington, IN 46750, USA;city;Huntington Township;46750;Huntington County;4;http://www.inhcf.com/oakbrook-village/home/;N/A;(260) 358-0047
ChIJH_nEm8PJFYgRyc4aC40dJCw;Park Lofts at Huntington;40.88351600000001/-85.495369;41 E Park Dr, Huntington, IN 46750, USA;city;Huntington Township;46750;Huntington County;5;https://yournextplacetolive.com/senior-living/park-lofts-at-huntington/;N/A;(260) 200-2104
ChIJ5x1Ps9zJFYgRf8MumgpeVRY;La Fontaine Center;40.881011/-85.4951789;208 W State St, Huntington, IN 46750, USA;city;Huntington Township;46750;Huntington County;4.8;http://lafontainecenter.org/;N/A;(260) 356-9099
ChIJY8spbdXJFYgRjB_de-r0hi4;Rivergreen Apartments;40.871612/-85.480582;1405 Garfield St, Huntington, IN 46750, USA;city;Huntington Township;46750;Huntington County;;http://rivergreenapartments.net/;N/A;(260) 356-7023
ChIJ27ejyGLKFYgRRs2R-P8QdH8;Norwood Health and Rehabilitation Center;40.884158/-85.5597209;3720 N Norwood Rd, Huntington, IN 46750, USA;city;Huntington Township;46750;Huntington County;;http://www.covenantcare.com/Locations/Norwood-Health-and-Rehabilitation-Center/Facility-Home;N/A;(260) 356-1252
ChIJm6lrxB22FYgRJmPFf30sSUQ;Miller's Merry Manor;40.869705/-85.50544599999999;1500 Grant St, Huntington, IN 46750, USA;city;Huntington Township;46750;Huntington County;4;http://www.millersmerrymanor.com/locations/huntington;N/A;(260) 356-5713
ChIJ3_0Xix62FYgRqYOsqPejPPw;Hickory Creek At Huntington;40.868547/-85.50336399999999;1425 Grant St, Huntington, IN 46750, USA;city;Huntington Township;46750;Huntington County;;http://www.hickorycreekhealthcare.org/huntington/;N/A;(260) 356-4867
ChIJCb5M3w3KFYgRKM5H3eWHJ9I;Cedar Run Apartments;40.881035/-85.535529;900 Wabash Cir, Huntington, IN 46750, USA;city;Huntington Township;46750;Huntington County;2.5;N/A;N/A;(260) 359-0644
ChIJS9rzPQLKFYgRzyjAs7-b2tw;Saint Anne Communities At Victory Noll;40.87771399999999/-85.521351;25 Victory Noll Drive, Huntington, IN 46750, USA;city;IN;46750;United States;5;http://www.saintannecommunities.org/;N/A;(260) 224-6848
ChIJT-5iVF7kFYgRR1YmGBLOaAI;Jackson Manor Apartments;41.076339/-85.15069799999999;835 W Wayne St, Fort Wayne, IN 46802, USA;city;Fort Wayne;46802;Wayne Township;;N/A;N/A;N/A
ChIJ9VumH_1ibogR9_ZYxpIn_aE;Northwood Good Samaritan Health;38.41221099999999/-86.94001899999999;2515 N Newton St, Jasper, IN 47546, USA;city;Bainbridge Township;47546;Dubois County;3.8;https://www.good-sam.com/locations/northwood-retirement-community/visit-us-northwood-retirment-community;N/A;(812) 482-1722
ChIJl5lVgFFibogRyWXKqKMGxE8;Cathedral Health Care Center;38.3943002/-86.93717599999999;520 W 9th St, Jasper, IN 47546, USA;city;Bainbridge Township;47546;Dubois County;5;http://www.cathedralhealthcarecenter.com/;N/A;(812) 482-6603
ChIJt-DVj_1ibogRw-YeRdxSg-w;Good Samaritan Society Assisted Living.;38.41017099999999/-86.94012499999999;302 Pleasant View Dr, Jasper, IN 47546, USA;city;Bainbridge Township;47546;Dubois County;;https://www.good-sam.com/locations/northwood-retirement-community;N/A;(812) 634-6060
ChIJ44kj08gcE4gROg7NUk-bTFw;Rosewalk Commons;40.4211192/-86.8472826;250 Shenandoah Dr, Lafayette, IN 47905, USA;city;Fairfield Township;47905;Tippecanoe County;3.7;https://www.fivestarseniorliving.com/communities/in/lafayette/rosewalk-commons;N/A;(765) 449-4475
ChIJXw6EGiT9EogRttwOReCPmhc;University Place;40.4471593/-86.93691729999999;1700 Lindberg Rd, West Lafayette, IN 47906, USA;city;Wabash Township;47906;Tippecanoe County;5;https://www.franciscanministries.org/university-place/;N/A;(765) 464-5600
ChIJ86g9saCGFIgRvfjcc-EB2ws;North Woods Village;40.4898901/-86.16066939999999;2233 W Jefferson St, Kokomo, IN 46901, USA;city;Center Township;46901;Howard County;3;http://www.ascseniorcare.com/location/north-woods-village/?utm_source=google&utm_medium=organic&utm_content=kokomo-39&utm_campaign=maps;N/A;(765) 457-9175
ChIJldnh12dna4gRHbcP55sZxuo;Copper Chase at Stones Crossing Apartments;39.58217310000001/-86.1535863;2345 Thorium Dr, Greenwood, IN 46143, USA;city;White River Township;46143;Johnson County;2.7;http://greenwood-apts.com/;N/A;(844) 786-5967
ChIJPY2bkLxCa4gR_UQIlybU5iU;Cottages at Sheek Road Apartments;39.5898369/-86.0774277;1257 Cottages Way, Greenwood, IN 46143, USA;city;Pleasant Township;46143;Johnson County;;http://sheekroadapartments.com/;N/A;(844) 443-4927
ChIJP1-U73xna4gRjAsJXphVpOw;Demaree Crossing Assisted living facility;39.5847024/-86.1428306;Greenwood, IN 46143, USA;city;IN;46143;United States;;N/A;N/A;N/A
ChIJE1fnvuFgEYgRFqAdrUoTtlo;Golden LivingCenter - Knox;41.2875714/-86.61759529999999;300 E Culver Rd, Knox, IN 46534, USA;city;Center Township;46534;Starke County;;http://www.goldenlivingcenters.com/knox;N/A;(574) 772-6248
ChIJ2wisq3XmbYgRDEwO8YZXM2g;Golden Acres Senior Apartments;41.2874177/-86.61049779999999;1004 Virginia Ln, Knox, IN 46534, USA;city;Center Township;46534;Starke County;;N/A;N/A;(574) 772-2799
ChIJk3N_W-ZgEYgRbPq7cemnF3w;Wintersong Village of Knox;41.2873081/-86.6122707;1005 Edgewood Dr, Knox, IN 46534, USA;city;Center Township;46534;Starke County;;http://www.inhcf.com/wintersong-village/home/;N/A;(574) 772-5826
ChIJ3ZBNHHqVEYgR88iyhHdcuLU;Miller's Senior Living Community;41.556528/-87.185632;5911 Lute Rd, Portage, IN 46368, USA;city;Portage Township;46368;Porter County;5;http://www.millersseniorliving.com/portage-assisted-living;N/A;(219) 764-0628
ChIJmedCa_uZEYgR1UYv4DVCKSM;Brookdale Valparaiso;41.492155/-87.0569943;2601 Valparaiso St, Valparaiso, IN 46383, USA;city;Center Township;46383;Porter County;5;https://www.brookdale.com/en/communities/brookdale-valparaiso.html;N/A;(219) 246-2003
ChIJqcsy_zQIEYgRx1G71W5NbQ0;Rittenhouse Village At Michigan City;41.6843799/-86.88325829999999;4300 Cleveland Ave, Michigan City, IN 46360, USA;city;Coolspring Township;46360;LaPorte County;4.3;http://www.rittenhousevillages.com/senior-living/in/michigan-city/rittenhouse-village-at-michigan-city/;N/A;(219) 841-5415
ChIJZTIt_2uVEYgR2-t4ksJEq3s;Brookdale Portage;41.5522654/-87.19775319999999;3444 Swanson Rd, Portage, IN 46368, USA;city;Portage Township;46368;Porter County;;https://www.brookdale.com/en/communities/brookdale-portage-in.html;N/A;(219) 246-2046
ChIJA93-gOuZEYgRfSvWxmMH10o;Pines Village Retirement Communities, Inc.;41.498573/-87.04510599999999;3303 Pines Village Cir, Valparaiso, IN 46383, USA;city;Center Township;46383;Porter County;4;http://www.pinesvillage.org/;N/A;(219) 465-1591
ChIJeV56DHOdFogR9GbH6F7Xj-4;Grace Village Retirement Community;41.222421/-85.801062;337 Grace Village Dr, Winona Lake, IN 46590, USA;city;Wayne Township;46590;Kosciusko County;3.7;http://gracevillage.org/;N/A;(574) 372-6200
ChIJf3BvMrKdFogRFFqayAuW4Hc;Lake City Place;41.24093999999999/-85.820044;425 Chinworth Ct, Warsaw, IN 46580, USA;city;Wayne Township;46580;Kosciusko County;5;http://www.enlivant.com/communities/indiana/lake-city-place-warsaw;N/A;(574) 207-4158
ChIJ00JA_3-eFogRnjIBvukeUeY;Kosciusko Community Sr Actvty;41.24703199999999/-85.84953489999999;800 N Park Ave, Warsaw, IN 46580, USA;city;Wayne Township;46580;Kosciusko County;4.5;N/A;N/A;(574) 268-2132
ChIJv9R8esydFogRj_6Jtse7X1s;Courts of Colfax-Retirement Apt;41.24274/-85.83371459999999;600 N Colfax St, Warsaw, IN 46580, USA;city;Wayne Township;46580;Kosciusko County;5;http://www.hi-courtsofcolfax.com/;N/A;(574) 269-4334
ChIJoxj4CdSWFogRHFDGpOHYIdc;Lakeland Rehabilitation and Healthcare Center;41.411705/-85.85278699999999;505 W 4th St, Milford, IN 46542, USA;city;Van Buren Township;46542;Kosciusko County;4;http://www.lakelandrhc.com/;N/A;(574) 658-9455
ChIJK4bRswCeFogRQWvKBaYfQ8U;Miller's Merry Manor;41.211006/-85.84944399999999;1630 S County Farm Rd, Warsaw, IN 46580, USA;city;Wayne Township;46580;Kosciusko County;;http://www.millersmerrymanor.com/locations/warsaw;N/A;(574) 267-8196
ChIJR3WA8QnSFogRgVaOgy7Xz98;Emeritus at Tanglewood Trace;41.70127999999999/-86.190348;530 Tanglewood Ln, Mishawaka, IN 46545, USA;city;Clay Township;46545;St. Joseph County;;https://www.brookdale.com/communities/emeritus-tanglewood-trace/;N/A;(317) 324-9563
ChIJ_YCmLnGeFogR0XWiTczPeQE;Warsaw Meadows Care Center - Dementia Care Specialist;41.23366499999999/-85.8540809;300 E Prairie St, Warsaw, IN 46580, USA;city;Wayne Township;46580;Kosciusko County;3.5;http://www.warsawmeadows.com/;N/A;(574) 267-8922
ChIJ76AfLJwIFIgRpKTCPQKrwLs;Wynnfield Crossing;41.0552572/-86.20036429999999;1729 Wabash Ave, Rochester, IN 46975, USA;city;Rochester Township;46975;Fulton County;5;http://www.capitalsenior.com/wynnfieldcrossing/;N/A;(866) 454-7489
ChIJs7-UOUSOFogRKoaHtjEDDjo;Miller's Merry Manor;41.415836/-85.73999999999999;500 E Pickwick Dr, Syracuse, IN 46567, USA;city;Turkey Creek Township;46567;Kosciusko County;;http://www.millersmerrymanor.com/locations/syracuse;N/A;(574) 457-4401
ChIJq6NgFxKdFogRPDVXmYzUpaY;grace village;41.22879/-85.79637160000001;3805 Lake City Hwy, Warsaw, IN 46580, USA;city;Wayne Township;46580;Kosciusko County;;https://gracevillage.org/;N/A;N/A
ChIJU2cxRmnLFogRuFR3KEWqc8I;Southfield Village Inc;41.60551499999999/-86.23178299999999;6450 Miami Cir, South Bend, IN 46614, USA;city;Centre Township;46614;St. Joseph County;5;http://www.greencroft.org/communities/southfield/;N/A;(574) 231-1000
ChIJ3eyn8DecFogRwh6lbzU3u4w;Kosciusko Community YMCA;41.25771110000001/-85.8299933;1305 Mariners Dr, Warsaw, IN 46582, USA;city;Wayne Township;46582;Kosciusko County;4.6;http://www.kcymca.org/;N/A;(574) 269-9622
ChIJqbF6iGtFFogRQr8GPZaEZxU;Life Care Center of LaGrange;41.6530652/-85.41267929999999;770 N 075 E, LaGrange, IN 46761, USA;city;Bloomfield Township;46761;LaGrange County;3;http://lifecarecenteroflagrange.com/;N/A;(260) 463-7445
ChIJcc0sxRNFFogRq7yHxvy-3Rg;Romer's Day Care;41.644551/-85.40797099999999;800 E Michigan St, LaGrange, IN 46761, USA;city;Bloomfield Township;46761;LaGrange County;;N/A;N/A;(260) 463-2644
ChIJV8WfdhHvEYgR-jbQWOcz8JI;Merrillville Lakes Senior Apartments;41.46406289999999/-87.35574079999999;8400 Grant Cir, Merrillville, IN 46410, USA;city;Ross Township;46410;Lake County;3.9;N/A;N/A;(219) 650-5000
ChIJ0W24HTHuEYgRJoxdh57nlnY;Bickford Senior Living of Crown Point;41.4242667/-87.33394869999999;140 E 107th Ave, Crown Point, IN 46307, USA;city;Center Township;46307;Lake County;;http://www.enrichinghappiness.com/branch/bickford-of-crown-point;N/A;(219) 663-0972
ChIJA8LiHDvwEYgRQTwewHoJuVA;Wittenberg Village, a Lutheran Life Community;41.398153/-87.352329;1200 E Luther Dr, Crown Point, IN 46307, USA;city;Center Township;46307;Lake County;2.5;http://www.wittenbergvillage.org/;N/A;(219) 663-3860
ChIJC2ImfZiVEYgReDUMK_DqJ0w;Rittenhouse Village At Portage;41.544612/-87.172811;6235 Sterling Creek Rd, Portage, IN 46368, USA;city;Portage Township;46368;Porter County;3.5;http://www.rittenhousevillages.com/senior-living/in/portage/rittenhouse-village-at-portage/;N/A;(219) 766-5796
ChIJCeyfUq3hEYgRXg9394GP8Hs;Hartsfield Village;41.5313472/-87.5142352;10000 Columbia Ave, Munster, IN 46321, USA;city;North Township;46321;Lake County;3.8;http://www.hartsfieldvillage.com/;N/A;(219) 934-0750
ChIJr9zb1sbuEYgRh0q2Z0_Bw6E;Journey Senior Living Of Merrillville;41.4748599/-87.32476560000001;7900 Rhode Island St, Merrillville, IN 46410, USA;city;Ross Township;46410;Lake County;;http://www.jsl-m.com/;N/A;(219) 525-1897
ChIJX7ZkFqHrEYgRE08cNNlXh2o;Brentwood at Hobart;41.513924/-87.265857;1420 St Marys Cir, Hobart, IN 46342, USA;city;Hobart Township;46342;Lake County;3;http://www.hobartalc.com/;N/A;(219) 945-9777
ChIJgbZKjITyEYgRYtDNUlhy6Ac;Crown Point Christian Village;41.4041949/-87.2548752;6685 E 117th Ave, Crown Point, IN 46307, USA;city;Winfield Township;46307;Lake County;3.2;http://www.crownpointchristianvillage.org/;N/A;(219) 662-0642
ChIJdzG9fhfkEYgRqx4u6yRQ5Io;Residences At Deer Creek;41.48234/-87.44325300000001;401 US-30, Schererville, IN 46375, USA;city;St John Township;46375;Lake County;4.8;http://www.residencesatdeercreek.com/;N/A;(219) 864-0700
ChIJf2zrejTvEYgRX5Gaiv5yFOs;Towne Centre;41.4875174/-87.3566714;7250 Arthur Blvd, Merrillville, IN 46410, USA;city;Ross Township;46410;Lake County;2.5;http://www.capitalsenior.com/townecentre/;N/A;(877) 931-4184
ChIJU4Ry2RbwEYgR4FgsZXzwVYk;St. Anthony Village;41.398008/-87.367226;203 W Franciscan Dr, Crown Point, IN 46307, USA;city;Center Township;46307;Lake County;3.7;https://www.franciscanministries.org/st-anthony-village/;N/A;(219) 661-5100
ChIJaeNKqOnuEYgRNTItLYn9wsY;Virginia Place;41.4680524/-87.3281755;8253 Virginia St, Merrillville, IN 46410, USA;city;Ross Township;46410;Lake County;5;http://www.enlivant.com/communities/indiana/virginia-place-merrillville;N/A;(219) 214-1540
ChIJTe2pe_8fDogRhF-NWJV30vY;St. Anthony of Lansing;41.5742534/-87.5427203;3025 Spring Lake Dr, Lansing, IL 60438, USA;city;Thornton Township;60438;Cook County;3.6;http://www.stanthony-slf.com/;N/A;(708) 474-6100
ChIJZyz0lqv5EYgRaBepFwk2pUI;Lowell Healthcare;41.29532100000001/-87.41686679999999;710 Michigan St, Lowell, IN 46356, USA;city;Cedar Creek Township;46356;Lake County;2;http://www.ascseniorcare.com/location/lowell-healthcare/?utm_source=google&utm_medium=organic&utm_content=lowell-asc230&utm_campaign=maps;N/A;(219) 696-7791
ChIJ49x9MmrwEYgRzV86k9cVAvw;Symphony of Crown Point;41.3867541/-87.36360529999999;1555 S Main St, Crown Point, IN 46307, USA;city;Center Township;46307;Lake County;3.4;http://www.symphonyofcrownpoint.com/;N/A;(219) 323-8700
ChIJPQRX-hbAEYgRVzHEvutYF4c;Lake Park Residential Care;41.5811165/-87.23898939999999;2075 Ripley St, Lake Station, IN 46405, USA;city;Hobart Township;46405;Lake County;3.7;N/A;N/A;(219) 962-9437
ChIJwbtywo_hEYgRU4IUW-989Wk;Symphony of Dyer;41.5037635/-87.51009999999999;1532 Calumet Ave, Dyer, IN 46311, USA;city;St John Township;46311;Lake County;2.9;http://www.symphonyofdyer.com/;N/A;(219) 515-4700
ChIJBSJb3akgDogRvHcd_wZhT-g;Senior Suites Hegewisch;41.6485127/-87.54038229999999;13550 S Avenue O, Chicago, IL 60633, USA;city;Chicago;60633;Cook County;5;https://communities.seniorlifestyle.com/il/chicago/13550-s--avenue-o.html;N/A;(888) 329-6038
ChIJf914xjXvEYgRR0I4gydQ_LU;Village Green Active Sr Living;41.4867094/-87.3594277;7265 McKinley Cir, Merrillville, IN 46410, USA;city;Ross Township;46410;Lake County;;N/A;N/A;(219) 736-3835
ChIJfT9jI7jkEYgRzyEtaBp4CJI;Park Place of St. John;41.42343/-87.44231739999999;10700 Park Pl, St John, IN 46373, USA;city;Hanover Township;46373;Lake County;5;http://www.parkplacestjohn.com/;N/A;(219) 525-4658
ChIJsayyNYTCEYgRncoE03usfuw;High Rise For Senior Citizens;41.5779755/-87.3474123;911 W 22nd Pl, Gary, IN 46407, USA;city;Calumet Township;46407;Lake County;;N/A;N/A;(219) 886-3808
ChIJk-PAGPzYEYgRuz6zvMljLws;Hammond-Whiting Care Center;41.6884836/-87.50406799999999;1000 E 114th St, Whiting, IN 46394, USA;city;North Township;46394;Lake County;3.7;http://hammondwhitingcarecenter.com/;N/A;(219) 659-2770
ChIJ_0lhOQHkEYgRHEauvPdXP74;Clarendale of Schererville;41.4784334/-87.4029;7770 Burr St, Schererville, IN 46375, USA;city;St John Township;46375;Lake County;5;http://clarendaleofschererville.com/;N/A;(219) 322-8855
ChIJqfxrToKVEYgRWDRn3CSdAN0;Golden LivingCenter - Fountainview Place;41.5596431/-87.17894609999999;3175 Lancer St, Portage, IN 46368, USA;city;Portage Township;46368;Porter County;3;http://www.goldenlivingcenters.com/fountainviewplace;N/A;(219) 762-9571
ChIJ3x8P8vzuEYgRz2JiFCR8iyk;Spring Mill Health Campus;41.4586572/-87.33796959999999;101 W 87th Ave, Merrillville, IN 46410, USA;city;Ross Township;46410;Lake County;3;http://www.springmillhc.com/;N/A;(219) 756-0744
ChIJKwYcArYhEogRohqI1eJNXTw;Oak Grove Christian Retirement Village;41.201456/-87.20204299999999;221 W Division Rd, De Motte, IN 46310, USA;city;Keener Township;46310;Jasper County;5;http://www.greencroft.org/communities/oak_grove/;N/A;(219) 987-7005
ChIJo5TIQ2IhDogR88_c1i4dW3Q;Our Savior's Apartments;41.6289937/-87.6175966;14600 Indiana Ave # 900, Dolton, IL 60419, USA;city;Dolton;60419;Thornton Township;3.5;N/A;N/A;(708) 841-8476
ChIJYRczUfHuEYgR72o9mgYgqwE;Golden LivingCenter - Merrillville;41.45587700000001/-87.32684669999999;8800 Virginia Pl, Merrillville, IN 46410, USA;city;Ross Township;46410;Lake County;2;http://www.goldenlivingcenters.com/merrillville;N/A;(219) 736-1310
ChIJ0wqgFU0oDogRpH3ahJNE8kM;Senior Suites of South Shore;41.7733509/-87.5678762;2355 E 67th St, Chicago, IL 60649, USA;city;Chicago;60649;Cook County;3;http://www.seniorlifestyle.com/senior-suites-of-south-shore.aspx;N/A;(888) 331-9784
ChIJhwmgaYMsDogRltlh79Bor9M;Senior Suites-Central Station;41.863941/-87.6228198;1400 S Indiana Ave, Chicago, IL 60605, USA;city;Chicago;60605;Cook County;3;http://www.seniorlifestyle.com/;N/A;(312) 913-9333
ChIJWRzQcKohDogRd22Kl-xvO3U;Dorchester Senior Center & Retirement Home;41.6144618/-87.58009;1515 E 154th St, Dolton, IL 60419, USA;city;Thornton Township;60419;Cook County;3.1;http://www.thedorchestercenter.com/;N/A;(708) 841-5560
ChIJZV6bhrvTD4gR335NCXDZYGE;Care Advisor SeniorLiving.Net;41.948136/-87.64329889999999;3550 N Lake Shore Dr, Chicago, IL 60657, USA;city;Chicago;60657;Cook County;;http://www.seniorliving.net/;N/A;(877) 345-1706
ChIJXy0uLWeXEYgRuYzLzG4OLwM;Meridian Woods-A Pines Village Retirement Community;41.5049107/-87.0677759;4245 Meridian Woods Dr, Valparaiso, IN 46385, USA;city;Center Township;46385;Porter County;;http://pinesvillage.org/;N/A;(219) 465-1591
ChIJOywYwd7oEYgRa92RdgGhtu4;AARP Foundation SCSEP;41.5067247/-87.34438609999999;6111 Harrison St # 306, Merrillville, IN 46410, USA;city;Merrillville;46410;Ross Township;;http://www.aarp.org/aarp-foundation/our-work/income/scsep/info-2014/aarp-foundation-scsep-locations.html;N/A;(219) 980-2723
ChIJ9YdNqFQcDogRn8yZ52Icb1s;St James Senior Estates;41.4607858/-87.5795031;3700 Eagle Nest Dr, Crete, IL 60417, USA;city;Crete Township;60417;Will County;2.5;https://www.franciscanministries.org/st-james-senior-estates/;N/A;(708) 367-0590
ChIJYY9r0fAgDogRcZJUBwimpLw;Bernadin Manor;41.62032909999999/-87.566389;1700 Memorial Dr, Calumet City, IL 60409, USA;city;Thornton Township;60409;Cook County;5;http://www.catholiccharities.net/housing;N/A;(708) 832-1208
ChIJ2YlGLYISEYgR3uTj8ibsZVM;Oak Woods Manor;41.59292879999999/-86.73826219999999;1211 Longwood Dr, La Porte, IN 46350, USA;city;Center Township;46350;LaPorte County;4.3;https://www.fivestarseniorliving.com/communities/in/la-porte/oak-woods-manor;N/A;(219) 362-6600
ChIJ5UEXy4USEYgRw9--jL6n9gA;Brentwood at La Porte;41.5883042/-86.73553750000001;2002 Andrew Ave, La Porte, IN 46350, USA;city;Scipio Township;46350;LaPorte County;4.7;http://www.laportealc.com/;N/A;(219) 321-8850
ChIJIcowdKETEYgRU9x4OwnFzGE;Settlers Place;41.59748/-86.68402399999999;3304 Monroe St, La Porte, IN 46350, USA;city;Pleasant Township;46350;LaPorte County;4.3;http://www.enlivant.com/communities/indiana/settlers-place-la-porte;N/A;(219) 227-6983
ChIJ481sVogSEYgR-Puey32ttug;Golden LivingCenter - LaPorte;41.5921177/-86.7299218;1700 I St, La Porte, IN 46350, USA;city;Center Township;46350;LaPorte County;;http://www.goldenlivingcenters.com/laporte;N/A;(219) 362-6234
ChIJczeOf4YSEYgRE6EU-x0gTzA;Golden LivingCenter - Fountainview Terrace;41.5893899/-86.7353904;1900 Andrew Ave, La Porte, IN 46350, USA;city;Scipio Township;46350;LaPorte County;;http://www.goldenlivingcenters.com/fountainviewterrace;N/A;(219) 362-7014
ChIJX9Cja3sSEYgRywqLeR9jCIM;Swanson Center;41.59961/-86.73217489999999;1230 W State Rd 2, La Porte, IN 46350, USA;city;Center Township;46350;LaPorte County;2.2;http://www.swansoncenter.org/;N/A;(219) 362-2145
ChIJKamjXGoSEYgRzydpKfosVBs;Swanson Activity Center For Older Adults;41.610998/-86.72282729999999;910 State St, La Porte, IN 46350, USA;city;Center Township;46350;LaPorte County;5;http://www.swansoncenter.org/;N/A;(219) 326-5354
ChIJNToCB30SEYgRISKoWU2Ks80;Maple City Square Apartments;41.59605499999999/-86.735185;1204 Andrew Ave, La Porte, IN 46350, USA;city;Center Township;46350;LaPorte County;4;http://www.rhf.org/location/maple-city-square/;N/A;(219) 324-4477
ChIJ53R65qETEYgRqBJNzlyq6o0;Miller's Health & Rehab;41.5973823/-86.6817636;3530 Monroe St, La Porte, IN 46350, USA;city;Pleasant Township;46350;LaPorte County;;http://www.millersmerrymanor.com/locations/laporte;N/A;(219) 841-8020
ChIJh73VRXcNEYgRrccA3DmBWik;LaPorte County Home;41.59026929999999/-86.75248359999999;2852 IN-2, La Porte, IN 46350, USA;city;Scipio Township;46350;LaPorte County;;http://www.laportecounty.org/;N/A;(219) 362-2525
ChIJpwXzn4ESEYgRj6trVj4y2D0;Cambridge Square Apartments of LaPorte;41.5957066/-86.7378399;1111 Longwood Dr, La Porte, IN 46350, USA;city;Center Township;46350;LaPorte County;4;http://www.cambridgesquarelaporte.com/;N/A;(219) 326-5675
ChIJgcH4YIYSEYgRqu76N4wmO1I;Maple Tree Apartments;41.5911579/-86.73722149999999;1405 W 18th St, La Porte, IN 46350, USA;city;Center Township;46350;LaPorte County;2.3;http://laporte-apartments.com/;N/A;(844) 361-8238
ChIJjZrLSQVMa4gRtUGicB5Cg8A;Lawrence Senior Apartments;39.84010200000001/-86.021895;8301 E. 46th St., Indianapolis, IN 46226, USA;city;IN;46226;United States;2.8;http://lawrenceseniorapts.com/;N/A;(317) 721-2849
ChIJ9cnbj49La4gRp-0YOlmCbJI;Benjamin Court;39.860629/-86.00375299999999;5810 Lee Rd, Indianapolis, IN 46216, USA;city;Lawrence Township;46216;Marion County;3.1;http://www.benjamincourt.com/;N/A;(317) 377-0100
ChIJ-ZsrrI1Na4gRxfo0998dYAM;Kesslerwood Place;39.8571453/-86.0858363;5011 Kessler Blvd E Dr, Indianapolis, IN 46220, USA;city;Indianapolis;46220;Washington Township;4.3;http://www.enlivant.com/communities/indiana/kesslerwood-place-indianapolis;N/A;(317) 316-3533
ChIJhzQZ6o5La4gRAIiTBC6NkFk;The Fort Apartments;39.8577165/-86.00524329999999;9230 Memorial Park Dr #1, Lawrence, IN 46216, USA;city;Lawrence;46216;Lawrence Township;3.6;http://www.livethefort.com/?utm_source=Local%20Listings&utm_medium=referral&utm_campaign=Top%20Line%20Local;N/A;(317) 536-2800
ChIJ6TcS9rs7aogR80vyPPSs2vs;Jewel Place;38.7859516/-85.38100879999999;607 Virginia Ave, Madison, IN 47250, USA;city;Madison Township;47250;Jefferson County;3.2;http://www.enlivant.com/communities/indiana/jewel-place-madison;N/A;(812) 226-8613
ChIJb8MlMjc7aogRPUe0QEEBl7o;River Terrace Health Campus;38.7381314/-85.380489;120 Presbyterian Ave, Madison, IN 47250, USA;city;Madison Township;47250;Jefferson County;4;http://www.riverterrhc.com/;N/A;(812) 265-0080
ChIJK19uqjY7aogRiwPjpnwKfMo;Madison Heritage Apartments;38.734803/-85.380573;101 W 2nd St, Madison, IN 47250, USA;city;Madison Township;47250;Jefferson County;;http://www.rhf.org/location/madison-heritage-apartments/;N/A;(812) 265-2525
ChIJuy_NFAI7aogRm9GnIfA81yk;Hope Community;38.76537/-85.395196;2020 Cragmont St, Madison, IN 47250, USA;city;Madison Township;47250;Jefferson County;;https://graceworksaffordablehousing.org/communities/hope-community/;N/A;(812) 273-5474
ChIJ1T_U9MsvaogR7yMexH3mbXw;Thornton Terrace Health Campus;38.71736429999999/-85.4752707;188 Thornton Rd, Hanover, IN 47243, USA;city;Hanover Township;47243;Jefferson County;;http://www.thorntonterracehc.com/;N/A;(812) 866-8396
ChIJhXqZRzI7aogR7YB7VDJEQLM;Rivertrace Apartments;38.73352360000001/-85.3841494;100 Broadway St, Madison, IN 47250, USA;city;Madison Township;47250;Jefferson County;5;N/A;N/A;(812) 273-2526
ChIJMxdsG9_-FIgR-VeurXlyzWo;Colonial Oaks Retirement Community;40.511677/-85.66626199999999;4714 S Colonial Oaks Dr, Marion, IN 46953, USA;city;Center Township;46953;Grant County;;http://www.colonialoaksretirementcommunity.com/;N/A;(765) 697-0005
ChIJsXcIIEf_FIgRlVMvD56Ujjo;Carey Services;40.53545310000001/-85.67168819999999;2724 S Carey St, Marion, IN 46953, USA;city;Center Township;46953;Grant County;5;http://www.careyservices.com/;N/A;(765) 668-8961
ChIJWQNz-17_FIgRG0BiqtoANh4;Flinn Place Inc;40.550732/-85.667115;612 W 12th St, Marion, IN 46953, USA;city;Center Township;46953;Grant County;;N/A;N/A;(765) 668-8115
ChIJJwzwRv9VFIgRWG7scAijRN8;Plumbwood;40.555219/-85.68028199999999;1615 W 6th St, Marion, IN 46953, USA;city;Franklin Township;46953;Grant County;;N/A;N/A;(765) 664-1838
ChIJd-bgKZx7FIgRQIE5rwV70JM;Aperion Estates Peru;40.66606600000001/-86.138825;1200 W Kittyhawk Ave, Peru, IN 46970, USA;city;IN;46970;United States;;https://aperioncare.com/locations/peru-estates/;N/A;(765) 689-7305
ChIJax1MsjpwFIgRXHQSHn-3GJ8;Blair Ridge Health Campus;40.76036510000001/-86.10457389999999;269 Meadowview Dr, Peru, IN 46970, USA;city;Peru Township;46970;Miami County;5;http://www.blairridge.com/;N/A;(765) 472-8049
ChIJ9aAczXyEFIgRnqaFz7fdk8c;The Wellington at Kokomo;40.4524959/-86.16450380000001;2800 S Dixon Rd, Kokomo, IN 46902, USA;city;Center Township;46902;Howard County;;http://www.capitalsenior.com/thewellingtonatkokomo/;N/A;(866) 738-6128
ChIJhVbx8n-GFIgRt8EEtE6LZuQ;The Residences at Washington Street;40.489445/-86.133335;400 N Washington St, Kokomo, IN 46901, USA;city;Kokomo;46901;Center Township;4.8;https://yournextplacetolive.com/senior-living/the-residences-at-washington-street/;N/A;(765) 450-6498
ChIJm2yE5_yDFIgRPUyuNV0Nf2o;Golden LivingCenter - Sycamore Village;40.4874319/-86.1729663;2905 W Sycamore St, Kokomo, IN 46901, USA;city;Center Township;46901;Howard County;5;http://www.goldenlivingcenters.com/sycamorevillage;N/A;(765) 452-5491
ChIJkftUl6SHFYgRJ8m9C2TAbOU;Swiss Village Retirment Community;40.6554298/-84.966938;1350 W Main St, Berne, IN 46711, USA;city;Wabash Township;46711;Adams County;4.3;http://www.swissvillage.org/;N/A;(260) 589-3173
ChIJEfCRVta1P4gRKWZ1agJRWzQ;Saint Charles Senior Living Community;40.43291829999999/-84.5637377;2860 U.S. 127, Celina, OH 45822, USA;city;Marion Township;45822;Mercer County;5;http://www.st-charles-cpps.org/;N/A;(419) 925-4516
ChIJ_x1nMeTzPogRoCwM5ZeeNYo;Primrose Retirement Community of Lima;40.7381587/-84.17085109999999;3500 W Elm St, Lima, OH 45807, USA;city;American Township;45807;Allen County;4;http://www.primroseretirement.com/lima-ohio-senior-care-communities/;N/A;(419) 549-5910
ChIJuRfZMZ_zPogRmL_Eo5mIk74;Elmcroft of Lima;40.7664196/-84.1663284;2075 N Eastown Rd, Lima, OH 45807, USA;city;American Township;45807;Allen County;4;http://www.elmcroft.com/community/elmcroft-of-lima/;N/A;(419) 331-2442
ChIJG2iaQnj6PogRJswWcsbJicM;Otterbein Senior Lifestyle Choices;40.64780699999999/-84.152198;100 Red Oak Dr, Cridersville, OH 45806, USA;city;Duchouquet Township;45806;Auglaize County;4.3;http://www.otterbein.org/cridersville;N/A;(419) 645-7167
ChIJSXgclG3rP4gRmNHH_khweS4;Brookdale Greenville;40.1202093/-84.63634370000001;1401 N Broadway St, Greenville, OH 45331, USA;city;Greenville Township;45331;Darke County;;https://www.brookdale.com/en/communities/brookdale-greenville-oh.html;N/A;(937) 641-8491
ChIJmWZA7eCfP4gRl7arn9Go3w8;Brookdale Piqua;40.14839399999999/-84.273392;1744 High St, Piqua, OH 45356, USA;city;Miami County;45356;Ohio;5;https://www.brookdale.com/en/communities/brookdale-piqua/details.html;N/A;(937) 660-3147
ChIJl_A1NU52P4gR3VHQRxuXiXg;Brookdale Troy;40.0509452/-84.2399087;81 S Stanfield Rd, Troy, OH 45373, USA;city;Concord Township;45373;Miami County;5;https://www.brookdale.com/en/communities/brookdale-troy-oh.html;N/A;(937) 203-4272
ChIJS37DHSzfbYgRoNMVHN_pbGE;Eastgate Manor Nursing And Rehabilitation;38.653939/-87.147429;2119 E National Hwy, Washington, IN 47501, USA;city;Washington Township;47501;Daviess County;;http://www.ascseniorcare.com/location/eastgate-manor-nursing-rehabilitation/?utm_source=google&utm_medium=organic&utm_content=washington-asc0075&utm_campaign=maps;N/A;(812) 254-3301
ChIJB8VvFXGKFogRruX2wKMmgrE;Avalon Retirement Community;41.46402889999999/-85.60883899999999;200 Kingston Cir, Ligonier, IN 46767, USA;city;Perry Township;46767;Noble County;;N/A;N/A;(260) 894-7133
ChIJle_X4-sUFogRjxIi4gPHRwo;Senior Apartments;41.448131/-85.24733999999999;Kendallville, IN 46755, USA;city;IN;46755;United States;;N/A;N/A;N/A
ChIJG17wOC1rFogRF4hierBVJ70;Carriage House Apartments of Kendallville;41.4558376/-85.27316689999999;340 Ashton Dr, Kendallville, IN 46755, USA;city;Wayne Township;46755;Noble County;1.2;http://www.carriagehousekendallville.com/;N/A;(260) 347-0303
ChIJT8rhjJWiEYgRG8LD-5w0pWQ;Symphony of Chesterton;41.57956009999999/-87.0419752;2775 Village Point, Chesterton, IN 46304, USA;city;Liberty Township;46304;Porter County;4.1;http://www.symphonyofchesterton.com/;N/A;(219) 304-6700
ChIJWaCzZfKZEYgRi_muS1yRxiM;Rittenhouse Village At Valparaiso;41.491333/-87.044738;1300 Vale Park Rd, Valparaiso, IN 46383, USA;city;Center Township;46383;Porter County;4;http://www.rittenhousevillages.com/senior-living/in/valparaiso/rittenhouse-village-at-valparaiso/;N/A;(219) 525-1253
ChIJsWp-gYOZEYgRsC-z4LTSS0Q;Avalon Assisted Living and Wellness Center;41.4903054/-87.0271363;2400 Silhavy Rd, Valparaiso, IN 46383, USA;city;Center Township;46383;Porter County;2;http://trilogyhs.com/browse-locations/item/avalon-springs-health-campus;N/A;(219) 462-1778
ChIJHXmUstuiEYgRjD8olztq9YE;Chesterton Manor;41.59657259999999/-87.0498384;110 Beverly Dr, Chesterton, IN 46304, USA;city;Westchester Township;46304;Porter County;5;http://www.chestertonmanorhealthcare.com/;N/A;(219) 926-8387
ChIJ7YFWIPqZEYgRUcxqnLrNP3E;Valparaiso Care and Rehabilitation;41.4883645/-87.05316180000001;606 Wall St, Valparaiso, IN 46383, USA;city;Center Township;46383;Porter County;3.6;http://www.ascseniorcare.com/location/valparaiso-care-rehabilitation/?utm_source=google&utm_medium=organic&utm_content=valparaiso-76&utm_campaign=maps;N/A;(219) 464-4976
ChIJ0dmUwkMIEYgRarkXNF6nDos;Trail Creek Place;41.6951898/-86.8768936;1300 E Coolspring Ave, Michigan City, IN 46360, USA;city;Michigan;46360;LaPorte County;;http://www.enlivant.com/communities/indiana/trail-creek-place-michigan-city;N/A;(219) 872-1935
ChIJXxxoa_uZEYgR-fVwi4vp7RY;Brookdale Senior Living;41.4906989/-87.05559559999999;2501 Valparaiso St, Valparaiso, IN 46383, USA;city;Center Township;46383;Porter County;;http://www.brookdaleliving.com/;N/A;(219) 548-2230
ChIJ63msvxJLcIgRN0I0LJsVfGE;Mount Vernon Nursing & Rehabilitation;37.929407/-87.912774;1415 Country Club Rd, Mt Vernon, IN 47620, USA;city;Black Township;47620;Posey County;4.2;http://www.ascseniorcare.com/location/mount-vernon-nursing-rehabilitation/?utm_source=google&utm_medium=organic&utm_content=mt-vernon-asc0080&utm_campaign=maps;N/A;(812) 838-6554
ChIJSe9EYB1LcIgRYcUQwfYjAjU;The Landing;37.9296365/-87.89414269999999;111 E Water St, Mt Vernon, IN 47620, USA;city;Black Township;47620;Posey County;;http://www.thelandingseniorapts.com/;N/A;N/A
ChIJVVo7ZhdLcIgRPAuNpKuhXtw;Posey County Council On Aging;37.93493900000001/-87.904629;611 W 8th St, Mt Vernon, IN 47620, USA;city;Black Township;47620;Posey County;3.7;http://www.poseycountycouncilonaging.com/;N/A;(812) 838-4656
ChIJDdLlYMfScYgRtMtc0luPtWk;West River Health Campus;37.9717986/-87.6760489;714 S Eickhoff Rd, Evansville, IN 47712, USA;city;Evansville;47712;Perry Township;3.7;http://www.westriverhc.com/;N/A;(812) 985-9878
ChIJO4-BfhfTcYgRtTWbgrFE2BU;Park Terrace Village;37.9791872/-87.6480754;25 S Boehne Camp Rd, Evansville, IN 47712, USA;city;Evansville;47712;Perry Township;3.8;http://www.ascseniorcare.com/location/park-terrace-village/?utm_source=google&utm_medium=organic&utm_content=evansville-asc0087&utm_campaign=maps;N/A;(812) 423-7468
ChIJx6xGL2bUcYgRtEoEThc0BmU;Leisure Living;38.0066952/-87.60187449999999;2518 Leisure Ln, Evansville, IN 47720, USA;city;Evansville;47720;Perry Township;5;http://www.leisure-living-apartments.com/;N/A;(812) 425-5550
ChIJO1hjl2fUcYgRtvZPHNBXCEo;Parkview Care Center;38.00502900000001/-87.599087;2819 N St Joseph Ave, Evansville, IN 47712, USA;city;Evansville;47712;Center Township;4.9;http://parkviewcarecenterin.com/;N/A;(812) 424-2941
ChIJ02O1cizUcYgRvlV87xVDvyY;Bethel Manor;38.0341149/-87.58217669999999;6015 Kratzville Rd, Evansville, IN 47710, USA;city;Center Township;47710;Vanderburgh County;5;http://www.bethelmanor.com/;N/A;(812) 425-8182
ChIJjT0xPbBAcIgRv9cd-sKLXUA;Breckinridge Place Retirement Community;37.6948511/-87.8651964;170 Sykes Blvd, Morganfield, KY 42437, USA;city;Union County;42437;Kentucky;;http://breckinridgeservices.org/;N/A;(270) 389-1133
ChIJHSRNcWzTcYgRga9iS4AC60o;Lakewood West Apartments;37.9818438/-87.6356619;5001 Lakeside Ct, Evansville, IN 47712, USA;city;Evansville;47712;Perry Township;3.7;http://www.lakewoodapts.org/;N/A;(812) 424-8575
ChIJjeKbxEjTcYgRrpf26HzysiM;Hickory Lake Apartments;37.9643679/-87.63440900000001;1214 Lavender Ct, Evansville, IN 47712, USA;city;Evansville;47712;Perry Township;5;http://www.hickory-lake.com/;N/A;(812) 401-5001
ChIJTxc8KagrbogRCVTagl3YeRo;Homewatch CareGivers of Evansville;37.9955083/-87.4909701;4907 Theater Dr, Evansville, IN 47715, USA;city;Knight Township;47715;Vanderburgh County;5;https://www.homewatchcaregivers.com/southern-indiana/evansville;N/A;(812) 401-9540
ChIJMcwt0DwrbogR6CEoSVvL1TM;Willow Park;37.9704553/-87.4899834;5050 Lincoln Ave, Evansville, IN 47715, USA;city;Knight Township;47715;Vanderburgh County;4.7;http://www.holidaytouch.com/our-communities/willow-park?utm_source=Local&utm_medium=organic&utm_term=5377&utm_content=IL&utm_campaign=gmb;N/A;(812) 817-0660
ChIJLawhYqzfbIgR7yPMZhHCKNo;Putnam County Senior Center;39.644745/-86.8647699;9 W Franklin St, Greencastle, IN 46135, USA;city;Greencastle Township;46135;Putnam County;5;N/A;N/A;(765) 653-8606
ChIJCQAAALXfbIgR_MIdGs-qDGQ;Hickory Creek At Sunset;39.6328682/-86.86469079999999;1109 S Indiana St, Greencastle, IN 46135, USA;city;Greencastle Township;46135;Putnam County;;http://www.hickorycreekhealthcare.org/sunset/;N/A;(765) 653-3143
ChIJp7rtwtLibIgRlDgW95SsznI;Cunot Community & Senior Center;39.44567999999999/-86.87044399999999;5530 IN-42, Poland, IN 47868, USA;city;Jackson Township;47868;Owen County;4.2;N/A;N/A;(765) 795-3461
ChIJS6vgRKzfbIgRzSEdnwZtIU0;Greencastle Development Center;39.643905/-86.8655898;2 S Jackson St, Greencastle, IN 46135, USA;city;Greencastle Township;46135;Putnam County;;http://www.putnamcountyindianaeconomicdevelopment.com/;N/A;(765) 653-2474
ChIJCakuKPkpE4gRTNviHjhHg0Y;Whitlock Place;40.022206/-86.8973091;1719 S Elm St, Crawfordsville, IN 47933, USA;city;Union Township;47933;Montgomery County;4;http://www.enlivant.com/communities/indiana/whitlock-place-crawfordsville;N/A;(765) 200-6313
ChIJLa15vQHWEogRwHrAAf-YFwg;Ben Hur Health and Rehabilitation;40.0258997/-86.90414129999999;1375 S Grant Ave, Crawfordsville, IN 47933, USA;city;Union Township;47933;Montgomery County;;http://www.ascseniorcare.com/location/ben-hur/?utm_source=google&utm_medium=organic&utm_content=crawfordsville-bhhr002&utm_campaign=maps;N/A;(765) 362-0905
ChIJDbtUlSTkbIgRuNJtn4OAh54;Cloverdale Community Housing;39.51616539999999/-86.79565649999999;452 N Grant St, Cloverdale, IN 46120, USA;city;Cloverdale Township;46120;Putnam County;5;N/A;N/A;(765) 795-6402
ChIJ7bP1qZcpE4gRb8kzsM02PKI;Bickford Assisted Living;40.0456045/-86.86574900000001;100 Bickford Ln, Crawfordsville, IN 47933, USA;city;IN;47933;United States;;http://www.enrichinghappiness.com/crawfordsville;N/A;(765) 362-2000
ChIJmf8ZgdbXEogRbtQNVM2Ex-4;Wellbrooke of Crawfordsville;40.06844479999999/-86.90499940000001;517 Concord Rd, Crawfordsville, IN 47933, USA;city;Union Township;47933;Montgomery County;;http://www.wellbrookeofcrawfordsville.com/;N/A;(765) 362-9122
ChIJC1denqZfFYgRlfqiAoMsTOQ;The Lodge at Summers Pointe;40.16351460000001/-84.9693491;1 Sunset Dr, Winchester, IN 47394, USA;city;White River Township;47394;Randolph County;;http://www.summerspointe.com/;N/A;(765) 584-7676
ChIJo3vPHzHNFogR6EkurwfJQGE;Sanctuary at Trinity Tower;41.6731213/-86.24851609999999;316 S St Joseph St, South Bend, IN 46601, USA;city;Portage Township;46601;St. Joseph County;;http://www.sanctuaryattrinitytower.org/;N/A;(574) 335-1900
ChIJS-ycBWwtEYgR4TS_RkpHSiQ;Portage Manor;41.7184749/-86.2823487;3016 Portage Ave, South Bend, IN 46628, USA;city;South Bend;46628;Portage Township;;http://www.stjosephcountyindiana.com/234/Portage-Manor;N/A;(574) 272-9100
ChIJv_YK00UyEYgRC6lvdpO38JQ;West Bend Nursing and Rehabilitation;41.6735403/-86.31158189999999;4600 W Washington St, South Bend, IN 46619, USA;city;Portage Township;46619;St. Joseph County;2.5;http://www.ascseniorcare.com/location/west-bend-nursing-rehabilitation/?utm_source=google&utm_medium=organic&utm_content=south-bend-as154&utm_campaign=maps;N/A;(574) 282-1294
ChIJwwfRQJnRFogRxsJcM2ScBO0;The Hearth at Juday Creek;41.71828/-86.162571;6330 Fir Rd, Granger, IN 46530, USA;city;Harris Township;46530;St. Joseph County;4.5;http://judaycreek.thehearth.net/contact;N/A;(574) 217-0609
ChIJccjtT0bNFogRXueYvU4ae8k;Morningview Assisted Living Residences;41.6826242/-86.2445881;475 N Niles Ave, South Bend, IN 46617, USA;city;South Bend;46617;Portage Township;;http://morningview-alf.com/;N/A;(574) 246-4123
ChIJ4-w_U0jNFogRXrJEzLLebm0;Milton Home;41.6815559/-86.24847059999999;206 E Marion St, South Bend, IN 46601, USA;city;South Bend;46601;Portage Township;5;https://www.themiltonhome.com/;N/A;(574) 233-0165
ChIJV7JKy2rNFogRbhP_m9nuiCc;Cardinal Nursing and Rehabilitation;41.6795898/-86.2346969;1121 E Lasalle Ave, South Bend, IN 46617, USA;city;Portage Township;46617;St. Joseph County;2.5;http://www.ascseniorcare.com/location/cardinal-nursing-rehabilitation/?utm_source=google&utm_medium=organic&utm_content=south-bend-as56&utm_campaign=maps;N/A;(574) 287-6501
ChIJ4adNqeHRFogRinPZKKdtgHE;North Woods Village at Edison Lakes;41.6980447/-86.1659404;1409 E Day Rd, Mishawaka, IN 46545, USA;city;Penn Township;46545;St. Joseph County;5;http://www.northwoodsmemorycare.com/;N/A;(574) 247-1866
ChIJq6qqqmbSFogRgNoLURN4XQI;Holy Cross Care Rehab Center;41.713402/-86.2054756;17475 Dugdale Dr, South Bend, IN 46635, USA;city;Clay Township;46635;St. Joseph County;5;http://www.sjmed.com/holy-cross;N/A;(574) 247-7500
ChIJVSdxepYkEYgR_nRe1sa1SGU;Hamilton Grove;41.735618/-86.485889;Hubbard Dr, New Carlisle, IN 46552, USA;city;St Joseph County;46552;Indiana;5;http://www.greencroft.org/communities/new_carlisle/;N/A;(574) 654-2200
ChIJJx8GPoTOFogRJxqZ4XwJILY;Golden LivingCenter - Mishawaka;41.65058779999999/-86.1693162;811 E 12th St, Mishawaka, IN 46544, USA;city;Penn Township;46544;St. Joseph County;5;http://www.goldenlivingcenters.com/mishawaka;N/A;(574) 259-1917
ChIJTfWBLxLSFogRjG83U7kxIpE;Creekside Village;41.71105/-86.163776;1420 E Douglas Rd, Mishawaka, IN 46545, USA;city;Harris Township;46545;St. Joseph County;2.9;http://www.ascseniorcare.com/location/creekside-village/?utm_source=google&utm_medium=organic&utm_content=mishawaka-asc0079&utm_campaign=maps;N/A;(574) 307-7200
ChIJWd5152HMFogRhy9lbHaCvGI;Grand Emerald Place;41.63527939999999/-86.2145653;4010 S Ironwood Dr, South Bend, IN 46614, USA;city;Penn Township;46614;St. Joseph County;4.2;http://www.enlivant.com/communities/indiana/grand-emerald-place;N/A;(574) 216-4510
ChIJ1fu53PXMFogRHtHy5cEAA8E;Trailpoint Village;41.64344449999999/-86.21700489999999;1950 Ridgedale Rd, South Bend, IN 46614, USA;city;South Bend;46614;Portage Township;5;http://www.ascseniorcare.com/location/trailpoint-village/?utm_source=google&utm_medium=organic&utm_content=south-bend-asc0088&utm_campaign=maps;N/A;(574) 291-6722
ChIJZZXmw8zSFogRpKTGfYN7UHk;Your Home Assisted Living;41.7289786/-86.225157;18295 Brightlingsea Pl, South Bend, IN 46637, USA;city;South Bend;46637;Clay Township;;http://www.yourhomeassistedliving.com/;N/A;(574) 272-2060
ChIJ6xGqyz7TFogRmqi3gctpQ78;Wedgewood Pines Assisted Living;41.7554626/-86.24109559999999;50771 Hollyhock Rd, South Bend, IN 46637, USA;city;Clay Township;46637;St. Joseph County;5;N/A;N/A;(574) 277-8160
ChIJU5cXW9QsEYgR86WQuSa_pF0;Golden Oak Village;41.7430438/-86.2595738;5150 Hamlin Ct, South Bend, IN 46637, USA;city;Clay Township;46637;St. Joseph County;4.5;N/A;N/A;(574) 243-5905
ChIJy9M3CQnSFogRyoQZS9RnFIM;Golden LivingCenter - Fountainview;41.700529/-86.188757;609 W Tanglewood Ln, Mishawaka, IN 46545, USA;city;IN;46545;United States;1;http://www.goldenlivingcenters.com/fountainview;N/A;(574) 277-2500
ChIJFz0mBjTNFogRt1NWCzpAHP4;Turning Point Senior Care Solutions;41.67524399999999/-86.2523892;First Bank Building, 205 W Jefferson Blvd #105, South Bend, IN 46601, USA;city;W Jefferson Blvd;46601;South Bend;5;http://www.seniorcaresolutionsbn.com/;N/A;(574) 406-1523
ChIJV_1rqzzTFogRwfNVyGTo2oc;Hannah & Friends;41.74972229999999/-86.2386374;51250 Hollyhock Rd, South Bend, IN 46637, USA;city;Clay Township;46637;St. Joseph County;5;http://www.hannahandfriends.org/;N/A;(574) 217-7860
ChIJ_cCUemXOFogR23xGq8m3M8Y;Sprenger Health Care of Mishawaka;41.6189869/-86.141751;60257 Bodnar Blvd, Mishawaka, IN 46544, USA;city;Penn Township;46544;St. Joseph County;2.6;http://www.sprengerhealthcare.com/;N/A;(574) 222-1234
ChIJcTjuJQLFEIgRLzSNuupK_BM;The Willows Assisted Living;42.0540236/-86.4543237;3440 Niles Rd, St Joseph, MI 49085, USA;city;Royalton Township;49085;Berrien County;;http://willows.baruchsls.org/;N/A;(269) 428-0715
ChIJDeE8xu_MFogRh-6yQSSsw0k;Estate Assisted Living TMG;41.6473014/-86.2270564;2706 York Rd, South Bend, IN 46614, USA;city;Portage Township;46614;St. Joseph County;;N/A;N/A;(574) 204-2432
ChIJN5b1TYTSFogR6QdGTSEc9JQ;Morningside Memory Care Center;41.7063034/-86.2230754;18325 Bailey Ave, South Bend, IN 46637, USA;city;Clay Township;46637;St. Joseph County;5;http://morningside-memory.com/;N/A;(574) 272-2602
ChIJb81kezbTFogRYITunOdzUiQ;Samlind of Indiana Inc;41.75719119999999/-86.2507567;50776 IN-933, South Bend, IN 46637, USA;city;Clay Township;46637;St. Joseph County;;http://www.samlindinc.com/;N/A;(574) 855-1810
ChIJBQE1QhfFEIgRdeI3b5NU7aI;Caretel Inns of Lakeland;42.0472404/-86.4461376;3905 Lorraine Path, St Joseph, MI 49085, USA;city;Royalton Township;49085;Berrien County;2;http://www.caretelinns.com/locations/st-joseph-mi/;N/A;(269) 428-1111
ChIJ68rmVKLGEIgRx5nLULYNqgw;Whitcomb Tower Retirement;42.110937/-86.48169799999999;509 Ship St, St Joseph, MI 49085, USA;city;Berrien County;49085;Michigan;;http://www.whitcombretirement.com/;N/A;(269) 983-2513
ChIJcwpJBV3EEIgRdLPmUnIFmDM;Brookdale Home Health Holland;42.071849/-86.47747099999999;2500 Niles Rd #5, St Joseph, MI 49085, USA;city;St Joseph;49085;St. Joseph Charter Township;;https://www.brookdale.com/en/our-services/home-health-services/home-health/brookdale-home-health-holland.html;N/A;(269) 468-7142
ChIJU6f4U0wqEYgRl1iBPNlSCBQ;Woodland Terrace;41.823642/-86.31007699999999;13 Longmeadow Dr, Niles, MI 49120, USA;city;Niles Charter Township;49120;Berrien County;;http://www.woodlandterrace.com/;N/A;(269) 683-7900
ChIJI0DJJNTUFogRH50HT9FG1Gc;Brentwood at Niles;41.81565399999999/-86.25202299999999;1147 S 3rd St, Niles, MI 49120, USA;city;Berrien County;49120;Michigan;5;http://www.nilesalc.com/;N/A;(269) 200-4920
ChIJzRHCJEHDEIgRYME7al1Q4qA;Crownpointe Senior Living Comm;42.0410623/-86.5173762;4232 Red Arrow Hwy, Stevensville, MI 49127, USA;city;Lincoln Charter Township;49127;Berrien County;5;http://www.crownpointecommunities.com/;N/A;(269) 429-7200
ChIJSZxNvq48EYgRlUGIuSJZLtE;Miller's Merry Manor;41.7008193/-86.50775920000001;220 E Dunn Rd, New Carlisle, IN 46552, USA;city;Olive Township;46552;St. Joseph County;5;http://www.millersmerrymanor.com/locations/new-carlisle;N/A;(574) 654-7244
ChIJ-z6O_cTdEIgRO3HvR5gSgAk;Woodland Terrace-A Senior Living Residence;41.95831159999999/-86.55391089999999;8850 Red Arrow Hwy, Bridgman, MI 49106, USA;city;Berrien County;49106;Michigan;4;http://www.woodlandterrace.com/;N/A;(269) 465-7600
ChIJAY-HdPbMFogRjD_YaXEqWgc;Ironwood Health & Rehab Center;41.64331/-86.2172915;1950 Ridgedale Rd, South Bend, IN 46614, USA;city;South Bend;46614;Portage Township;5;http://www.extendicareus.com/ironwood/index.aspx;N/A;(574) 291-6722
ChIJnT_yUPIXa4gRxlEfkG8ZdEg;Walker Place;39.5575814/-85.7753304;2216 N Riley Hwy, Shelbyville, IN 46176, USA;city;Marion Township;46176;Shelby County;5;http://www.enlivant.com/communities/indiana/walker-place-shelbyville;N/A;(317) 218-9716
ChIJS-UNKyUmFogRcfryYFp-e4Y;Turning Point Shelter;41.64182479999999/-84.99436899999999;600 Williams St, Angola, IN 46703, USA;city;Pleasant Township;46703;Steuben County;5;http://turningpointsteuben.org/;N/A;(260) 665-9191
ChIJBd5a3jomFogRXGP--Gl7-EU;Northern Lakes Nursing & Rehabilitation Center;41.6403357/-84.9938205;516 Williams St, Angola, IN 46703, USA;city;Pleasant Township;46703;Steuben County;5;N/A;N/A;(260) 665-9467
ChIJO1J6VDomFogR3CG1-3Rqn24;Lakeland Skilled Nursing and Rehabilitation Center;41.639525/-84.992656;500 Williams St, Angola, IN 46703, USA;city;Pleasant Township;46703;Steuben County;;http://www.covenantcare.com/Locations/Lakeland-Skilled-Nursing-and-Rehabilitation-Center/Facility-Home;N/A;(260) 665-2161
ChIJJ9YRqXqCPYgR3Im5bjV4phc;Country Meadows AFC;41.7809897/-84.8306345;912 Kelley Rd, Montgomery, MI 49255, USA;city;California Township;49255;Branch County;;http://www.cmassistedliving.com/;N/A;(517) 296-4369
ChIJz3Haa_eCPYgREL4sdVR0PUw;Haven;41.77391919999999/-84.81137450000001;423 W McCallum St, Montgomery, MI 49255, USA;city;Camden Township;49255;Hillsdale County;;N/A;N/A;(517) 296-4455
ChIJhTlvmWQrbogRrTdnDqp1NR4;Walnut Creek Alzheimer's Special Care Center;37.9814236/-87.4657594;525 Bentee Wes Ct, Evansville, IN 47715, USA;city;Knight Township;47715;Vanderburgh County;;https://www.jeaseniorliving.com/senior-living/in/evansville/walnut-creek-alzheimers-special-care-center/;N/A;(812) 420-1540
ChIJKaCCJCorbogRIFkBFZpvVd0;Horizon Homes Apartments;37.9568021/-87.4983455;1450 Luther Square, Evansville, IN 47714, USA;city;Knight Township;47714;Vanderburgh County;;http://www.horizonhomes-evansville.com/;N/A;(812) 479-0456
ChIJkZEsYSgrbogR0-52pwNZkIg;Oasis Dementia Care;37.961407/-87.49783599999999;4301 Washington Ave, Evansville, IN 47714, USA;city;Knight Township;47714;Vanderburgh County;3;http://www.oasisdementiacare.com/;N/A;(812) 303-3310
ChIJDY8jzTvVcYgRT-gFkpdQDPQ;Golden LivingCenter - Brentwood;37.96659/-87.5650661;30 E Chandler Ave, Evansville, IN 47713, USA;city;Pigeon Township;47713;Vanderburgh County;3;http://www.goldenlivingcenters.com/brentwood;N/A;(812) 423-6019
ChIJ2W6JMBDVcYgRx4g6fwwnvmY;Independence Square;37.9842625/-87.5676115;201 W Delaware St, Evansville, IN 47710, USA;city;Evansville;47710;Pigeon Township;4.3;http://www.rhf.org/location/independence-square/;N/A;(812) 428-0362
ChIJoVrfWcnSb4gRNhXHzmOdHUY;The Village at Hamilton Pointe;37.94442799999999/-87.405254;3800 Eli Place, Newburgh, IN 47630, USA;city;IN;47630;United States;1;http://www.hamiltonpointehealthandrehab.com/;N/A;(812) 858-5300
ChIJzwuHfZkrbogRj_r-EqxGeL0;Quinton Residential Living;38.00128900000001/-87.47526099999999;6301 Old Boonville Hwy # B, Evansville, IN 47715, USA;city;Evansville;47715;Knight Township;4.7;http://www.qrlcares.com/;N/A;(812) 401-2245
ChIJ22aSU7TVcYgRkf4XjWOs4Yk;Holiday Retirement Village;38.0142185/-87.57630669999999;1200 W Buena Vista Rd, Evansville, IN 47710, USA;city;Center Township;47710;Vanderburgh County;;http://holidayhealthcare.com/;N/A;(773) 517-7210
ChIJ9fr9K2otbogRcoGcp0343TE;Bell Oaks Place;37.97322399999999/-87.3962148;4200 Wyntree Dr, Newburgh, IN 47630, USA;city;Ohio Township;47630;Warrick County;5;http://www.enlivant.com/communities/indiana/bell-oaks-place-newburgh;N/A;(812) 213-4428
ChIJ9QQdql_VcYgRx7oqgQXiN_Y;University Nursing and Rehabilitation - Evansville Indiana Nursing Home;37.9709465/-87.54181059999999;1236 Lincoln Ave, Evansville, IN 47714, USA;city;Evansville;47714;Knight Township;3.4;http://www.universitynursingandrehabilitation.com/;N/A;(812) 464-3607
ChIJc_4WtFDVb4gRpalicOEdNCM;Easter Seals;37.94319360000001/-87.53438039999999;2606 S Rotherwood Ave, Evansville, IN 47714, USA;city;Knight Township;47714;Vanderburgh County;3.7;http://www.easterseals.com/in-sw/get-involved/events/;N/A;(812) 473-2087
ChIJe9vZq5cpcIgRnjlrYqPKEzU;Redbanks;37.852593/-87.5703599;851 Kimsey Ln, Henderson, KY 42420, USA;city;Henderson County;42420;Kentucky;3.6;http://redbanks.org/;N/A;(270) 826-6436
ChIJhfFLEZfUcYgRjyElIYvPW54;Hillcrest Youth Services;37.979017/-87.60716099999999;2700 W Indiana St, Evansville, IN 47712, USA;city;Evansville;47712;Perry Township;5;http://www.hillcrestyouthservices.org/;N/A;(812) 428-0698
ChIJl3G6SwPVcYgRhLic4mU8AOA;Golden LivingCenter - Woodbridge;37.98549870000001/-87.57532289999999;816 N First Ave, Evansville, IN 47710, USA;city;Evansville;47710;Pigeon Township;2.3;http://www.goldenlivingcenters.com/woodbridge;N/A;(812) 426-2841
ChIJd4BHDVAocIgR_YbAT8Vn8W8;ResCare;37.8162379/-87.57043370000001;600 KY-2084, Henderson, KY 42420, USA;city;Henderson County;42420;Kentucky;1;http://rescare.com/;N/A;(270) 826-0667
ChIJr6auVSPVcYgRorp8m6FNBj4;Sage Health Services of Indiana Inc;37.96947420000001/-87.5694225;215 SE 4th St, Evansville, IN 47713, USA;city;Evansville;47713;Pigeon Township;;http://www.sage-health.com/;N/A;(812) 422-7774
ChIJpQLgM7AsbogR4m47kWXvWV0;Kindred Transitional Care & Rehabilitation-Angel River;37.959489/-87.4495455;5233 Rosebud Ln, Newburgh, IN 47630, USA;city;Ohio Township;47630;Warrick County;;N/A;N/A;(812) 473-4761
ChIJw05yvWktbogRFxIwbPyCpnk;Cypress Grove Rehabilitation;37.9731565/-87.39551340000001;4255 Medwell Dr, Newburgh, IN 47630, USA;city;Ohio Township;47630;Warrick County;5;http://www.ascseniorcare.com/location/cypress-grove-rehabilitation-center/?utm_source=google&utm_medium=organic&utm_content=newburgh-asc0073&utm_campaign=maps;N/A;(812) 853-2993
ChIJzeSJWjnVcYgRvw0Y4uTdjR0;Liberty Terrace;37.968494/-87.563839;725 Liberty Way #7108, Evansville, IN 47713, USA;city;Baptisttown;47713;Evansville;3;http://www.libertyterrace.net/;N/A;(812) 422-9034
ChIJI2PUrObVcYgR2S-18PE60lk;Senate Estimates;38.0325149/-87.55486500000001;700 Senate Ave, Evansville, IN 47711, USA;city;Center Township;47711;Vanderburgh County;;N/A;N/A;(812) 422-6225
ChIJJVVRog4rbogRkDHR1ABZZVw;Maxim Healthcare Services;37.98747100000001/-87.4858928;5401 Vogel Rd #630, Evansville, IN 47715, USA;city;Evansville;47715;Knight Township;3;http://www.maximhomecare.com/Evansville_Homecare_701.aspx;N/A;(812) 475-8466
ChIJE-SWZ-0qbogRU62wwZcxncQ;The Good Samaritan Home;37.983601/-87.5185;601 N Boeke Rd, Evansville, IN 47711, USA;city;Knight Township;47711;Vanderburgh County;4;http://www.goodsamhome.org/;N/A;(812) 476-4912
ChIJgx7ZoBktbogRfirTtLgw7Bg;Golden LivingCenter - Woodlands;37.9749776/-87.4128884;4088 Frame Rd, Newburgh, IN 47630, USA;city;Ohio Township;47630;Warrick County;3;http://www.goldenlivingcenters.com/woodlands;N/A;(812) 853-9567
ChIJcbgeg0rTb4gRXApZvZwmxvc;Newburgh Health Care;37.94864399999999/-87.44074999999999;10466 Pollack Ave, Newburgh, IN 47630, USA;city;Ohio Township;47630;Warrick County;4.7;http://newburghhealthcarecenter.com/;N/A;(812) 853-2931
ChIJa3stPr5GFIgR3bAMnLfyQ-A;Wellbrooke of Wabash;40.8194393/-85.82648139999999;20 John Kissinger Drive, Wabash, IN 46992, USA;city;IN;46992;United States;4.3;http://www.wellbrookeofwabash.com/;N/A;(260) 274-0444
ChIJaw1WuhxEFIgR1SnWOJne3GQ;Wabash County Council On Aging;40.798732/-85.837608;239 Bond St, Wabash, IN 46992, USA;city;Noble Township;46992;Wabash County;;http://www.livingwellinwabashcounty.org/;N/A;(260) 563-4475
ChIJT05pByREFIgRJaJ45TLKky8;Miller's Merry Manor;40.79699699999999/-85.82296800000002;122 W Market St, Wabash, IN 46992, USA;city;Noble Township;46992;Wabash County;;http://www.millersmerrymanor.com/locations/wabash-east;N/A;(260) 563-8807
ChIJaw1WuhxEFIgRCpIeWNwrHAI;Winchester Senior Center;40.7994669/-85.8417379;239 Bond St, Wabash, IN 46992, USA;city;Noble Township;46992;Wabash County;5;http://www.livingwellinwabashcounty.org/;N/A;(260) 563-4475
ChIJ98S5H3CEFIgRF1vk7S9X36M;Wellbrooke of Kokomo;40.4606198/-86.1650951;2200 S Dixon Rd, Kokomo, IN 46902, USA;city;Center Township;46902;Howard County;5;http://www.wellbrookeofkokomo.com/;N/A;(765) 455-4443
ChIJ9fr9K2otbogRL-gpmgxAn70;Bell Oaks Terrace;37.973249/-87.3962449;4200 Wyntree Dr, Newburgh, IN 47630, USA;city;Ohio Township;47630;Warrick County;5;N/A;N/A;(812) 858-0488
ChIJPalNuOhbbogR8FIIGcaFYLk;Willowdale Village;38.177247/-86.9935409;404 W Willow Rd, Dale, IN 47523, USA;city;Carter Township;47523;Spencer County;5;http://www.ascseniorcare.com/location/willowdale-village/?utm_source=google&utm_medium=organic&utm_content=dale-asc0083&utm_campaign=maps;N/A;(812) 937-4489
ChIJ2Qb-Anw2bogRMpr0vmI6HF0;Woodmont Health Campus;38.03803300000001/-87.256604;1325 N Rockport Rd, Boonville, IN 47601, USA;city;Boon Township;47601;Warrick County;5;http://www.woodmonthc.com/;N/A;(812) 897-4114
ChIJcSsgk20tbogRRh8593icbis;Parkplace Retirement Living;37.9807029/-87.39727289999999;3866 Carmona Dr, Newburgh, IN 47630, USA;city;Ohio Township;47630;Warrick County;;http://makencorp.com/;N/A;(812) 853-2500
ChIJdwHIMDRSa4gRyCtiaW5LehQ;American Village Garden Homes, Independent Apartments and Assisted Living;39.8520014/-86.1281424;1790 E 54th St, Indianapolis, IN 46220, USA;city;Washington Township;46220;Marion County;;http://www.ascseniorcare.com/location/american-village-assisted-living/?utm_source=google&utm_medium=organic&utm_content=indianapolis-ascaval&utm_campaign=maps;N/A;(317) 251-5580
ChIJ2Ri0nAIBQIgRUZyB55moHj8;The Leland Legacy, Assisted and Independent Senior Community;39.827694/-84.88998119999999;900 S A St, Richmond, IN 47374, USA;city;Wayne Township;47374;Wayne County;5;http://www.thelelandlegacy.com/;N/A;(765) 939-6500
ChIJnbCpWiFRa4gRUVtjOQrSxgg;Kenwood Place Apartments;39.79948290000001/-86.15937169999999;105 W 23rd St, Indianapolis, IN 46208, USA;city;Indianapolis;46208;Center Township;3.7;https://www.facebook.com/KenwoodPlaceApts;N/A;(317) 923-7702
ChIJcd3P33vZFIgRkRuR5k6905M;Vermillion Place Assisted Living;40.1107539/-85.67751439999999;449 Main St, Anderson, IN 46016, USA;city;Anderson Township;46016;Madison County;;http://www.unitedfaithhousing.org/;N/A;(765) 622-7825
ChIJF02010pYa4gReNiEATcbetQ;Senior Care Advisors;39.73220300000001/-86.21633899999999;2344 S Tibbs Ave #1, Indianapolis, IN 46241, USA;city;Wayne;46241;Indianapolis;;http://www.seniorcareadvisorsin.com/;N/A;(317) 731-4337
ChIJvYLLkSOwE4gRTyA_hqDhdCI;Monticello Healthcare;40.7597687/-86.7679302;1120 N Main St, Monticello, IN 47960, USA;city;Union Township;47960;White County;3;http://www.ascseniorcare.com/location/monticello-healthcare/?utm_source=google&utm_medium=organic&utm_content=monticello-41&utm_campaign=maps;N/A;(574) 583-7073
ChIJB3WjcsmvE4gRD1OFxgoHI-U;White Oak Health Campus;40.731399/-86.77699699999999;814 S 6th St, Monticello, IN 47960, USA;city;Union Township;47960;White County;;http://www.whiteoakhc.com/;N/A;(574) 583-0324
ChIJYzg6Dee0E4gR_bEUsUzLM9k;Monon Senior Living Apartment Co;40.86920370000001/-86.8809449;302 W Harrison St, Monon, IN 47959, USA;city;Monon Township;47959;White County;;http://mononapartments.com/;N/A;(219) 253-6259
ChIJp3cvdOuvE4gRe5wgqcxDbcU;Lakeview Commons;40.7342548/-86.757617;402 Tioga Rd, Monticello, IN 47960, USA;city;Union Township;47960;White County;5;http://lakeview-commons.com/;N/A;(574) 583-8271
ChIJZ2i-duuvE4gRB5WZKD_kw-U;Lakeview Village Senior Living;40.734084/-86.75644799999999;410 Tioga Rd, Monticello, IN 47960, USA;city;Union Township;47960;White County;;http://www.inhcf.com/lakeviewvillageseniorliving/home/;N/A;(574) 583-6707
ChIJh4NncDEdE4gRDiwkS-GXj3c;Rosewalk Village of Lafayette;40.424107/-86.875221;1903 Union St, Lafayette, IN 47904, USA;city;Fairfield Township;47904;Tippecanoe County;1.6;http://www.ascseniorcare.com/location/rosewalk-village-of-lafayette/?utm_source=google&utm_medium=organic&utm_content=lafayette-40&utm_campaign=maps;N/A;(765) 447-9431
ChIJBZvHZ6IcE4gRXhYR5V7w8J4;Aster Place;40.4097267/-86.8283247;741 Park E Blvd, Lafayette, IN 47905, USA;city;Fairfield Township;47905;Tippecanoe County;5;http://www.ascseniorcare.com/location/aster-place/?utm_source=google&utm_medium=organic&utm_content=lafayette-asc0070&utm_campaign=maps;N/A;(765) 446-3540
ChIJzb1MLt8cE4gR-E34-RlJcUc;Home Instead Senior Care;40.40430819999999/-86.83313319999999;976 Mezzanine Dr A, Lafayette, IN 47905, USA;city;Lafayette;47905;Fairfield Township;;http://www.homeinstead.com/660;N/A;(765) 447-8800
ChIJmQmL6m39EogRM6N7PFEN9uY;Cumberland Pointe Health Campus;40.459791/-86.9193971;1051 Cumberland Ave, West Lafayette, IN 47906, USA;city;Wabash Township;47906;Tippecanoe County;4.3;http://www.cumberlandpointehc.com/;N/A;(765) 463-2571
ChIJ3y167ZgcE4gRDoLUH9yA_Kk;BeeHive Homes of Lafayette;40.4068811/-86.82890639999999;830 Park E Blvd, Lafayette, IN 47905, USA;city;Fairfield Township;47905;Tippecanoe County;5;http://beehivehomes.com/location/lafayette/;N/A;(765) 441-2505
ChIJs1RdaoECE4gR_HWa7ngUKaA;Heritage Healthcare;40.467146/-86.898544;3401 Soldiers Home Rd, West Lafayette, IN 47906, USA;city;Wabash Township;47906;Tippecanoe County;4.8;http://heritagehealthcarein.com/;N/A;(765) 463-1541
ChIJAzLGq3viEogRgBWbH2s9OaY;Digby Place;40.3821958/-86.9081935;167 W 240 S, Lafayette, IN 47909, USA;city;Wea Township;47909;Tippecanoe County;4;http://www.enlivant.com/communities/indiana/digby-place-lafayette;N/A;(765) 201-7052
ChIJ91U0EuCVEogRQHYqNDGeHMc;Williamsport Nursing and Rehabilitation;40.2976685/-87.29907879999999;200 Short St, Williamsport, IN 47993, USA;city;Washington Township;47993;Warren County;3.4;http://www.ascseniorcare.com/location/williamsport-nursing-rehabilitation/?utm_source=google&utm_medium=organic&utm_content=williamsport-as153&utm_campaign=maps;N/A;(765) 762-6111
ChIJ_x6THF07EogRuH5pvGy0wFo;Lakeside Senior Community;41.06662099999999/-87.134078;3756 N Clubhouse Rd, Rensselaer, IN 47978, USA;city;Barkley Township;47978;Jasper County;5;http://www.enjoylakeside.com/;N/A;(219) 866-5165
ChIJx8I_kyGwE4gRS5N3r_qK144;Monticello Apartment Co;40.7558537/-86.7630824;205 E Fisher St # 110, Monticello, IN 47960, USA;city;Monticello;47960;Union Township;;http://monticelloapartment.com/;N/A;(574) 583-9526
ChIJSZamlIscE4gRhCy1MzdklBE;Creasy Springs Health Campus;40.3924376/-86.83983839999999;1750 S Creasy Ln, Lafayette, IN 47905, USA;city;Fairfield Township;47905;Tippecanoe County;3.4;http://www.creasyspringshc.com/;N/A;(765) 447-6600
ChIJO46K27E4EogR8fxbh3FVU5E;Rensselaer Care Center;40.9327198/-87.13612999999999;1309 E Grace St, Rensselaer, IN 47978, USA;city;Marion Township;47978;Jasper County;5;http://rensselaercarecenter.com/;N/A;(219) 866-4181
ChIJc4H8IUKPE4gREQt1Z5z83WE;WoodBridge Health Campus;40.771153/-86.35081199999999;602 Woodbridge Ave, Logansport, IN 46947, USA;city;Clay Township;46947;Cass County;5;http://www.woodbridgehc.com/;N/A;(574) 753-3223
ChIJccP0nW79EogRjE2AiEHeYpI;Westminister Village;40.4581348/-86.917204;2741 N Salisbury St, West Lafayette, IN 47906, USA;city;Wabash Township;47906;Tippecanoe County;4.4;http://wvwl.org/;N/A;(765) 463-7546
ChIJ19hw5C8dE4gRbGVLARs9L-0;St Mary Healthcare;40.4202339/-86.8718444;2201 Cason St, Lafayette, IN 47904, USA;city;Fairfield Township;47904;Tippecanoe County;5;http://www.stmaryhcc.com/;N/A;(765) 447-4102
ChIJm6Rhcd0sFIgRtkrQ46PY8MM;Columbia Senior Apts The: Senior Citizen & Handicapped Housing;41.085626/-85.621229;525 E Columbia St, South Whitley, IN 46787, USA;city;Cleveland Township;46787;Whitley County;;http://columbiaseniorapts.com/;N/A;(260) 723-6231
ChIJR2znd2DWFYgRZkFqLKnApug;Miller's Merry Manor;41.154804/-85.49944599999999;640 W Ellsworth St, Columbia City, IN 46725, USA;city;Columbia Township;46725;Whitley County;5;http://www.millersmerrymanor.com/locations/columbia-city;N/A;(260) 248-8101
ChIJDdSdXBPWFYgRcXmJU5bm06Q;Whitley County Council On Aging;41.17421710000001/-85.50508689999999;710 Opportunity Dr, Columbia City, IN 46725, USA;city;Columbia Township;46725;Whitley County;4.1;http://www.whitleycountycouncilonaging.com/;N/A;(260) 248-8944
ChIJv5xnYQOw64cRJEGievfQFmw;Maple Ridge Assisted Living;40.7111933/-94.23050569999999;1500 E South St, Mt Ayr, IA 50854, USA;city;Ringgold County;50854;Iowa;5;http://www.rchmtayr.org/communityservices.html;N/A;(641) 464-3204
ChIJrw-llrxy64cRqEuTxbLUYyo;Vintage Parks Apartments;40.8855973/-94.55660229999999;810 E Van Buren St #307, Lenox, IA 50851, USA;city;Lenox;50851;Platte;5;http://vintageparkapts.com/;N/A;(641) 333-2233
ChIJZ9hN4o2C64cRSnPAgtf_iXU;Homestead of Creston;41.06769540000001/-94.3829542;1709 W Prairie St, Creston, IA 50801, USA;city;Union County;50801;Iowa;4;N/A;N/A;(641) 782-3131
ChIJLXtuziYz64cR9Fd5-Cz3Eq4;Westridge Quality Care & Rehabilitation;40.7301576/-95.0452803;600 Manor Dr, Clarinda, IA 51632, USA;city;Nodaway;51632;Page County;;https://www.fivestarseniorliving.com/communities/ia/clarinda/westridge-quality-care-rehabilitation;N/A;(712) 542-5161
ChIJ2azo2lQM7IcRPG52iyWBNCc;West Bridge Care & Rehabilitation;41.3307915/-94.026523;1015 W Summit St, Winterset, IA 50273, USA;city;Madison County;50273;Iowa;;https://www.fivestarseniorliving.com/communities/ia/winterset/west-bridge-care-rehabilitation;N/A;(515) 462-1711
ChIJF7BDhW6ulIcRPaxJ1GUBpzc;Arlington Place of Red Oak;41.031341/-95.22228899999999;800 Ratliff Rd, Red Oak, IA 51566, USA;city;Red Oak;51566;Montgomery County;5;http://www.arlingtonplaceretirement.com/red-oak-about.htm;N/A;(712) 623-1999
ChIJof1IXITBlIcRZU27G4E-kps;Windsor Manor;40.7603089/-95.35815769999999;601 Harrison St, Shenandoah, IA 51601, USA;city;Grant;51601;Page County;3;http://windsor-manor.com/;N/A;(712) 246-2194
ChIJjanszBpUk4cRCRcMhEzNO7c;Griswold Rehabilitation and Health Care Center and Assisted Living Community;41.23676699999999/-95.13439389999999;106 Harrison St, Griswold, IA 51535, USA;city;Pleasant;51535;Cass County;3.5;http://www.griswoldnursingrehab.com/;N/A;(712) 778-2534
ChIJ9d_szRki7IcR-Eqs6u4yu5A;Edgewater, A WesleyLife Community;41.5557227/-93.83320759999999;9225 Cascade Ave, West Des Moines, IA 50266, USA;city;Boone;50266;Dallas County;5;https://www.wesleylife.org/;N/A;(515) 978-2395
ChIJub77UdM47IcR6fy7PqpDI7U;Adel Assisted Living;41.61071799999999/-94.034397;504 Van Fossen Ln, Adel, IA 50003, USA;city;Adel;50003;Dallas County;5;http://www.adelassistedliving.com/;N/A;(515) 993-5175
ChIJKX1dCLEh7IcR_yGwZkgRVyI;MorningStar Assisted Living & Memory Care at Jordan Creek;41.5661844/-93.7910588;525 S 60th St, West Des Moines, IA 50266, USA;city;Boone;50266;Dallas County;;http://www.morningstarseniorliving.com/communities/assisted-living-west-des-moines-ia-jordan-creek/;N/A;(515) 505-7155
ChIJ44kTakYg7IcRIcxwKXhWhSY;Bickford of West Des Moines;41.563237/-93.772465;5050 Hawthorne Dr, West Des Moines, IA 50265, USA;city;Walnut;50265;Polk County;;http://www.enrichinghappiness.com/branch/bickford-of-west-des-moines;N/A;(515) 327-9400
ChIJqYxaiAP67IcRKq3kFsj-2Z8;New Homestead & Homestead Acres;41.68009199999999/-94.48499699999999;2306 State St, Guthrie Center, IA 50115, USA;city;Valley;50115;Guthrie County;4.5;http://www.thenewhomestead.org/;N/A;(641) 332-2204
ChIJKbIqRvEj7IcR2YIssekcTdg;Village At Legacy Pointe;41.6118031/-93.84016460000001;1650 SE Holiday Crest Cir, Waukee, IA 50263, USA;city;Walnut;50263;Dallas County;3;http://villagelegacypointe.watermarkcommunities.com/;N/A;(515) 412-3208
ChIJv4myPy8h7IcRwFloIKBVewM;Woodlands Creek;41.610065/-93.79038199999999;12605 Woodlands Pkwy, Clive, IA 50325, USA;city;Walnut;50325;Polk County;4;http://www.woodlandscreek.com/;N/A;(515) 223-9755
ChIJLZ3MP0sh7IcR8Z-s9SDMQWU;Deerfield;41.61689399999999/-93.808145;13731 Hickman Rd, Urbandale, IA 50323, USA;city;Walnut;50323;Polk County;5;http://www.lifespacecommunities.com/senior-living-des-moines/;N/A;(515) 331-9676
ChIJyyKIBsUg7IcR0H0VQ8mnJ-w;Walnut Ridge Senior Living Community;41.60655/-93.77179;1701 Campus Dr, Clive, IA 50325, USA;city;Walnut;50325;Polk County;;http://www.walnutridgeatclive.com/;N/A;(515) 457-1111
ChIJX8z3ixcm7IcRZI0X83Rpprs;Kennybrook Village;41.6872636/-93.80796149999999;200 SW Brookside Dr, Grimes, IA 50111, USA;city;Webster;50111;Polk County;5;http://kennybrookvillage.com/;N/A;(515) 369-3900
ChIJD4dFINv47YcR5-4O4XCTcbc;Windsor Manor;42.4563385/-93.837665;1401 Wall St, Webster City, IA 50595, USA;city;Hamilton County;50595;Iowa;5;http://windsor-manor.com/;N/A;(515) 832-1188
ChIJb1M2nQNT5YcRhkGBVBHuFwo;Bridges Senior Living;42.4946322/-92.3468615;214 Washington St, Waterloo, IA 50701, USA;city;Black Hawk County;50701;Iowa;3;http://www.bridgessl.com/;N/A;(319) 233-1133
ChIJvy4Qqt9U5YcRxewBQn5l9lI;Bickford Senior Living;42.5083912/-92.418587;5101 University Ave, Cedar Falls, IA 50613, USA;city;Black Hawk County;50613;Iowa;5;http://www.enrichinghappiness.com/branch/bickford-of-cedar-falls;N/A;(319) 266-6800
ChIJS7L-rZRN5YcRWEAyBWxW5zg;Fox Meadow Senior Apartments;42.4698909/-92.28696669999999;715 Central Ave, Evansdale, IA 50707, USA;city;Black Hawk County;50707;Iowa;;http://www.horizonseniorhousing.com/senior-living-communities-wi-ia-il/senior-living-options-evansdale-ia/fox-meadow-senior-apartments-evansdale-ia;N/A;(319) 233-1795
ChIJ-4fzI0VV5YcRXneYFnOFj5c;NewAldaya Lifescapes;42.51163500000001/-92.449517;7511 University Ave, Cedar Falls, IA 50613, USA;city;Black Hawk County;50613;Iowa;3.5;http://www.newaldaya.org/;N/A;(319) 268-0401
ChIJremFRMFT5YcRqgvnbz1MPIs;Always Best Care Senior Services Waterloo;42.463766/-92.35757699999999;3336 Kimball Ave, Waterloo, IA 50702, USA;city;Black Hawk County;50702;Iowa;;https://www.alwaysbestcare.com/ia/cedar-valley/;N/A;(319) 826-4536
ChIJNUcjUedU5YcRmRj5ygnpA3E;Mallard Point;42.504461/-92.41478599999999;2603 Orchard Dr, Cedar Falls, IA 50613, USA;city;Black Hawk County;50613;Iowa;3.7;http://www.holidaytouch.com/our-communities/mallard-point?utm_source=Local&utm_medium=organic&utm_term=5185&utm_content=IL&utm_campaign=gmb;N/A;(319) 313-2491
ChIJB_bz4M9T5YcRYrr9dVI0u0Y;Lakeview Lodge;42.45855820000001/-92.35051159999999;312 Southbrooke Dr, Waterloo, IA 50702, USA;city;Black Hawk County;50702;Iowa;;http://www.friendshipvillageiowa.com/lakeview-lodge;N/A;(319) 291-1300
ChIJezk1XJRT5YcRGXuLkd_MQMQ;Rose of Waterloo;42.5053092/-92.34143899999999;421 Oak Ave, Waterloo, IA 50703, USA;city;Black Hawk County;50703;Iowa;;http://evergreenredc.com/roseofwaterloo.php;N/A;(319) 232-6061
ChIJ_dHrkrWq-ocR1_U9TCjO9hA;Western Home Communities - Downtown Campus;42.5290912/-92.44103579999999;420 E 11th St, Cedar Falls, IA 50613, USA;city;Black Hawk County;50613;Iowa;4.2;http://www.westernhomecommunities.org/;N/A;(319) 277-2141
ChIJq-Bp3oNW5YcRRk4B3Tc3eps;Harmony House Health Care Center;42.44326969999999/-92.4148501;2950 W Shaulis Rd, Waterloo, IA 50701, USA;city;Black Hawk County;50701;Iowa;;http://www.abcmcorp.com/;N/A;(319) 234-4495
ChIJHZD03fIz5YcR7pCGBfjVAIo;Winding Creek Meadows;42.4722394/-92.05978899999999;1044 9th St, Jesup, IA 50648, USA;city;Perry;50648;Buchanan County;5;http://www.windingcreekmeadows.com/;N/A;(319) 827-1052
ChIJW7fbQ3RV5YcR-YjxlU_WINw;Windridge Retirement Community;42.4906284/-92.4417972;5311 Hyacinth Dr, Cedar Falls, IA 50613, USA;city;Black Hawk County;50613;Iowa;4.7;http://www.westernhomecommunities.org/;N/A;(319) 277-2141
ChIJ07bNsNBS5YcRfovTWSETlxY;Roosevelt Senior Housing;42.5188569/-92.33586;200 E Arlington St # 100, Waterloo, IA 50703, USA;city;Waterloo;50703;Black Hawk County;;N/A;N/A;(319) 235-4352
ChIJDZS9SmGs-ocRSSHy8ruRqeM;Country View Care Center;42.571656/-92.36542999999999;1410 W Dunkerton Rd, Waterloo, IA 50703, USA;city;Mt Vernon;50703;Black Hawk County;1;http://www.countryviewcc.com/;N/A;(319) 291-2509
ChIJLYjO1b5T5YcR0rfSfXnWEz8;Northeast Iowa Area Agency on Aging;42.4703867/-92.35534779999999;2101 Kimball Ave #320, Waterloo, IA 50702, USA;city;Waterloo;50702;Black Hawk County;5;http://www.nei3a.org/;N/A;(866) 468-7887
ChIJ1x-JoXZV5YcRzOSnRACJd8Y;Windcove;42.4902166/-92.4442863;5300 S Main St, Cedar Falls, IA 50613, USA;city;Black Hawk County;50613;Iowa;;http://www.westernhomecommunities.org/;N/A;(319) 277-2141
ChIJN2X2GJVU5YcRpIMV2ub10eo;Village Cooperative;42.50424309999999/-92.3998036;914 Bluegrass Circle,, Cedar Falls, IA 50613, USA;city;US;50613;50613;3;http://www.villagecooperative.com/;N/A;(319) 277-1533
ChIJzV3ljgxV5YcRMi5N9fDd7mo;South Cottage, Western Home Communities;42.49157659999999/-92.43858779999999;5127, Caraway Ln, Cedar Falls, IA 50613, USA;city;IA;50613;United States;;http://www.westernhomecommunities.org/;N/A;(319) 277-2141
ChIJVa5GK8PO-ocRUTCYQPu6_Cg;Parkview Assisted Living;42.6402445/-92.0502743;114 Forest St, Fairbank, IA 50629, USA;city;Fairbank;50629;Buchanan County;5;http://parkview-assisted-living.business.site/;N/A;(319) 635-2585
ChIJ8QCiijJS5YcRvvyb6tlN-0M;Exceptional Persons Inc;42.459634/-92.3394409;3845 Paige Dr, Waterloo, IA 50702, USA;city;Black Hawk County;50702;Iowa;;https://www.episervice.org/;N/A;(319) 232-5699
ChIJU8ursaUJ8IcRHuWAq8eBQtU;Bartels Lutheran Retirement Community;42.7312512/-92.49318699999999;1922 5th Ave NW, Waverly, IA 50677, USA;city;Bremer County;50677;Iowa;;http://www.bartelscommunity.org/;N/A;(319) 352-4540
ChIJ3wCblLWq-ocR5Q7cxqIAhAY;Willowwood;42.5286673/-92.44161299999999;1100 Grove St, Cedar Falls, IA 50613, USA;city;Black Hawk County;50613;Iowa;;N/A;N/A;(319) 277-2141
ChIJO6tQf3FV5YcRSpkfD--NNd4;Windermere Retirement Community;42.492448/-92.44451620000001;5018 S Main St, Cedar Falls, IA 50613, USA;city;Black Hawk County;50613;Iowa;4;N/A;N/A;(319) 266-5764
ChIJ2YTDRLAJ8IcRZE2jYj7IE1E;Waverly Senior Housing;42.7278952/-92.48832729999999;320 15th St NW, Waverly, IA 50677, USA;city;Bremer County;50677;Iowa;;N/A;N/A;(319) 352-3394
ChIJe_RxG-0W5YcRYf0v-VQ6StQ;Windsor Manor Assisted Living Community;42.166705/-92.04519599999999;1807 W 5th St, Vinton, IA 52349, USA;city;Benton County;52349;Iowa;4;http://www.windsor-manor.com/;N/A;(319) 472-2060
ChIJdZzqHClS5YcRYJqaSJems4M;Rosewood Estate;42.451907/-92.33471399999999;1117 Maxhelen Blvd, Waterloo, IA 50701, USA;city;Black Hawk County;50701;Iowa;4.2;http://www.friendshipvillageiowa.com/rosewood;N/A;(319) 233-5555
ChIJoYDbyydS5YcRBWQk9yfl44M;Landmark Commons;42.4508592/-92.3285011;1400 Maxhelen Blvd, Waterloo, IA 50701, USA;city;Black Hawk County;50701;Iowa;5;http://www.friendshipvillageiowa.com/landmark-commons-1;N/A;(319) 296-7100
ChIJYxh_Tlop5YcRhUAMA8xVs98;Prairie Hills at Independence;42.4501854/-91.898026;505 Enterprise Dr SW, Independence, IA 50644, USA;city;IA;50644;United States;;https://www.symericasl.com/communities/prairie-hills-independence/;N/A;(319) 334-2000
ChIJXVTPwcxT5YcRqAXdI3qZGLo;Ravenwood Specialty Care;42.4618941/-92.34300089999999;2651 St Francis Dr, Waterloo, IA 50702, USA;city;Black Hawk County;50702;Iowa;3;http://www.careinitiatives.org/ravenwood-specialty-care/;N/A;(319) 232-6808
ChIJu5H7Y3FV5YcRN2h3kiob5V0;Windcrest Villas;42.491698/-92.4437667;5118 S Main St, Cedar Falls, IA 50613, USA;city;Black Hawk County;50613;Iowa;;http://www.westernhomecommunities.org/independent-living;N/A;(319) 277-2141
ChIJ0cfIK79T5YcRDvNzoB6EmSU;Retired & Sr Volunteer Program;42.4703867/-92.35534779999999;2101 Kimball Ave # 121, Waterloo, IA 50702, USA;city;Waterloo;50702;Black Hawk County;;N/A;N/A;(319) 272-2250
ChIJKRJFschT5YcRPnLKDVCy-uA;Friendship Village;42.4624899/-92.3504758;600 Park Ln, Waterloo, IA 50702, USA;city;Black Hawk County;50702;Iowa;4;http://www.friendshipvillageiowa.com/;N/A;(319) 291-8100
ChIJEZ5Nb6UJ8IcRgubg0qDuqrk;Bartels Assisted Living Apartments;42.7301075/-92.4932254;1802 5th Ave NW, Waverly, IA 50677, USA;city;Bremer County;50677;Iowa;;N/A;N/A;(319) 352-8851
ChIJgw42p8tT5YcRnHqX9xBQU-g;Black Hawk-Grundy Mental Health: Tate Terri T;42.4640263/-92.3446019;3251 W 9th St, Waterloo, IA 50702, USA;city;Black Hawk County;50702;Iowa;;https://www.unitypoint.org/waterloo/mental-health.aspx;N/A;(319) 234-2893
ChIJn4eDnJXQ-ocRXf37VcR9O9s;Arlington Place of Oelwein Assisted Living & Memory Care;42.6751982/-91.9310002;1101 3rd St SW, Oelwein, IA 50662, USA;city;Jefferson;50662;Fayette County;3;http://www.arlingtonplaceliving.com/;N/A;(319) 283-3334
ChIJb5xTt80r5YcR11iPgMDeX5Q;Oak View Retirement Community at Buchanan County Health Center;42.469199/-91.873778;1616 1st St E, Independence, IA 50644, USA;city;Washington;50644;Buchanan County;;http://www.bchealth.org/;N/A;(319) 332-0940
ChIJ20YCgAMP8IcRoV-45cfWn3A;Meadows;42.7130604/-92.5718191;528 N Kelly St, Shell Rock, IA 50670, USA;city;Shell Rock;50670;Butler County;5;http://locations.twdcc.com/The-Meadows-of-Shell-Rock;N/A;(319) 885-4341
ChIJna8iZudU5YcR82K5FYBGZ8g;Comfort Care Medicare, Inc.;42.505361/-92.414267;2616 Orchard Dr, Cedar Falls, IA 50613, USA;city;Black Hawk County;50613;Iowa;4;http://www.comfortcareia.com/;N/A;(319) 277-1936
ChIJyd8Cjp1U5YcREgqPQ1PqGh4;Black Hawk Center For Independent;42.5002039/-92.38197;2800 Falls Ave, Waterloo, IA 50701, USA;city;Black Hawk County;50701;Iowa;;http://www.ivrs.iowa.gov/clients/iowacentersforindependentliving.html;N/A;(319) 291-7755
ChIJLRFIPuNS5YcRrEvEHISTLxQ;Cedar River Tower;42.498907/-92.33837700000001;106 E 3rd St, Waterloo, IA 50703, USA;city;Black Hawk County;50703;Iowa;2;http://www.seldin.com/cedarrivertower;N/A;(319) 234-0652
ChIJEcwE5iut-ocRaxPowVZEvDA;NorthCrest Specialty Care;42.5299111/-92.3418085;2001 Heath St, Waterloo, IA 50703, USA;city;Black Hawk County;50703;Iowa;3.7;http://www.careinitiatives.org/northcrestnursingandrehabcenter/;N/A;(319) 234-4423
ChIJfaxhhORS5YcR_DkFAtYCL9w;Regional Transit Commission;42.499798/-92.33658;229 E Park Ave, Waterloo, IA 50703, USA;city;Black Hawk County;50703;Iowa;;http://www.inrcog.org/rtc.htm;N/A;(319) 233-5213
ChIJV1saqcMh8IcRSYWWWhEbJj4;Parker Place Retirement Community;42.5704867/-92.7853274;707 IA-57, Parkersburg, IA 50665, USA;city;Albion;50665;Butler County;;http://www.parkerplaceretirement.com/;N/A;(319) 346-9771
ChIJBV97h8wr5YcRtHVN5NyDzTI;ABCM Rehab of Independence;42.4714843/-91.8730779;1700 3rd St NE, Independence, IA 50644, USA;city;Washington;50644;Buchanan County;5;http://www.abcmcorp.com/;N/A;(319) 334-7015
ChIJAY4hcpZU5YcR6im4JqRepYk;Black Hawk County YMCA;42.504796/-92.395977;669 S Hackett Rd, Waterloo, IA 50701, USA;city;Black Hawk County;50701;Iowa;2.9;http://www.blackhawkymca.org/;N/A;(319) 233-3531
ChIJ-wvSwdYJ8IcR4UY333s2oS4;Dettmer House;42.72655069999999/-92.464162;124 5th St NE, Waverly, IA 50677, USA;city;Bremer County;50677;Iowa;;N/A;N/A;(319) 352-3975
ChIJU_YgRv1S5YcRFZVOVW65_pQ;Community Foundation of Northeast Iowa;42.499024/-92.40846999999999;3117 Greenhill Cir, Cedar Falls, IA 50613, USA;city;Black Hawk County;50613;Iowa;5;http://www.cfneia.org/;N/A;(319) 287-9106
ChIJHflvgUjy5IcRWYrbN-ep2bE;Bickford of Marion;42.03752240000001/-91.57644449999999;1100 Linden Dr, Marion, IA 52302, USA;city;Marion;52302;Linn County;;http://www.enrichinghappiness.com/branch/bickford-of-marion;N/A;(319) 373-7000
ChIJf9l6Ke1G5YcRhgMBQj2mcsk;La Porte City Specialty Care;42.321266/-92.203656;1100 US-218, La Porte City, IA 50651, USA;city;Big Creek;50651;Black Hawk County;;http://www.careinitiatives.org/;N/A;(319) 342-2125
ChIJC9-yzi3b7YcRsej6mODZRgU;Courtyard Terrace Assisted;42.05961480000001/-93.90197599999999;717 W 3rd St, Boone, IA 50036, USA;city;Des Moines;50036;Boone County;;http://www.iowaoeshome.com/;N/A;(515) 433-4406
ChIJZ3hc4STb7YcR04fwzpSV2aU;Westhaven Community;42.060213/-93.89385279999999;112 W 4th St, Boone, IA 50036, USA;city;Des Moines;50036;Boone County;2.7;http://www.efreechurchhome.org/;N/A;(515) 432-1393
ChIJ05yxzi3b7YcR3pVLNaTeZUQ;Hearth Stone Memory Care Unit;42.05965459999999/-93.89871979999999;715 W Mamie Eisenhower Ave, Boone, IA 50036, USA;city;Des Moines;50036;Boone County;4;http://www.iowaoeshome.com/;N/A;(515) 432-1669
ChIJ05yxzi3b7YcRDZGSjEFoHpU;Eastern Star Masonic Home;42.059859/-93.8997421;715 W Mamie Eisenhower Ave, Boone, IA 50036, USA;city;Des Moines;50036;Boone County;4.3;http://www.iowaoeshome.com/;N/A;(515) 432-5274
ChIJaRhVWBHb7YcR4mgkyQ4_Evc;Boone Senior Citizens Center;42.0672672/-93.8798826;1112 Story St, Boone, IA 50036, USA;city;Des Moines;50036;Boone County;;N/A;N/A;(515) 432-3792
ChIJ4Wecgu_a7YcRG-_ZYOlLcn8;Regency Retirement Residence;42.04411390000001/-93.8778734;1110 S Marshall St, Boone, IA 50036, USA;city;Des Moines;50036;Boone County;;http://booneregency.com/;N/A;(515) 432-9463
ChIJpfMTd-lw7ocRiJ9sYMlpvHs;Bickford Senior Living;42.04627719999999/-93.63943499999999;2418 Kent Ave, Ames, IA 50010, USA;city;Ames;50010;Franklin;5;http://www.enrichinghappiness.com/branch/bickford-of-ames;N/A;(515) 233-6000
ChIJURZrQ6PU7YcR3o7zUX6dLns;The Cedars Assisted Living;41.8844252/-93.81681669999999;600 N Kennedy Ave, Madrid, IA 50156, USA;city;Douglas;50156;Boone County;5;http://www.madridhome.com/en/assisted_living/the_cedars/;N/A;(515) 795-4097
ChIJuZ3t7_ra7YcRP9U3-xbZ5oI;Boone Park Apartments;42.0444754/-93.87387179999999;1127 S Linn St, Boone, IA 50036, USA;city;Des Moines;50036;Boone County;;http://booneparkapartments.tlpropertiesiowa.com/;N/A;(877) 932-1539
ChIJCc9LVmDT7YcRVay_M6S4E4g;Madrid Home;41.8786752/-93.82768519999999;613 W North St, Madrid, IA 50156, USA;city;Douglas;50156;Boone County;2.7;http://www.madridhome.com/;N/A;(515) 795-3007
ChIJBaK2hnPb7YcRjGg9Di7oISs;Cedar Crossing Apartments;42.0764915/-93.870896;2003 Cedar St, Boone, IA 50036, USA;city;Des Moines;50036;Boone County;;http://cedarcrossingapartments.tlpropertiesiowa.com/;N/A;(877) 229-3870
ChIJX7hnKz567ocR76KAkdFNzpc;Green Hills Retirement Community;42.00276100000001/-93.64614899999999;2200 Hamilton Dr, Ames, IA 50014, USA;city;Washington;50014;Story County;3.3;http://www.greenhillsrc.com/;N/A;(515) 357-5000
ChIJR4LP9B197ocRbex5BRFwQCE;Madrid Home Community;41.902427/-93.60793;908 US-69, Huxley, IA 50124, USA;city;Palestine;50124;Story County;;http://www.madridhome.com/;N/A;(515) 597-2555
ChIJu3RnUexw7ocRS6xAU7AHJvg;Senior Living;42.04344200000001/-93.63479199999999;1801 20th St, Ames, IA 50010, USA;city;Franklin;50010;Story County;;http://seniorlivingames.com/;N/A;(515) 232-6760
ChIJA8IO9-Ta7YcRrsXII2AJ0uo;Briarwood Apartments;42.0452251/-93.8769975;1026 Hancock Dr, Boone, IA 50036, USA;city;Des Moines;50036;Boone County;;http://www.booneiowaapartments.com/;N/A;(515) 432-3901
ChIJny1GIjgI8YcRHsEfBBBD_b4;Country Meadow Place;43.1459898/-93.28854419999999;17396 Kingbird Ave, Mason City, IA 50401, USA;city;Lake;50401;Cerro Gordo County;;http://countrymeadowplace.com/;N/A;(641) 423-7722
ChIJiWI-nMAH8YcRoXUJnvoG4LQ;Homestead of Mason City;43.1518287/-93.2385434;2501 W State St, Mason City, IA 50401, USA;city;Cerro Gordo County;50401;Iowa;5;http://www.midwest-health.com/mason-city;N/A;(641) 423-4809
ChIJ-QsSiVYH8YcRWcxBE0PGN8c;Kentucky Ridge;43.1328139/-93.18241100000002;2060 S Kentucky Ave, Mason City, IA 50401, USA;city;Cerro Gordo County;50401;Iowa;4;http://goodshepherdhealthcenter.org/kentucky-ridge;N/A;(641) 423-5707
ChIJA6qMfD4H8YcRnp2eCzqqBpM;Cornerstone Assisted Living;43.1538551/-93.19597039999999;300 2nd St NE, Mason City, IA 50401, USA;city;Cerro Gordo County;50401;Iowa;;http://goodshepherdhealthcenter.org/cornerstone;N/A;(641) 424-1740
ChIJdU0b0j0H8YcRxKIIgqxPVyg;Good Shepherd Health Center;43.1541044/-93.1951814;302 2nd St NE, Mason City, IA 50401, USA;city;Cerro Gordo County;50401;Iowa;4.2;http://www.goodshepherdhealthcenter.org/;N/A;(641) 424-1740
ChIJvYTEzmWg8YcRGEi7LboAiLk;Apple Valley Assisted Living;43.1114308/-93.3871292;405 27 Ave S, Clear Lake, IA 50428, USA;city;Cerro Gordo County;50428;Iowa;;http://www.pickapplevalley.com/clear-lake-.html;N/A;(641) 357-7083
ChIJm7Q1Ue0K8YcRkMZs1hZkqoo;The Courtyard Independent and Assisted Living;43.1441148/-93.392501;401 10th Ave N, Clear Lake, IA 50428, USA;city;Cerro Gordo County;50428;Iowa;;http://www.abcmcorp.com/facility.php?id=26;N/A;(641) 357-1648
ChIJ7Qe0H8cH8YcRzfFwxQpjR_o;Village Cooperative of Mason City;43.15433319999999/-93.23916109999999;275 N Taft Ave, Mason City, IA 50401, USA;city;Cerro Gordo County;50401;Iowa;;http://www.villagecooperative.com/mason-city-ia;N/A;(641) 423-5840
ChIJcxWxcq348IcR8CqJGFAe9OI;Nora Springs Care Center;43.1433775/-93.0173976;907 W Congress St, Nora Springs, IA 50458, USA;city;Rock Grove;50458;Floyd County;5;http://www.abcmcorp.com/;N/A;(641) 749-5331
ChIJPwy24rAA8YcRB3TjFu_MkGg;Pilgrim Place Apartments;43.1436599/-93.170361;741 S Illinois Ave, Mason City, IA 50401, USA;city;Cerro Gordo County;50401;Iowa;4.5;http://www.rhf.org/location/pilgrim-place/;N/A;(641) 423-1215
ChIJ1_lwsnUH8YcRP-KgSBepn2A;Grant Village;43.14597699999999/-93.215839;823 6th St SW, Mason City, IA 50401, USA;city;Cerro Gordo County;50401;Iowa;;http://www.homzmanagement.com/property/grant-village/;N/A;(641) 424-1973
ChIJ7bnYcbUE8YcRabS9oe3SqqE;Circle Terrace Lodge;43.282906/-93.19641;155 Circle Terrace, Manly, IA 50456, USA;city;Lincoln;50456;Worth County;;http://www.careinitiatives.org/manly-specialty-care;N/A;(641) 454-3329
ChIJ8fkrwbQE8YcRpRmTDJKCY4A;Manly Specialty Care;43.28398769999999/-93.19622989999999;601 E South St, Manly, IA 50456, USA;city;Lincoln;50456;Worth County;;http://www.careinitiatives.org/manly-specialty-care;N/A;(641) 454-2223
ChIJN4JD_H4H8YcRJMZEz76-6kc;Three Links Apartments;43.132502/-93.215418;1033 19th St SW, Mason City, IA 50401, USA;city;Cerro Gordo County;50401;Iowa;;N/A;N/A;(641) 423-5495
ChIJY_ow2IEH8YcR1feF9-hn7rs;IOOF Home and Community Therapy Center;43.13267/-93.218273;1037 19th St SW, Mason City, IA 50401, USA;city;Cerro Gordo County;50401;Iowa;;http://www.ioofhome.com/;N/A;(641) 423-0428
ChIJwfolBksH8YcRMYtvAk1o5qc;Heritage Care and Rehabilitation Center;43.14701699999999/-93.180278;501 S Kentucky Ave, Mason City, IA 50401, USA;city;Cerro Gordo County;50401;Iowa;1;http://www.abcmcorp.com/;N/A;(641) 423-2121
ChIJ0XVKNcy28YcRlbH-6icSHGM;Deerfield Place Assisted Living;42.8938515/-93.2054892;505 E Gilman St, Sheffield, IA 50475, USA;city;Franklin County;50475;Iowa;;http://www.deerfieldplace.org/;N/A;(641) 892-8080
ChIJAyw1TT4H8YcRsBYyEqMSHTE;Cerro Gordo County Department of Public Health;43.152256/-93.1966702;22 N Georgia Ave, Mason City, IA 50401, USA;city;Cerro Gordo County;50401;Iowa;;http://www.cghealth.com/;N/A;(641) 421-9300
ChIJJ_3ZIq348IcRUZD34e9_OJo;Summit Heights;43.142909/-93.0164583;8 S Summit Ave # 9, Nora Springs, IA 50458, USA;city;Nora Springs;50458;Rock Grove;;http://abcmcorp.com/nora-springs-facility-49.html;N/A;(641) 749-2411
ChIJ07HMxD8H8YcR3hsllSYwr4k;North Iowa Housing Authority;43.151155/-93.197423;202 1st St SE #203, Mason City, IA 50401, USA;city;Mason City;50401;Cerro Gordo County;2.8;http://www.nirha.com/;N/A;(641) 423-0897
ChIJD13kNnIH8YcRIQ9bvvDydmA;North Iowa Area Council of Gov;43.14535799999999/-93.21016499999999;525 6th St SW, Mason City, IA 50401, USA;city;Cerro Gordo County;50401;Iowa;5;N/A;N/A;(641) 423-0491
ChIJCc_1K5MK8YcRHi2CvfRQP2Q;Oakwood Care Center;43.14371/-93.392118;400 US-18, Clear Lake, IA 50428, USA;city;Cerro Gordo County;50428;Iowa;5;http://abcmcorp.com/clear-lake-facility-23.html;N/A;(641) 357-5244
ChIJIdfgRfQK8YcR762V-g_JrFc;The Meadows;43.14755/-93.38242649999999;625 14th Ave N, Clear Lake, IA 50428, USA;city;Cerro Gordo County;50428;Iowa;2;N/A;N/A;(641) 357-8888
ChIJyUiJ5Sx78YcRoAFeYRKt1z8;Forest Plaza Assisted Living;43.2721488/-93.62785330000001;635 Iowa 9 E, Forest City, IA 50436, USA;city;IA;50436;United States;;http://www.forestplaza.biz/;N/A;(641) 585-1555
ChIJJSKd0g6u8YcRsu9ZpQDmluE;Rockwell Community Nursing Home;42.988107/-93.1831;707 Elm St E, Rockwell, IA 50469, USA;city;Geneseo;50469;Cerro Gordo County;5;http://www.rockwellnursinghome.com/;N/A;(641) 822-3203
ChIJh2pwyT0H8YcRXRrviBQO-i8;Shalom Tower 2;43.1554548/-93.19589929999999;321 4th St NE, Mason City, IA 50401, USA;city;Cerro Gordo County;50401;Iowa;;http://goodshepherdhealthcenter.org/shalom-tower-ii;N/A;N/A
ChIJdf4FbusH8YcRZ3AWPzPTjq4;North Iowa Community Action Organization;43.144395/-93.24009799999999;1190 Briarstone Dr #2, Mason City, IA 50401, USA;city;Mason City;50401;Cerro Gordo County;4.8;http://www.nicao-online.org/;N/A;(641) 423-7766
ChIJXbOPFu-C8YcR8NwPdbBl87U;Concord Care Center;43.0904815/-93.60804549999999;490 W Lyons St, Garner, IA 50438, USA;city;Concord;50438;Hancock County;3.7;http://www.abcmcorp.com/;N/A;(641) 923-2677
ChIJ_-U_3GEK8YcR2_dqUvhpcck;Garden Park Village;43.1405947/-93.37811280000001;809 7th Ave N, Clear Lake, IA 50428, USA;city;Cerro Gordo County;50428;Iowa;5;http://gardenparkvillage.net/;N/A;(641) 420-0878
ChIJzw6uLBjR8IcRQpOaNj4ALj4;Primrose Retirement Community of Austin;43.64555879999999/-92.9953105;1701 22nd Ave SW, Austin, MN 55912, USA;city;Mower County;55912;Minnesota;5;http://www.primroseretirement.com/austin-minnesota-senior-care-communities/;N/A;(507) 396-4960
ChIJJ2GhWe3y8IcRZpTS2o_kwaE;Evergreen Senior Living;43.27506280000001/-92.8076444;925 Heritage Dr, Osage, IA 50461, USA;city;Osage;50461;Mitchell County;;http://www.faithlutheranhomeosage.com/home.php?sid=17;N/A;(641) 732-3300
ChIJm1_o4mwH8YcRh7Mnx-u9PE0;North Iowa Community Action;43.1531275/-93.20308320000001;100 1st St NW, Mason City, IA 50401, USA;city;Cerro Gordo County;50401;Iowa;1;https://www.nicao-online.org/;N/A;(641) 423-8993
ChIJl0LxZaKN8YcR1m8LcJe_hUM;Belle Haven Assisted Living;42.8529692/-93.602413;815 Luick's Ln N, Belmond, IA 50421, USA;city;Pleasant;50421;Wright County;;http://www.abcmcorp.com/;N/A;(641) 444-4580
ChIJz3KKpEYr8ocRQON7lMwiM9g;Summit House Assisted Living;43.0982519/-93.80918459999999;600 1st St NW, Britt, IA 50423, USA;city;Britt;50423;Hancock County;5;http://www.summithousebritt.com/;N/A;(641) 843-3333
ChIJxXCPA2IK8YcRnydcN3CmoLI;Central Gardens of North Iowa;43.139823/-93.37826099999999;800 2nd Ave N, Clear Lake, IA 50428, USA;city;Cerro Gordo County;50428;Iowa;4.8;http://www.centralgardensnorthiowa.com/;N/A;(641) 357-0700
ChIJE2hC9RQH8YcRXMGFevrN6KQ;Mason City Chamber of Commerce;43.152185/-93.20069099999999;9 N Federal Ave, Mason City, IA 50401, USA;city;Cerro Gordo County;50401;Iowa;5;http://www.masoncityia.com/;N/A;(641) 423-5724
ChIJn0mJmRYH8YcRbu8BSXLsTDM;Manor;43.154778/-93.20152400000001;4 3rd St NW, Mason City, IA 50401, USA;city;Cerro Gordo County;50401;Iowa;;http://goodshepherdhealthcenter.org/the-manor;N/A;(641) 424-6261
ChIJKeOSSKKN8YcRLXVplLe90mI;Belmond Health Care Center;42.85250180000001/-93.60349149999999;1107 7th St NE, Belmond, IA 50421, USA;city;Pleasant;50421;Wright County;1;http://www.abcmcorp.com/;N/A;(641) 444-3915
ChIJQUFuiKvO8YcRq7AOJjB1-EM;Franklin Prairie Apartments;42.7385475/-93.1829094;1724 Central Ave E, Hampton, IA 50441, USA;city;Franklin County;50441;Iowa;;http://www.abcmcorp.com/;N/A;(641) 456-4692
ChIJL7Y89sdp8YcRbWm_kuRjbJY;Mills Harbour Assisted Living;43.41019929999999/-93.5298468;311 S 10th Ave E, Lake Mills, IA 50450, USA;city;Center;50450;Winnebago County;;http://www.abcmcorp.com/;N/A;(641) 592-3050
ChIJjYPOGatj4ocRgcDqPPz6JNI;Eagle Point Health Care Center;41.877789/-90.18977769999999;801 28th Ave N, Clinton, IA 52732, USA;city;Clinton County;52732;Iowa;4;http://www.eaglepointhealthcarecenter.com/;N/A;(563) 243-6600
ChIJTQOGrxVL4ocRejTU9bGphe0;Grand Haven Retirement Community;41.65682569999999/-90.5806461;201 E Franklin St, Eldridge, IA 52748, USA;city;Sheridan;52748;Scott County;5;http://www.grandhavenretirement.com/;N/A;(563) 285-4900
ChIJqdaJ0pdj4ocRS3tin4V2a0E;Alverno Health Care Facility;41.85850069999999/-90.2046148;849 13th Ave N, Clinton, IA 52732, USA;city;Clinton County;52732;Iowa;4.7;http://www.thealverno.com/;N/A;(563) 242-1521
ChIJXQoB9Zhm4ocR7Z1kn6zqDsE;ASAC Hightower Place;41.8187015/-90.23134340000001;2727 S 19th St, Clinton, IA 52732, USA;city;Clinton County;52732;Iowa;;http://www.asac.us/;N/A;(563) 242-2042
ChIJKwFgDm867IcRXkzn_mKFTNw;Spurgeon Manor;41.679747/-93.95890999999999;1204 Linden St, Dallas Center, IA 50063, USA;city;Adel;50063;Dallas County;4;http://www.spurgeonmanor.com/;N/A;(515) 992-3735
