Facility ID;Facility Name;Location (lat/lon);Address;city;county;Zip;state;rating(google);Website;Contact email;Contact Phone
ChIJR0PgPS8h7IcR6020NL8jB4M;Woodlands Creek Senior Living;41.61026499999999/-93.79043;12605 Woodlands Pkwy, Clive, IA 50325, USA;city;Walnut;50325;Polk County;5;https://www.woodlandscreek.com/;N/A;(515) 223-9755
ChIJU_7j-3Uw74cRkZAu2rS_P5A;Pella Manor, A Hearthstone-WesleyLife Community;41.404167/-92.91297299999999;608 E 2nd St, Pella, IA 50219, USA;city;Lake Prairie;50219;Marion County;;https://www.wesleylife.org/;N/A;(641) 628-1244
ChIJ-yfrTjmR7ocRuDT0fqKKL6o;Baker Creek Senior Living;41.641651/-93.52476100000001;4560 Hubbell Ave, Des Moines, IA 50317, USA;city;Delaware;50317;Polk County;;https://www.anawimhousing.org/;N/A;(515) 564-6561
ChIJccVbnN4c74cRZ5xqHKjo62I;Park Centre, A Wesleylife Community;41.7032317/-93.0530071;500 1st St N, Newton, IA 50208, USA;city;Newton;50208;Jasper County;4.5;https://www.wesleylife.org/;N/A;(641) 791-5000
ChIJ_T1S-6Se7ocRSTvRKTvSYR8;Calvin Community;41.614464/-93.675578;4210 Hickman Rd, Des Moines, IA 50310, USA;city;Des Moines;50310;Des Moines;4;http://www.calvincommunity.org/;N/A;(515) 277-6141
ChIJiSsjfX-d7ocRh2r54s_0BmQ;WesleyLife;41.66026/-93.7405098;5508 NW 88th St, Johnston, IA 50131, USA;city;Webster;50131;Polk County;;http://www.wesleylife.org/;N/A;(515) 271-6789
ChIJDYuBVfyc7ocRV_wlVtBZORk;Martina Place Assisted Living;41.668889/-93.70019959999999;5815 Winwood Dr, Johnston, IA 50131, USA;city;Webster;50131;Polk County;;http://www.bishopdrumm.org/;N/A;(515) 251-7999
ChIJQY5yqySU7ocRWM5eBWjwmZ8;Courtyard Estates at Cedar Pointe;41.601901/-93.490291;6132 NE 12th Ave, Pleasant Hill, IA 50327, USA;city;Clay;50327;Polk County;4.2;http://www.courtyard-estates.net/;N/A;(515) 285-9108
ChIJmyfQ5Pyc7ocRMxg-lBqMpmY;Bishop Drumm Retirement Center;41.669571/-93.699927;5837 Winwood Dr, Johnston, IA 50131, USA;city;Webster;50131;Polk County;4.7;http://www.bishopdrumm.org/;N/A;(515) 270-1100
ChIJcZNTI4yE7ocRMDMretANHxI;Journey Senior Living of Ankeny;41.7362072/-93.64666919999999;3602 NW 5th St, Ankeny, IA 50023, USA;city;Crocker;50023;Polk County;4;http://www.jsl-a.com/;N/A;(515) 612-7655
ChIJ-YAQIE2c7ocRFMGR0fru5Jg;Bickford Senior Living;41.648995/-93.701672;5915 Sutton Pl, Urbandale, IA 50322, USA;city;Webster;50322;Polk County;5;http://www.enrichinghappiness.com/branch/bickford-of-urbandale;N/A;(515) 331-3000
ChIJgx1L2PSP7ocRhlCnp3uAWP0;Mill Pond;41.724362/-93.57851099999999;1201 SE Mill Pond Ct, Ankeny, IA 50021, USA;city;Douglas;50021;Polk County;4;http://www.mill-pond.org/;N/A;(515) 964-2273
ChIJozOZhhCw7ocRG9O2VxG2mQY;The Village, A WesleyLife Community;41.373214/-93.57073799999999;1203 N E St, Indianola, IA 50125, USA;city;Warren County;50125;Iowa;;https://www.wesleylife.org/;N/A;(515) 961-7458
ChIJp9Ok4OuW7ocRt0EEYV-DroQ;The Shores at Pleasant Hill;41.603261/-93.52477399999999;1500 Edgewater Dr, Pleasant Hill, IA 50327, USA;city;Delaware;50327;Polk County;5;http://www.theshoreslife.com/;N/A;(515) 262-4444
ChIJ08prmkWX7ocRHhXibaz92cs;Village Assisted Living;41.6139021/-93.56951520000001;2555 Guthrie Ave, Des Moines, IA 50317, USA;city;Des Moines;50317;Lee;;http://villageassistedliving.org/;N/A;(515) 299-1740
ChIJtWipZCCF7ocRqrJGCqDcIKk;Vintage Hills at Prairie Trail;41.71734669999999/-93.6190823;1275 SW State St, Ankeny, IA 50023, USA;city;Ankeny;50023;Crocker;4;http://vintagehillsankeny.watermarkcommunities.com/;N/A;(515) 412-3210
ChIJGbyONUG97ocRN3csSk91sYw;Prairie Hills at Des Moines;41.53075799999999/-93.56599799999999;5815 SE 27th St, Des Moines, IA 50320, USA;city;Des Moines;50320;Bloomfield;3.8;https://www.symericasl.com/communities/prairie-hills-des-moines/;N/A;(515) 256-9143
ChIJtd964_iw7ocRElERRzLEo8E;Windsor Manor;41.3537403/-93.5390546;608 S 15th St, Indianola, IA 50125, USA;city;Warren County;50125;Iowa;;https://www.windsor-manor.com/find-a-community/windsor-manor-indianola-ia/;N/A;(515) 961-8900
ChIJ6a7H5JCS7ocRQQ9gGv2wGG8;Courtyard Estates at Hawthorne Crossing;41.69708919999999/-93.44661069999999;601 Hawthorne Crossing Dr SE, Bondurant, IA 50035, USA;city;Franklin;50035;Polk County;3.7;http://www.courtyard-estates.net/;N/A;(515) 957-8399
ChIJ172ZV0-Z7ocRh70Qm8PG6hI;Ramsey Village Continuing Care;41.608973/-93.652822;1611 27th St, Des Moines, IA 50310, USA;city;Des Moines;50310;Des Moines;3.3;http://www.crmscommunities.com/senior_living/Des_Moines_IA/zip_50310/claremont_retirement_management_services/8954;N/A;(515) 809-0608
ChIJY-QkCI6d7ocR-jjxBmGOvkg;Senior Suites of Urbandale;41.64569650000001/-93.7342106;4700 84th St, Urbandale, IA 50322, USA;city;Webster;50322;Polk County;5;http://seniorsuitesofurbandale.com/;N/A;(515) 270-9700
ChIJXb9wYNae7ocRtmxTiPbdvt4;3801 Grand;41.5852428/-93.66850389999999;3801 Grand Ave, Des Moines, IA 50312, USA;city;Des Moines;50312;Des Moines;5;http://3801grand.com/;N/A;(515) 729-6801
ChIJtU3rNQGd7ocRMnXGZbOl-jQ;Edencrest at Green Meadows;41.66648829999999/-93.71159990000001;6750 Corporate Dr, Johnston, IA 50131, USA;city;Webster;50131;Polk County;3;http://edencrestliving.com/;N/A;(515) 207-1984
ChIJgcOcIQqZ7ocRBT2RLUhS2y0;Mercy Senior Services and Housing;41.598885/-93.62347149999999;1111 6th Ave, Des Moines, IA 50314, USA;city;Des Moines;50314;Des Moines;;http://www.mercydesmoines.org/comm_resources/senior.cfm;N/A;(515) 284-1227
ChIJBQVSe46Z7ocRv99EWp4slxQ;Union Park Health Services;41.616725/-93.60719999999999;2401 E 8th St, Des Moines, IA 50316, USA;city;Des Moines;50316;Lee;4.5;https://www.fivestarseniorliving.com/communities/ia/des-moines/union-park-health-services;N/A;(515) 262-9303
ChIJpZ8_DWuw7ocRASfyE9vhF6E;Vintage Hills of Indianola;41.38118120000001/-93.55278629999999;604 E Hillcrest Ave, Indianola, IA 50125, USA;city;Warren County;50125;Iowa;;http://vintagehillsindianola.watermarkcommunities.com/;N/A;(515) 412-3211
ChIJs0F5qfCX7ocRka2cQ23EcdM;Edencrest at Riverwoods;41.5557014/-93.575773;2210 E Park Ave, Des Moines, IA 50320, USA;city;Lee;50320;Polk County;5;http://edencrestliving.com/;N/A;(515) 288-4040
ChIJ0Qsxjd4c74cR1vg6dFnrWgs;Newton Village;41.70404000000001/-93.05431799999999;110 N 5th Ave W, Newton, IA 50208, USA;city;Newton;50208;Jasper County;5;http://newtonvillage.org/;N/A;(641) 792-0115
ChIJE4GYHn-U7ocRfOZxsUObFXs;Prairie Vista Village;41.626699/-93.46343299999999;2785 1st Ave S, Altoona, IA 50009, USA;city;Clay;50009;Polk County;5;http://www.prairievistavillage.com/;N/A;(515) 967-8700
ChIJH4psewie7ocRFrkZgK833bk;The Reserve On Walnut Creek;41.61849429999999/-93.7322617;2727 82nd Pl, Urbandale, IA 50322, USA;city;Walnut;50322;Polk County;3.3;http://www.reserveurbandale.com/;N/A;(515) 727-5927
ChIJuR-inQiZ7ocRqLQT6yI8Hv0;Mercy Senior Services & Housing;41.594166/-93.625125;921 6th Ave, Des Moines, IA 50309, USA;city;Des Moines;50309;Polk County;;http://www.mercydesmoines.org/;N/A;(515) 643-5900
ChIJySJdvVie7ocRmjy3Tdy5paY;Windsor Place Senior Apartments;41.5952858/-93.7036061;6300 School St, Windsor Heights, IA 50324, USA;city;Windsor Heights;50324;Walnut;;N/A;N/A;(515) 221-1200
ChIJrXmeIK9X7IcRIEEBU0vZazg;Lakeside Village;41.7087871/-94.3633973;2067 IA-4, Panora, IA 50216, USA;city;Cass;50216;Guthrie County;;http://www.thelakesidevillage.com/;N/A;(641) 755-3443
ChIJozcf5aee7ocRoueYGYOd8X4;Beaver & Adams Senior Apartments;41.62176399999999/-93.67295799999999;2929 Beaver Ave, Des Moines, IA 50310, USA;city;Des Moines;50310;Des Moines;2;N/A;N/A;(515) 221-1200
ChIJTzcDKkmw7ocRsnq7oywsWIg;Good Samaritan Society - Indianola;41.3539121/-93.5572536;708 S Jefferson Way, Indianola, IA 50125, USA;city;Warren County;50125;Iowa;4.8;https://www.good-sam.com/locations/indianola;N/A;(515) 961-2596
ChIJq6qqqpqi7ocRJYEJQ7E_pW0;Fort Des Moines Senior Housing;41.526931/-93.6207938;505 Army Post Rd, Des Moines, IA 50315, USA;city;Bloomfield;50315;Polk County;5;http://www.seniorhousingdm.com/;N/A;(515) 285-8505
ChIJq5PcPMdK7IcRsoAnJ4eVT54;Spring Valley Retirement Community;41.832898/-94.09245199999999;501 12th St, Perry, IA 50220, USA;city;Spring Valley;50220;Dallas County;5;N/A;N/A;(515) 465-7500
ChIJ2R1piuo674cRGp3oj91PW0k;The Cottages;41.4279587/-92.91449900000001;1742 Main St, Pella, IA 50219, USA;city;Lake Prairie;50219;Marion County;5;https://www.wesleylife.org/living-options/hearthstone-pella/;N/A;(641) 628-1244
ChIJrZwlC0CZ7ocRqAx9_uCX3SU;Rose of Des Moines;41.60372399999999/-93.64329900000001;1330 19th St, Des Moines, IA 50314, USA;city;Des Moines;50314;Des Moines;5;http://evergreenredc.com/roseofdesmoines.php;N/A;(515) 244-3300
ChIJTxpmAzie7ocRdrCiDKeXsK4;Heritage Court Assisted Living;41.5912136/-93.7237392;1499 Office Park Rd, West Des Moines, IA 50265, USA;city;Walnut;50265;Polk County;;https://fountainwest.com/heritage-court/;N/A;(515) 223-1224
ChIJA4NaJRpy74cRWomT9xnKN_0;St Francis Manor & Seeland Park;41.7440819/-92.7056032;2021 4th Ave, Grinnell, IA 50112, USA;city;Poweshiek County;50112;Iowa;5;http://www.stfrancismanor.com/;N/A;(641) 236-7592
ChIJv3VBaWOi7ocR202aLIPQYW8;Genesis Senior Living Center;41.5330861/-93.62641459999999;5608 SW 9th St, Des Moines, IA 50315, USA;city;Des Moines;50315;Bloomfield;3.5;http://www.mgmhealthcare.com/genesis-care-center;N/A;(515) 285-3070
ChIJ9x-Wl5nx6IcRoPFnQwo8c8Q;Continental At St Joseph's Inc;40.7540395/-92.85887;19999 Old Hwy 5, Centerville, IA 52544, USA;city;Vermillion;52544;Appanoose County;5;N/A;N/A;(641) 437-1999
ChIJFZevzLMN7IcRw59MdkIXOlA;Madison Square Assisted Living;41.335511/-94.01587699999999;209 W Jefferson St, Winterset, IA 50273, USA;city;Madison County;50273;Iowa;2;http://qhcmcares.com/our-communities/winterset-madison-square/;N/A;(515) 462-5087
ChIJAX9xKXpy74cRFZyuS6XxDLU;Windsor Manor;41.7343532/-92.7304355;229 Pearl St, Grinnell, IA 50112, USA;city;Poweshiek County;50112;Iowa;;http://windsor-manor.com/;N/A;(641) 236-8700
ChIJfzMTn3Dx6IcRse3sTjr7JZQ;Maple Grove Senior Living;40.7144789/-92.867994;1917 S 18th St, Centerville, IA 52544, USA;city;Appanoose County;52544;Iowa;;http://www.goldenagecarecenter.com/;N/A;(641) 856-6601
ChIJmaI8X_2d7ocR73sGi4OlI_w;Glen Oaks Alzheimer's Special Care Center;41.6207405/-93.733524;8525 Urbandale Ave, Urbandale, IA 50322, USA;city;Walnut;50322;Polk County;4.1;https://www.jeaseniorliving.com/senior-living/ia/urbandale/glen-oaks-alzheimers-special-care-center/;N/A;(515) 612-7536
ChIJbemUD2qh7ocRL9eLIunrJU0;Regency Assisted Living;41.483166/-93.678236;815 High Rd, Norwalk, IA 50211, USA;city;Linn;50211;Warren County;5;N/A;N/A;(515) 981-4576
ChIJX_3mDr6i7ocRNqjGz16H660;Southridge Senior Residences;41.5297537/-93.6008708;1120 Cummins Rd, Des Moines, IA 50315, USA;city;Des Moines;50315;Bloomfield;4;http://www.nfcompanies.com/pacificmgt/residential_ia_southridge.html;N/A;(515) 287-4422
ChIJhWhgmhic7ocRhMhuVCuXZ98;Beaverdale Estates;41.6289021/-93.6819065;4610 Douglas Ave, Des Moines, IA 50310, USA;city;Des Moines;50310;Des Moines;4;http://www.holidaytouch.com/our-communities/beaverdale-estates;N/A;(515) 393-6955
ChIJpUKC7EWX7ocRyE3b2tjWB6Y;Valley View Village;41.61345549999999/-93.5685684;2555 Guthrie Ave, Des Moines, IA 50317, USA;city;Des Moines;50317;Lee;5;http://www.valleyviewvillage.org/;N/A;(515) 265-2571
ChIJ5flO4JSi7ocRLCWAzlZLTSc;Southridge Senior Lofts;41.5251819/-93.6041487;695 E Army Post Rd, Des Moines, IA 50315, USA;city;Bloomfield;50315;Polk County;5;https://www.yournextplacetolive.com/senior-living/southridge-senior-lofts/;N/A;(515) 200-5061
ChIJ4XaFDtWe7ocR-pfnod15SEg;Wesley Acres;41.583555/-93.66493819999999;3520 Grand Ave, Des Moines, IA 50312, USA;city;Des Moines;50312;Des Moines;3.6;http://www.wesleylife.org/wesley-acres-des-moines.aspx;N/A;(515) 271-6500
ChIJjW54uC6Z7ocR79TSHlmLk8o;Scottish Rite Park;41.5880574/-93.65650269999999;2909 Woodland Ave, Des Moines, IA 50312, USA;city;Des Moines;50312;Des Moines;4.4;http://scottishritepark.com/;N/A;(515) 274-4614
ChIJkUnibOOT7ocRKhyq5m7u5SE;Meadow Vista Senior Villas;41.6384414/-93.4958989;1806 28th Ave SW, Altoona, IA 50009, USA;city;Clay;50009;Polk County;;https://yournextplacetolive.com/senior-living/meadow-vista-senior-villas/;N/A;(515) 967-6878
ChIJE3b9q66Z7ocRf4JJoxNVdjE;Lifespace Communities;41.5987386/-93.7624258;4201 Corporate Dr, West Des Moines, IA 50266, USA;city;Walnut;50266;Polk County;5;http://www.lifespacecommunities.com/;N/A;(515) 288-5805
ChIJeTgdIuie7ocR-RAG_kAUFxA;Iowa Jewish Senior Life Center;41.593539/-93.68293;900 Polk Blvd, Des Moines, IA 50312, USA;city;Des Moines;50312;Des Moines;5;http://www.seniorlifecenter.org/;N/A;(515) 255-5433
ChIJTa6TZeOd7ocRQxuCzMcHdBM;Illahee Hills;41.6249754/-93.73183829999999;8308 Colby Pkwy, Urbandale, IA 50322, USA;city;Webster;50322;Polk County;2.9;http://www.holidaytouch.com/our-communities/illahee-hills;N/A;(515) 619-5915
ChIJTf8RrE2e7ocRbhZF3CGUjbc;Crestview Terrace Apartments;41.584129/-93.71515599999999;916 Ashworth Rd, West Des Moines, IA 50265, USA;city;Walnut;50265;Polk County;;http://www.chihousing.com/;N/A;(515) 223-0029
ChIJt4jUxq2Z7ocRY0_q7vNvGN0;Iowa Assisted Living Association;41.58814590000001/-93.6124408;321 E Walnut St, Des Moines, IA 50309, USA;city;Des Moines;50309;Lee;;N/A;N/A;N/A
ChIJ5UOpahyc7ocRyaP_jqP0IOY;Edencrest at Beaverdale;41.62611729999999/-93.6762449;3410 Beaver Ave, Des Moines, IA 50310, USA;city;Des Moines;50310;Des Moines;;http://www.edencrestliving.com/;N/A;(515) 777-5105
ChIJz4wwS8CZ7ocR2zyf-Xz7X-w;Rose of East Des Moines;41.60328800000001/-93.598596;1331 Idaho St, Des Moines, IA 50316, USA;city;Des Moines;50316;Lee;5;http://www.evergreenredc.com/roseofeastdesmoines.php;N/A;(515) 883-1000
ChIJJxRbC9Of7ocR_l4IDqf3NOE;Fairmeadows Village;41.5783218/-93.7371084;2625 Vine St, West Des Moines, IA 50265, USA;city;Walnut;50265;Polk County;;http://fairmeadowsvillage.net/;N/A;(515) 222-4469
ChIJYe9Yx0aY7ocRKLTGlzDeQR8;Southview Senior Housing;41.5713915/-93.60566829999999;1900 SE 6th St, Des Moines, IA 50315, USA;city;Des Moines;50315;Lee;;N/A;N/A;(515) 528-2422
ChIJn83E3ReZ7ocRfHDM05uFW-I;Wesleylife Community Services;41.59486760000001/-93.64166419999999;944 18th St, Des Moines, IA 50314, USA;city;Des Moines;50314;Des Moines;;https://www.wesleylife.org/;N/A;(515) 288-3334
ChIJdw1r5vaZ7ocRW8-CFhupZHM;Gardens;41.62145879999999/-93.5944755;2910 E 16th St, Des Moines, IA 50316, USA;city;Des Moines;50316;Lee;;N/A;N/A;(515) 265-1887
ChIJN-KHRjie7ocRoevkx40DrwY;Fountain West Health Care Center;41.59242/-93.724942;1501 Office Park Rd, West Des Moines, IA 50265, USA;city;Walnut;50265;Polk County;5;http://fountainwest.com/;N/A;(515) 223-1223
ChIJ6x_eLUye7ocRcc4r7DRu3Kk;Lodge of Ashworth;41.585623/-93.71588799999999;909 Ashworth Rd, West Des Moines, IA 50265, USA;city;Walnut;50265;Polk County;5;http://lodgeofashworth.com/;N/A;(515) 224-4824
ChIJCSJPe0CZ7ocRDB6B2ta_n64;Anawim Housing;41.5997467/-93.62628319999999;1171 7th St #1, Des Moines, IA 50314, USA;city;New Visions;50314;Des Moines;5;https://www.anawimhousing.org/;N/A;(515) 244-8308
ChIJrSKG7dme7ocRpws3KuQ1glM;Plymouth Place;41.586928/-93.67353700000001;4111 Ingersoll Ave, Des Moines, IA 50312, USA;city;Des Moines;50312;Des Moines;;http://www.newburyliving.com/properties/plymouth-place-2/;N/A;(515) 274-0438
ChIJHUY3igCZ7ocRRdnUVbqo6qQ;LCS;41.5867092/-93.62234029999999;400 Locust St #820, Des Moines, IA 50309, USA;city;Downtown Des Moines;50309;Des Moines;2.6;http://www.lcsnet.com/;N/A;(515) 875-4500
ChIJIevCoPaZ7ocRRRLoLvWYyuM;Luther Park Apartments;41.62137659999999/-93.5955975;2824 E 16th St # Office, Des Moines, IA 50316, USA;city;Des Moines;50316;Lee;3.3;https://www.lutherparkcommunity.org/;N/A;(515) 262-1153
ChIJT91vIMkt44cR0NSXSfuw-Tw;The Woodlands Senior Apartments;42.48607719999999/-90.72237980000001;3460 Starlite Dr, Dubuque, IA 52003, USA;city;Dubuque County;52003;Iowa;;http://www.horizonseniorhousing.com/senior-living-communities-wi-ia-il/senior-living-options-dubuque-ia/woodlands-senior-apartments-dubuque-ia;N/A;(563) 582-9818
ChIJYUq_sKIt44cRUmd0y-vp6Kg;Sunset Park Place Retirement Community;42.50011/-90.73343799999999;3730 Pennsylvania Ave, Dubuque, IA 52002, USA;city;Dubuque County;52002;Iowa;5;http://www.sunsetparkplace.net/;N/A;(563) 583-7939
ChIJMaKkVRIt44cRJTHe0B8HVzo;Eagle Pointe Place;42.5214809/-90.7316323;2700 Matthew John Dr, Dubuque, IA 52002, USA;city;Dubuque County;52002;Iowa;5;http://www.enlivant.com/communities/iowa/eagle-pointe-place-dubuque;N/A;(563) 362-3444
ChIJT-c8e70t44cRzjjDN2WdQRo;Oak Park Place Dubuque;42.4968432/-90.734459;1381 Oak Park Pl, Dubuque, IA 52002, USA;city;Dubuque County;52002;Iowa;;http://www.oakparkplace.com/;N/A;(563) 585-4900
ChIJYbO5U1wr44cRSNpa5zKFPPo;Stonehill Care Center;42.5321502/-90.6704857;3485 Windsor Ave, Dubuque, IA 52001, USA;city;Dubuque County;52001;Iowa;4.9;http://www.stonehilldbq.com/;N/A;(563) 557-7180
ChIJ36yuOK0t44cR8hGDF3Y48eA;Applewood I & II Senior Apartments;42.5009458/-90.7160229;3125 Pennsylvania Ave, Dubuque, IA 52001, USA;city;Dubuque County;52001;Iowa;;http://www.horizonseniorhousing.com/senior-living-communities-wi-ia-il/senior-living-options-dubuque-ia/applewood-senior-apartments-i-ii-dubuque-ia;N/A;(563) 588-3693
ChIJ70D7v7Qr44cRZ2oETdSxTXY;Bell Tower Retirement;42.494027/-90.64053229999999;430 Sidney St, East Dubuque, IL 61025, USA;city;Dunleith Township;61025;Jo Daviess County;4.7;http://www.belltowerseniorliving.com/;N/A;(815) 747-6701
ChIJN1ZpDHIr44cRXbnnrjQuoZU;Bethany Home Retirement Center;42.519357/-90.662319;1005 Lincoln Ave, Dubuque, IA 52001, USA;city;Dubuque County;52001;Iowa;5;http://bethanyhomedubuque.org/;N/A;(563) 556-5233
ChIJ_8l5S3ss44cRh2PB3jV2H94;Mt. Pleasant Home;42.5035651/-90.686965;1695 Mt Pleasant St, Dubuque, IA 52001, USA;city;Dubuque County;52001;Iowa;;http://www.mtpleasanthome.org/;N/A;(563) 582-4144
ChIJebZ7kMst44cR1Z8AbIXiFuI;The Rose of Dubuque;42.485291/-90.71963799999999;3390 Lake Ridge Dr, Dubuque, IA 52003, USA;city;Dubuque County;52003;Iowa;5;http://www.evergreenredc.com/;N/A;(563) 556-1977
ChIJR4UU-lwr44cRtfm1BP3sXfs;Assisi Village At Stonehill;42.53342600000001/-90.6707009;1001 Assisi Dr, Dubuque, IA 52001, USA;city;Dubuque County;52001;Iowa;;https://www.stonehilldbq.com/en/assisi_village/;N/A;(563) 583-8234
ChIJP3Ky3Ysr44cR_fNYpYB-cPw;ManorCare Health Services-Dubuque;42.4944922/-90.6738209;901 W 3rd St, Dubuque, IA 52001, USA;city;Dubuque County;52001;Iowa;4;http://www.manorcare.com/Dubuque;N/A;(563) 556-1161
ChIJP2qrwKQt44cRlWb8l5BMm0w;Dubuque Senior Apartments LP;42.5004978/-90.72833369999999;1401 Wingate Dr, Dubuque, IA 52002, USA;city;Dubuque County;52002;Iowa;;N/A;N/A;(563) 552-2271
ChIJjXpSIPwr44cRgVZE7kKTVn0;Seventh Heaven;42.4742348/-90.67278669999999;1321 Tomahawk Dr, Dubuque, IA 52003, USA;city;Dubuque County;52003;Iowa;;N/A;N/A;(563) 557-9110
ChIJpUH1dZos44cRWas52O6gUEY;Maplewood Community Living Home;42.52292999999999/-90.68679;400 Maplewood Ct, Dubuque, IA 52001, USA;city;Dubuque County;52001;Iowa;;N/A;N/A;(563) 582-0214
ChIJnSEOWast44cRe_uaQpRh014;Luther Manor Communities;42.50475619999999/-90.7162543;3131 Hillcrest Rd, Dubuque, IA 52001, USA;city;Dubuque County;52001;Iowa;3.2;http://luthermanor.com/;N/A;(563) 588-1413
ChIJ-yAJHvQr44cRAnYvHd0ymhs;Villa Raphael;42.4852533/-90.6734132;1155 Mt Loretta Ave, Dubuque, IA 52003, USA;city;Dubuque County;52003;Iowa;;https://www.dbqarch.org/about/priests/retired-priests/;N/A;(563) 588-2049
ChIJ_Wmazl4s44cR6fV9wpTZ1yY;Area Residential Care Inc;42.50592200000001/-90.701025;2085 Bunker Hill Rd, Dubuque, IA 52001, USA;city;Dubuque County;52001;Iowa;;http://www.arearesidentialcare.org/;N/A;(563) 582-4515
ChIJ35ftFFIs44cRcNDDio8JyAY;Area Residential Care Inc;42.50071800000001/-90.71160599999999;2951 Pennsylvania Ave, Dubuque, IA 52001, USA;city;Dubuque County;52001;Iowa;;http://www.arearesidentialcare.org/;N/A;(563) 582-2513
ChIJeYjt1oYy44cRZYEw_8w7M-g;Village Cooperative of Asbury;42.5135867/-90.75449159999999;5297 Grand Meadow Dr, Asbury, IA 52002, USA;city;Dubuque;52002;Dubuque County;;http://www.villagecooperative.com/asbury-ia;N/A;(563) 582-2544
ChIJtxdTZ49D44cRHG8-ldASRMM;River Bend Retirement Community;42.307734/-91.014793;813 Tyler St NE, Cascade, IA 52033, USA;city;Cascade;52033;Dubuque County;5;http://www.riverbendal.com/;N/A;(563) 852-5001
ChIJB3CEJfos44cRbObsNNJgFec;Care Initiatives;42.5148923/-90.70753379999999;2935 Kaufmann Ave, Dubuque, IA 52001, USA;city;Dubuque County;52001;Iowa;;http://www.careinitiatives.org/dubuque-specialty-care;N/A;(563) 556-0673
ChIJw7K-Ovos44cRW_EAxiCReV4;Dubuque Specialty Care;42.5149487/-90.70750749999999;2935 Kaufmann Ave, Dubuque, IA 52001, USA;city;Dubuque County;52001;Iowa;;http://www.careinitiatives.org/dubuque-specialty-care/;N/A;(563) 556-0673
ChIJ_dVVbEIr44cR6Q2ldTPkT7U;Hills & Dales;42.5302975/-90.6643634;1011 Davis St, Dubuque, IA 52001, USA;city;Dubuque County;52001;Iowa;5;http://www.hillsdales.org/;N/A;(563) 556-7878
ChIJ_WqPdF0r44cRFdxCZSsY0Ko;Windsor Park Retirement Apartments;42.530492/-90.669934;801 Davis St, Dubuque, IA 52001, USA;city;Dubuque County;52001;Iowa;4.3;http://www.windsorparkdbq.com/;N/A;(563) 582-0646
ChIJM8H79wYt44cR3XKN1QgxJlw;Tri-State Independent Blind;42.51254499999999/-90.722374;3333 Asbury Rd, Dubuque, IA 52002, USA;city;Dubuque County;52002;Iowa;4.1;http://www.tristateblind.org/;N/A;(563) 556-8746
ChIJ7zVqn-cr44cRkjz96Hx2c4c;Sisters of Charity-BVM-MT;42.4780939/-90.6593836;1100 Carmel Dr, Dubuque, IA 52003, USA;city;Dubuque County;52003;Iowa;4.8;http://bvmcong.org/;N/A;(563) 588-2351
ChIJ53C5rN8c74cRppgKP3C3GHc;Newton Place Apartments;41.7023805/-93.0551646;222 N 4th Ave W, Newton, IA 50208, USA;city;Newton;50208;Jasper County;5;https://yournextplacetolive.com/senior-living/newton-place-apartments/;N/A;(641) 792-0102
ChIJ0wNx-W2l74cRnxVyMFz35hw;Glenwood Place Assisted Living & Memory Care;42.0110712/-92.9233783;2907 S 6th St, Marshalltown, IA 50158, USA;city;Timber Creek;50158;Marshall County;5;http://www.glenwood-place.com/;N/A;(641) 752-8410
ChIJaxfn__yc7ocRH_iUOVoOd3E;McAuley Terrace Independent Living;41.6689739/-93.70033790000001;5921 S Winwood Dr # 1, Johnston, IA 50131, USA;city;Johnston;50131;Webster;;http://www.bishopdrumm.org/;N/A;(515) 270-6640
ChIJPaBthVWc7ocR_z7pRqQjsW0;Child Serve Center;41.660943/-93.699798;5900 Pioneer Pkwy, Johnston, IA 50131, USA;city;Webster;50131;Polk County;5;https://www.childserve.org/;N/A;(515) 270-2205
ChIJlfuHmqqd7ocRtBvYWlRBmD8;Johnston Dining Center;41.66070089999999/-93.7047676;6300 Pioneer Pkwy, Johnston, IA 50131, USA;city;Webster;50131;Polk County;;N/A;N/A;(515) 251-3707
ChIJT4mgzDac7ocRf7wFBsOOZkk;Ahepa 192 Apartments;41.6725915/-93.69974289999999;6190 NW 59th Ct, Johnston, IA 50131, USA;city;Webster;50131;Polk County;3;http://www.ahepamgmt.com/tag/ahepa-192-apartments/;N/A;(515) 276-6766
ChIJxy7Jqsua7ocRDaf0RtdIs2c;Edencrest at Siena Hills;41.701656/-93.604168;455 SW Ankeny Rd, Ankeny, IA 50023, USA;city;Crocker;50023;Polk County;;http://www.edencrestliving.com/;N/A;(515) 776-6325
ChIJeWOJY_2c7ocRfkzDoAjtBNw;Winwood Apartments;41.67028139999999/-93.703048;6031 Meadow Crest Dr, Johnston, IA 50131, USA;city;Webster;50131;Polk County;3.5;http://www.winwoodapartments.com/;N/A;(515) 270-0940
ChIJ5z8QukCE7ocRNSo7JJpqZbc;The Bridges at Ankeny;41.7597669/-93.630315;3510 NW Abilene Rd, Ankeny, IA 50023, USA;city;Crocker;50023;Polk County;5;http://www.thebridgesankeny.com/;N/A;(515) 963-9815
ChIJrS0jfX-d7ocR1O1TQTOPBUA;Wesley Retirement Services;41.660085/-93.7397799;5508 NW 88th St #120, Johnston, IA 50131, USA;city;Johnston;50131;Webster;;https://www.wesleylife.org/;N/A;(515) 271-6789
ChIJmxW_ADic7ocR_0JZLdpo-GM;Westchester Square Apartments;41.641625/-93.692499;5528 Meredith Dr, Des Moines, IA 50310, USA;city;Des Moines;50310;Webster;3;http://elevateliving.com/westchestersquare;N/A;(844) 298-4436
ChIJ16LU0OKc7ocRUCSi9y1MHqk;Residences at 62W;41.671865/-93.7006847;6000 NW 62nd Ave, Johnston, IA 50131, USA;city;Webster;50131;Polk County;4.3;http://www.62wliving.com/;N/A;(515) 985-7700
ChIJmyfQ5Pyc7ocRiFHE0_kxIiQ;Margery Court Alzheimer's Care;41.6696294/-93.6998622;5837 Winwood Dr, Johnston, IA 50131, USA;city;Webster;50131;Polk County;5;http://www.bishopdrumm.org/;N/A;(515) 270-1100
ChIJGUw-7I2d7ocR8Lv6qtKOcwg;Urbandale Healthcare Center;41.644652/-93.734072;4614 84th St, Urbandale, IA 50322, USA;city;Webster;50322;Polk County;4.2;http://www.urbandalehealthcare.com/;N/A;(515) 270-6838
ChIJJepzZdfX5ocRQdW-PgQwQhs;Kensington Fort Madison;40.62981479999999/-91.33735209999999;2210 Ave H, Fort Madison, IA 52627, USA;city;Madison;52627;Lee County;5;http://kensington-evergreen.com/senior-living-communities/fort-madison-ia/;N/A;(319) 372-4233
ChIJmxA_LA_Y5ocRfgrRg2v4LZQ;Sunnybrook at Ft. Madison;40.6322145/-91.3780221;5025 River Valley Rd, Fort Madison, IA 52627, USA;city;Jefferson;52627;Lee County;4;http://sunnybrookftmadison.com/;N/A;(319) 372-8611
ChIJx1TWM3Iy4YcRedOIi8e_ogc;Sunnybrook at Burlington;40.7963178/-91.16918339999999;5175 West Ave, Burlington, IA 52601, USA;city;Des Moines County;52601;Iowa;5;http://sunnybrookburlington.com/;N/A;(319) 752-0260
ChIJoe3ABwUy4YcR9UmbIB7w1lI;Bickford Senior Living;40.79884200000001/-91.1433512;3301 Sterling Dr, Burlington, IA 52601, USA;city;Des Moines County;52601;Iowa;;http://www.enrichinghappiness.com/branch/bickford-of-burlington;N/A;(319) 754-7500
ChIJgQP7oYP55IcRaAeIufAynsE;Ridgeview Assisted Living;41.9791947/-91.71143379999999;2975 F Ave NW, Cedar Rapids, IA 52405, USA;city;Linn County;52405;Iowa;;http://www.viewsseniorliving.com/index.cfm?nodeID=29247;N/A;(319) 294-9669
ChIJDdRnSmny5IcRRBk72nj_GFo;Summit Pointe Senior Living;42.05242969999999/-91.57299689999999;3505 English Glen Ave, Marion, IA 52302, USA;city;Marion;52302;Linn County;4.3;http://www.summitpointeseniorliving.com/;N/A;(319) 373-4242
ChIJJ9xO9Rvx5IcR1c5Ttd-XpU8;Garnett Place Retirement Community & Memory Care;42.014798/-91.631973;202 35th St Dr SE, Cedar Rapids, IA 52403, USA;city;Linn County;52403;Iowa;;http://garnettplace.net/;N/A;(319) 362-3630
ChIJvQXX9Bvx5IcRhEGxFMVsbx4;Senior Housing Management;42.0151936/-91.63230059999999;208 35th St Dr SE, Cedar Rapids, IA 52403, USA;city;Linn County;52403;Iowa;3;http://www.seniorhousingcompanies.com/;N/A;(800) 366-6716
ChIJwVNw4-3y5IcRGLpkF50JB0I;Marion Senior Living Community;42.043284/-91.549194;2501 IA-13, Marion, IA 52302, USA;city;Marion;52302;Linn County;;http://marionseniorliving.com/;N/A;(319) 373-8302
ChIJnfqMcbv25IcR-GyhRO4uDf4;Five Seasons Senior Housing;41.973761/-91.609999;1225 42nd St SE, Cedar Rapids, IA 52403, USA;city;Linn County;52403;Iowa;;http://www.homzmanagement.com/property/five-seasons/;N/A;(319) 399-1550
ChIJAdY2xITx5IcRz_9E6bLclq0;Angie McClure Elder Care Expert-The Views Senior Living Communities;42.033933/-91.607311;341 8th Ave, Marion, IA 52302, USA;city;Marion;52302;Linn County;;http://www.viewsseniorliving.com/;N/A;(319) 540-4787
ChIJyYMVFZ7x5IcREdi5tYN44kA;Village Ridge Assisted Living;42.02901500000001/-91.61409499999999;365 Marion Blvd, Marion, IA 52302, USA;city;Marion;52302;Linn County;5;http://www.marionvillages.com/;N/A;(319) 377-9808
ChIJr4GsqIP55IcRNI40v-90HT0;Meadowview Memory Care Village;41.979122/-91.71193799999999;3005 F Ave NW, Cedar Rapids, IA 52405, USA;city;Linn County;52405;Iowa;1;http://www.viewsseniorliving.com/;N/A;(319) 294-9669
ChIJGTw8kHzx5IcRpiSuUPjNHtA;Linn Manor Care Center;42.019705/-91.60269199999999;1140 Elim Dr, Marion, IA 52302, USA;city;Marion;52302;Linn County;4.2;http://www.linnmanor.org/;N/A;(319) 377-4611
ChIJa7nBldfw5IcRqgELQPa7zKE;Cottage Grove Place;41.9958922/-91.6363803;2115 1st Ave SE, Cedar Rapids, IA 52402, USA;city;Linn County;52402;Iowa;4;http://www.cottagegroveplace.com/;N/A;(319) 363-2420
ChIJgQP7oYP55IcRPN71II3swNo;Prairie Hills at Cedar Rapids;41.9791/-91.710707;2903 F Ave NW, Cedar Rapids, IA 52405, USA;city;Linn County;52405;Iowa;;https://www.symericasl.com/communities/prairie-hills-cedar-rapids/;N/A;(319) 390-7700
ChIJI5jZb57x5IcR_ppvJZ-QZrw;Village Place At Marion;42.029037/-91.61357;345 Marion Blvd, Marion, IA 52302, USA;city;Marion;52302;Linn County;;http://www.marionvillages.com/;N/A;(319) 377-9808
ChIJIygFL0Tw5IcRPgpMcgZEp5A;Keystone Cedars Assisted Living;42.040889/-91.64966579999999;6325 Rockwell Dr NE, Cedar Rapids, IA 52402, USA;city;Linn County;52402;Iowa;4;http://www.thekeystonesofcedarrapids.com/;N/A;(319) 393-9500
ChIJAcGmQueJ5IcRPTlO0iS0cpE;Cherry Ridge Independent and Assisted Living;41.9170033/-91.4247087;Mt Vernon, IA 52314, USA;city;IA;52314;United States;;http://www.abcmcorp.com/;N/A;(319) 895-8249
ChIJ5WbMl5z35IcRuF87ofBhyWQ;Mayvil;41.9431719/-91.664833;136 36th Ave SW, Cedar Rapids, IA 52404, USA;city;Cedar Rapids;52404;Linn County;5;http://www.mayvil.com/;N/A;(319) 362-6868
ChIJja-qXTj35IcRDlpkQRE2ayU;Irving Point;41.9749638/-91.65586119999999;910 7th St SE, Cedar Rapids, IA 52401, USA;city;Cedar Rapids;52401;Linn County;;http://www.burnshousing.com/properties/;N/A;(319) 294-5007
ChIJ7x838y_35IcRJvRNb8aNozY;Higley Mansion Care Center;41.9776699/-91.6455421;860 17th St SE, Cedar Rapids, IA 52403, USA;city;Cedar Rapids;52403;Linn County;;http://www.higleymansioncare.com/;N/A;(319) 364-6710
ChIJH5FNzgr55IcRNz83KV-RJR0;Evergreen Estates I, II, III;41.965911/-91.71667099999999;3410 12th Ave SW, Cedar Rapids, IA 52404, USA;city;Cedar Rapids;52404;Linn County;1;http://www.evergreenestates.biz/;N/A;(319) 396-3692
ChIJddRgIZT65IcRRnWfpaYPI4w;PROMISE HOUSE ASSISTED LIVING;42.0424891/-91.69093389999999;1320 Litchfield Dr, Hiawatha, IA 52233, USA;city;Monroe;52233;Linn County;;http://www.hiawathacarecenter.com/;N/A;N/A
ChIJ73QW6Rjw5IcRsKM3dTTERAE;Emery Place Assisted Living & Memory Care;42.0629448/-91.65913719999999;901 S Mentzer Rd, Robins, IA 52328, USA;city;Monroe;52328;Linn County;;http://www.emeryplaceliving.com/;N/A;(319) 536-0045
ChIJBVpKQJD55IcRDs5BGf5UNLY;Evergreen Estates III;41.97508000000001/-91.70393399999999;2204 Johnson Ave NW, Cedar Rapids, IA 52405, USA;city;Linn County;52405;Iowa;4.5;http://www.evergreenestates.biz/;N/A;(319) 363-8116
ChIJAbN-_Zbw5IcRHmGOfN-ZoX8;Homewatch CareGivers of Cedar Rapids;42.0096208/-91.6638995;3037 Center Point Rd NE #200, Cedar Rapids, IA 52402, USA;city;Cedar Rapids;52402;Linn County;;https://www.homewatchcaregivers.com/metro-cedar-rapids/cedar-rapids;N/A;(319) 364-2823
ChIJU4X9zfDw5IcRfC0dZGqu0z4;Discovery Living, Inc.;42.02129/-91.64888599999999;1015 Old Marion Rd NE, Cedar Rapids, IA 52402, USA;city;Cedar Rapids;52402;Linn County;;http://www.discoveryliving.org/;N/A;(319) 378-7470
ChIJu7-C9N2J5IcRd2cIC6J1DKI;Hallmark Care Center;41.9170088/-91.4238747;215 US-30, Mt Vernon, IA 52314, USA;city;Franklin;52314;Linn County;;http://abcmcorp.com/;N/A;(319) 895-8891
ChIJr3bcQRLx5IcRSlOwJMMAWrw;Park Setting Assisted Living;42.016017/-91.62123099999999;1470 Tama St SE, Marion, IA 52302, USA;city;Marion;52302;Linn County;;N/A;N/A;(319) 533-3194
ChIJ--FukZz35IcROeXsnEwNgvs;Brookdale Cedar Rapids;41.9432217/-91.66473359999999;136 36th Ave SW, Cedar Rapids, IA 52404, USA;city;Cedar Rapids;52404;Linn County;;https://www.brookdale.com/en/communities/brookdale-cedar-rapids.html;N/A;(712) 202-5219
ChIJBbGsmkXw5IcR1mHcDvwWxGM;Keystone Place-Blair's Ferry;42.03977899999999/-91.6475339;6126 Rockwell Dr NE, Cedar Rapids, IA 52402, USA;city;Linn County;52402;Iowa;5;N/A;N/A;(319) 393-7900
ChIJIWFG6hpn5IcRuQhxzrafm3s;Solon Assisted Living Village;41.8020909/-91.49040429999999;623 E 5th St, Solon, IA 52333, USA;city;Big Grove;52333;Johnson County;;http://solonretirementvillage.com/;N/A;(319) 624-5353
ChIJUXJDzhpn5IcRSQryWmXAPw8;Solon Nursing Care Center;41.8010853/-91.4899849;523 E 5th St, Solon, IA 52333, USA;city;Big Grove;52333;Johnson County;;http://solonretirementvillage.com/;N/A;(319) 624-3492
ChIJRzNjQ4L55IcRKb_G5DxDO5E;West Ridge Care Center;41.9795383/-91.7131723;3131 F Ave NW, Cedar Rapids, IA 52405, USA;city;Linn County;52405;Iowa;5;http://www.westridgecarecenter.com/;N/A;(319) 390-3367
ChIJaR7HElD35IcRjJmN36dyKWk;Community Housing Initiative;41.9776538/-91.66737959999999;210 2nd St SE # 200 , Cedar Rapids, IA 52401, Cedar Rapids, IA 52401, USA;city;US;52401;52401;;http://www.chihousing.com/;N/A;(319) 362-1020
ChIJ_0WPZPPx5IcRbHCOK8C52fw;Dickford Senior Living;42.048949/-91.60359099999999;2740 6th St, Marion, IA 52302, USA;city;Marion;52302;Linn County;;N/A;N/A;(319) 373-2144
ChIJT8WsiwPx5IcRD_wuo5aFv10;Assisted Living Partners;42.020653/-91.632515;4080 1st Ave NE #103, Cedar Rapids, IA 52402, USA;city;Cedar Rapids;52402;Linn County;;http://www.assistedlivingpartners.com/;N/A;(319) 364-2038
ChIJt40oi_b55IcRzO-6yxXTiEs;Arbor Place For Alzheimer's;41.9841869/-91.68877519999999;1140 K Ave NW, Cedar Rapids, IA 52405, USA;city;Cedar Rapids;52405;Linn County;5;http://methwick.org/;N/A;(319) 365-9171
ChIJEVg3x6bx5IcRAG4zElPOrEU;Hilltop Manor;42.03076799999999/-91.623526;439 Lindale Dr, Marion, IA 52302, USA;city;Marion;52302;Linn County;;http://www.homzmanagement.com/property/hilltop-manor/;N/A;(319) 373-8696
ChIJE6fvKbVr5IcR3PPkL3qhw-0;Legacy Active Retirement Community;41.64909839999999/-91.48162049999999;1020 S Scott Blvd, Iowa City, IA 52240, USA;city;Iowa City;52240;Johnson County;;https://www.legacypointeiowa.com/;N/A;(319) 341-0911
ChIJdXp-tSxq5IcRm9bv1JHSZe8;Bickford Senior Living;41.6652252/-91.4823274;3500 Lower West Branch Rd, Iowa City, IA 52245, USA;city;Iowa City;52245;Johnson County;2;http://www.enrichinghappiness.com/branch/bickford-of-iowa-city;N/A;(319) 351-3200
ChIJqe18cBDy5IcRXR5tfaBLnU8;Winslow House Care Center;42.0552588/-91.5893732;3456 Indian Creek Rd, Marion, IA 52302, USA;city;Marion;52302;Linn County;;http://www.winslowhousecarecenter.com/;N/A;(319) 377-8296
ChIJydIQXf4c5YcR-jhNx9KPH5A;Rock Ridge Residential Care;42.098912/-91.872787;401 Canton St NW, Shellsburg, IA 52332, USA;city;Benton County;52332;Iowa;5;http://www.assistedliving.com/iowa/shellsburg/rock-ridge-residential-care/;N/A;(319) 436-5570
ChIJ1cTGEERB5IcRXXGzKwTJnRk;Melrose Meadows Retirement Community;41.6559756/-91.58487860000001;350 Dublin Dr, Iowa City, IA 52246, USA;city;Iowa City;52246;Johnson County;5;http://www.melrosemeadows.com/;N/A;(319) 341-7893
ChIJuWhUKDT35IcRsSyKa9koWy8;Living Center East;41.98222940000001/-91.65369729999999;1220 5th Ave SE, Cedar Rapids, IA 52403, USA;city;Cedar Rapids;52403;Linn County;2;https://www.unitypoint.org/cedarrapids/services-living-centers.aspx;N/A;(319) 366-8701
ChIJixdyrET65IcR6HAm6Y29Om0;Iowa Elder Care Solutions;42.0158634/-91.7007124;4211 Glass Rd NE # 1, Cedar Rapids, IA 52402, USA;city;Cedar Rapids;52402;Linn County;;N/A;N/A;(319) 651-6680
ChIJl1kr-kdX5IcRt54DXOKcGus;Honey Creek Cottage;41.8381458/-91.695187;999 Swisher View Dr SW, Swisher, IA 52338, USA;city;Jefferson;52338;Johnson County;5;N/A;N/A;(319) 857-5551
ChIJCRta4Iq55YcREimmDIyJ3sI;Highland Ridge;41.67147900000001/-92.00281199999999;100 Village View Cir, Williamsburg, IA 52361, USA;city;Troy;52361;Iowa County;5;http://www.highlandridge.org/;N/A;(319) 668-3800
ChIJBUzjT17w5IcR3D62rKSk-Pk;Visiting Angels;42.029758/-91.654832;1221 Park Pl NE, Cedar Rapids, IA 52402, USA;city;Linn County;52402;Iowa;;http://www.visitingangels.com/cedarrapids/home?utm_source=gmb&utm_medium=organic&utm_campaign=local;N/A;(319) 320-2069
ChIJOTZtvPac5IcRvn3-stL0RB8;Pinicon Place;42.1065647/-91.2611613;1615 Breca Ridge Dr, Anamosa, IA 52205, USA;city;Fairview;52205;Jones County;3.7;http://www.enlivant.com/communities/iowa/pinicon-place-anamosa;N/A;(319) 409-6187
ChIJsb17DTb35IcR8roDxvKGuwk;United Way of East Central Iowa;41.974299/-91.66112;317 7th Ave SE #401, Cedar Rapids, IA 52401, USA;city;Oakhill Jackson;52401;Cedar Rapids;5;http://www.uweci.org/?utm_source=google_my_business&utm_medium=local_search&utm_content=GMB;N/A;(319) 398-5372
ChIJFx3PNZhE5IcRo4Tbyq9_E8c;Keystone Place at Forevergreen;41.7226079/-91.6191103;1275 W Forevergreen Rd, North Liberty, IA 52317, USA;city;Clear Creek;52317;Johnson County;5;http://keystoneplaceatforevergreensl.com/;N/A;(319) 459-1964
ChIJ9wEW5UHw5IcRZ2PR4bkG6d8;Legacy Manor Of Cedar Rapids;42.0429076/-91.6557081;1350 A'Hearn Dr NE, Cedar Rapids, IA 52402, USA;city;Linn County;52402;Iowa;4.3;http://legacymanorseniors.com/locations/;N/A;(319) 294-9374
ChIJD0Q-nD6s5YcRmcYL6NQBugg;Amana Retirement Community - Lakeview Village;41.801332/-91.895107;3012 F Dr, Amana, IA 52203, USA;city;Lenox;52203;Iowa County;;http://www.lakeviewvillage-amana.com/;N/A;(319) 622-6500
ChIJt40oi_b55IcR5NBsLsMURsQ;Meth-Wick Community;41.9860967/-91.6932319;1224 13th St NW, Cedar Rapids, IA 52405, USA;city;Linn County;52405;Iowa;4.2;http://www.methwick.org/;N/A;(319) 365-9171
ChIJy7dzjhRB5IcRvRsmySuOJ3Y;Walden Place;41.64853699999999/-91.575267;2423 Walden Rd, Iowa City, IA 52246, USA;city;Iowa City;52246;Johnson County;5;http://www.holidaytouch.com/our-communities/walden-place?utm_source=Local&utm_medium=organic&utm_term=5378&utm_content=IL&utm_campaign=gmb;N/A;(319) 774-4350
ChIJae0Z_TX35IcRpgpVbxkG_JM;St Lukes Living Center;41.98221220000001/-91.6560985;1050 4th Ave SE, Cedar Rapids, IA 52403, USA;city;Cedar Rapids;52403;Linn County;;http://crlivingcenters.com/;N/A;(319) 366-8714
ChIJSYhuRZT65IcREhBb9zTHOxI;Hiawatha Care Center;42.042808/-91.69236699999999;405 N 15th Ave, Hiawatha, IA 52233, USA;city;Monroe;52233;Linn County;5;http://www.hiawathacarecenter.com/;N/A;(319) 378-8583
ChIJDfedxzT35IcR9zOZ6MfLEvg;Commonwealth Senior Apartments;41.9867427/-91.6529924;1400 2nd Ave SE, Cedar Rapids, IA 52403, USA;city;Cedar Rapids;52403;Linn County;4.8;http://commonwealthseniorapts.com/;N/A;(319) 826-6772
ChIJi409vDf35IcRKaO405URvFc;Mercy Hallmar;41.979047/-91.656961;701 10th St SE, Cedar Rapids, IA 52403, USA;city;Cedar Rapids;52403;Linn County;4;http://www.mercycare.org/services/hallmar/;N/A;(319) 398-6241
ChIJB4K8557x5IcRRzDLRsy_Vzc;Blairs Ferry Senior Apartments;42.03093389999999/-91.61458909999999;830 Blairs Ferry Rd, Marion, IA 52302, USA;city;Marion;52302;Linn County;5;http://blairsferryapts.com/;N/A;(319) 826-3726
ChIJeZ5Tsiry5IcRsdfU4msr3QE;Oak Village;42.027689/-91.59764799999999;101 S 11th St, Marion, IA 52302, USA;city;Marion;52302;Linn County;1;http://www.nfcompanies.com/pacificmgt/residential_ia_oakvillage.html;N/A;(319) 377-1347
ChIJZaF2PdHw5IcRRhUgToK2i4w;ManorCare Health Services-Cedar Rapids;41.99397889999999/-91.643255;1940 1st Ave NE, Cedar Rapids, IA 52402, USA;city;Cedar Rapids;52402;Linn County;3;http://www.manorcare.com/CedarRapids;N/A;(319) 364-5151
ChIJ0TycKXP55IcRC0CidWbS6NM;Heritage Specialty Care;41.967/-91.7229;200 Clive Dr SW, Cedar Rapids, IA 52404, USA;city;Cedar Rapids;52404;Linn County;3.8;http://www.careinitiatives.org/heritage-specialty-care;N/A;(319) 396-7171
ChIJl2nqFRal74cRpix3hIHRChY;Bickford of Marshalltown;42.0200055/-92.91114499999999;101 Newcastle Rd, Marshalltown, IA 50158, USA;city;Timber Creek;50158;Marshall County;5;http://www.enrichinghappiness.com/branch/bickford-of-marshalltown;N/A;(641) 753-5700
ChIJ20lsrKi674cRIRu3Tk06u6E;The Embers Retirement Community;42.051038/-92.93341799999999;1211 W State St, Marshalltown, IA 50158, USA;city;Marshall;50158;Marshall County;3.5;http://www.trilogyembers.com/;N/A;(641) 754-7000
ChIJ7e4X3W2l74cRflo0EKIb_1Q;Village Cooperative of Marshalltown;42.0128463/-92.9220199;915 W Merle Hibbs Blvd, Marshalltown, IA 50158, USA;city;Timber Creek;50158;Marshall County;;http://www.villagecooperative.com/marshalltown-ia;N/A;(641) 752-4411
ChIJm0817RSl74cR-4oyYikKWYY;Accura HealthCare of Marshalltown;42.017199/-92.916443;2401 S 2nd St, Marshalltown, IA 50158, USA;city;Timber Creek;50158;Marshall County;;http://www.accura.healthcare/;N/A;(641) 752-1553
ChIJZTgfyxKl74cRGeGcj_Xmi1I;Southridge Specialty Care;42.0129142/-92.91750359999999;309 W Merle Hibbs Blvd, Marshalltown, IA 50158, USA;city;Timber Creek;50158;Marshall County;5;http://www.careinitiatives.org/southridge-specialty-care;N/A;(641) 752-4553
ChIJHenhU6a674cRPlg7FWFQfVE;Iowa Veterans Home;42.05478909999999/-92.93333;1301 Summit St, Marshalltown, IA 50158, USA;city;Marietta;50158;Marshall County;4.1;http://ivh.iowa.gov/;N/A;(641) 752-1501
ChIJm0Mo5TnH74cRHREFFcuAp_g;Oakview Nursing Home;42.2244948/-92.8681361;511 E Center St, Conrad, IA 50621, USA;city;Clay;50621;Grundy County;5;N/A;N/A;(641) 366-2212
ChIJtwJ7YSel74cR0WaOHTEJFRw;Grandview Heights Rehab And Healthcare;42.0293286/-92.897627;910 E Olive St, Marshalltown, IA 50158, USA;city;Timber Creek;50158;Marshall County;3;http://grandviewmarshalltown.com/;N/A;(641) 752-4581
ChIJZxgVxTnH74cRZNp_MNFxhCA;Oak Estates;42.22336249999999/-92.86838259999999;110 S Alice St, Conrad, IA 50621, USA;city;Clay;50621;Grundy County;;N/A;N/A;(641) 922-7100
ChIJg1ywpArw44cRhOE5rgCJStw;Bickford Senior Living;41.43682459999999/-91.0768664;2807 Cedar St, Muscatine, IA 52761, USA;city;Bloomington Township;52761;Muscatine County;1;http://www.enrichinghappiness.com/branch/bickford-of-muscatine;N/A;(563) 263-6600
ChIJp1-6LG3w44cREcvXPDc5qUs;Sunnybrook at Muscatine;41.44837/-91.077815;3515 Diana Queen Dr, Muscatine, IA 52761, USA;city;Bloomington Township;52761;Muscatine County;5;http://sunnybrookmuscatine.com/;N/A;(563) 263-5108
ChIJLWUq8lXl44cRoyMpPbH7GQs;Senior Resources Inc;41.4357712/-91.0546385;1808 Mulberry Ave, Muscatine, IA 52761, USA;city;Bloomington Township;52761;Muscatine County;4;http://www.muscatineseniorresources.com/;N/A;(563) 263-7292
ChIJD3zuNKj644cR-vAln-9t21w;All-American Care;41.435294/-91.065901;2002 Cedar St, Muscatine, IA 52761, USA;city;Bloomington Township;52761;Muscatine County;1.5;N/A;N/A;(563) 264-2023
ChIJD16wJGD644cRstaDHSTOFyk;Valley View Manor Assisted;41.4176213/-91.0975059;2423 Lutheran Dr, Muscatine, IA 52761, USA;city;Fruitland;52761;Muscatine County;;N/A;N/A;(563) 263-1245
ChIJH6-Sj4r644cRYiJYTBu1wNw;Lutheran Homes;41.4186702/-91.0964924;2421 Lutheran Dr, Muscatine, IA 52761, USA;city;Fruitland;52761;Muscatine County;4;http://lutheran-homes.org/;N/A;(563) 263-1241
ChIJtWGA8VXl44cRry1T2k993H8;Good Samaritan Society â€“ Services@Home;41.43590150000001/-91.0554162;1808 Mulberry Ave, Muscatine, IA 52761, USA;city;Bloomington Township;52761;Muscatine County;;http://www.good-sam.com/;N/A;(563) 263-0530
ChIJm6AGJG3w44cRdjYsJHSYeDg;Pinnacle Group Homes;41.4473262/-91.07896310000001;3500 Diana Queen Dr, Muscatine, IA 52761, USA;city;Bloomington Township;52761;Muscatine County;;http://pinnacle-group-homes.business.site/;N/A;(563) 554-3250
ChIJkzRpK27w44cR7aDDvJN3gZE;Premier Estates Of Muscatine;41.446424/-91.08486599999999;3440 Mulberry Ave, Muscatine, IA 52761, USA;city;Bloomington Township;52761;Muscatine County;3.4;http://trilliumhcg.com/;N/A;(563) 263-2194
ChIJMc9yckXl44cRPRcHNe-NcD4;Muscatine Tower;41.4245834/-91.047966;106 E 6th St, Muscatine, IA 52761, USA;city;Bloomington Township;52761;Muscatine County;;http://seldin.com/muscatine;N/A;(563) 263-9915
ChIJ1-3ioZu-7ocRqQfzY0aabtg;Carlisle Center For Assisted;41.49616109999999/-93.49403869999999;695 Cole St, Carlisle, IA 50047, USA;city;Allen;50047;Warren County;3;N/A;N/A;(515) 989-7022
ChIJl23S6qGT7ocRKE7EYVnw-us;From the Heart Senior Care;41.6443629/-93.4654444;105 8th St SW, Altoona, IA 50009, USA;city;Clay;50009;Polk County;;N/A;N/A;(515) 967-2366
ChIJX5XSWuuEk4cRv0gMRqGBk7M;Primrose Retirement Community of Council Bluffs;41.2749722/-95.8223685;1801 E Kanesville Blvd, Council Bluffs, IA 51503, USA;city;Garner;51503;Pottawattamie County;3.3;http://www.primroseretirement.com/council-bluffs-iowa-senior-care-communities/;N/A;(866) 212-2679
ChIJQTS5EnSDk4cRtjik4UOFKlU;Amelia Place;41.259889/-95.79772500000001;57 W Ferndale Dr, Council Bluffs, IA 51503, USA;city;Garner;51503;Pottawattamie County;3.3;http://www.enlivant.com/communities/iowa/amelia-place-council-bluffs;N/A;(712) 264-5672
ChIJRfCYBf6Fk4cRvbCPB8KsROs;The Heritage at Fox Run;41.21063400000001/-95.895729;3121 Macineery Dr, Council Bluffs, IA 51501, USA;city;Lewis;51501;Pottawattamie County;4.6;https://www.heritage-communities.com/senior-living/ia/council-bluffs/fox-run/;N/A;(712) 248-1289
ChIJv9HtV8eEk4cRNZjAV8YZmPA;Bethany Heights;41.2788169/-95.83820419999999;11 Elliott St, Council Bluffs, IA 51503, USA;city;Kane;51503;Pottawattamie County;;http://www.bethanylutheranhome.org/;N/A;(712) 328-8228
ChIJcxeaM-yDk4cRmzKulrLMicQ;Risen Son Christian Village;41.23059140000001/-95.8011642;3000 Risen Son Blvd, Council Bluffs, IA 51503, USA;city;Lewis;51503;Pottawattamie County;;http://www.risensonchristianvillage.org/;N/A;(712) 366-9655
ChIJzZzzj0CFk4cRd1McWfqoJRc;Hansen House;41.2743645/-95.8786688;2331 Nash Blvd, Council Bluffs, IA 51501, USA;city;Kane;51501;Pottawattamie County;5;http://hansenhouseassistedliving.com/;N/A;(712) 242-5734
ChIJl-1PXF6Dk4cRDVlr8WYtzqQ;The Rose of Council Bluffs;41.280044/-95.812692;2306 Sherwood Dr, Council Bluffs, IA 51503, USA;city;Garner;51503;Pottawattamie County;4;http://www.evergreenredc.com/;N/A;(712) 322-1000
ChIJ0VUvOKtCk4cRR0ePh6Npaqc;Oakland Manor Nursing Home;41.3166804/-95.38555919999999;737 US-6, Oakland, IA 51560, USA;city;Belknap;51560;Pottawattamie County;1;http://www.mgmhealthcare.com/oakland-manor;N/A;(712) 482-6403
ChIJVb-M75nyk4cRbPsgL_gD16o;Dial Retirement Communities;41.27092990000001/-96.09359889999999;11506 Nicholas St, Omaha, NE 68154, USA;city;Omaha;68154;Douglas County;3.7;http://www.dialretirementcommunities.com/;N/A;(402) 964-0099
ChIJFQb-5Q-Pk4cRF2qmBwo3J8E;St Joseph Tower Assisted Living;41.2388939/-95.92852959999999;2205 S 10th St, Omaha, NE 68108, USA;city;Omaha;68108;Douglas County;5;http://www.stjosephtower.com/;N/A;(402) 952-5000
ChIJP7HgtzS-k4cRrITAWUTEAKs;Autumn Pointe Assisted Living Services;41.459856/-96.024891;501 N 13th St, Fort Calhoun, NE 68023, USA;city;1;68023;Washington County;2.5;http://www.autumnpointene.com/;N/A;(402) 468-4700
ChIJhbjf-aM_k4cR2L1GBaUqqwI;Avoca Lodge;41.5030794/-95.33341349999999;610 York Rd, Avoca, IA 51521, USA;city;Knox;51521;Pottawattamie County;;http://www.careinitiatives.org/avoca-specialty-care;N/A;(712) 343-2400
ChIJS-8xYHyEk4cRBJKNGBaVWXE;Harmony Court;41.25228/-95.81977689999999;173 Bennett Ave, Council Bluffs, IA 51503, USA;city;Kane;51503;Pottawattamie County;;https://www.harmonycourt.com/;N/A;(712) 388-9000
ChIJvYh2gmyOk4cR6JJaBvoYjU8;Via Christe;41.26515209999999/-95.9678725;3636 California St, Omaha, NE 68131, USA;city;Omaha;68131;Douglas County;;http://www.viachriste.com/;N/A;(402) 551-5557
ChIJjZ3LtFeEk4cRq0mDm9nF_dg;Camelot Village;41.2512519/-95.8481173;1105 S 3rd St, Council Bluffs, IA 51503, USA;city;Kane;51503;Pottawattamie County;;http://www.rhf.org/;N/A;(712) 328-2525
ChIJB8lBtpSEk4cRBSStYkBbtwA;CountryHouse Residence;41.27775279999999/-95.8207084;1831 E Kanesville Blvd, Council Bluffs, IA 51503, USA;city;Garner;51503;Pottawattamie County;;http://countryhouse.net/memory-care-communities/council-bluffs-ia/;N/A;(712) 322-4100
ChIJv9HtV8eEk4cRqzH7_iXplIQ;Bethany Lutheran Home;41.27859900000001/-95.836591;7 Elliott St, Council Bluffs, IA 51503, USA;city;Kane;51503;Pottawattamie County;5;http://www.bethanylutheranhome.org/;N/A;(712) 328-9500
ChIJJR4l-0Ujk4cRxCS1ElLXrxs;Elm Crest Senior Living Community;41.6480616/-95.3253864;2104 12th St, Harlan, IA 51537, USA;city;Shelby County;51537;Iowa;4.4;http://elmcrest.net/;N/A;(712) 755-5174
ChIJEyl1DlKSk4cR1vjGECnQnm8;Immanuel Village;41.32026589999999/-96.015569;6803 N 68th Plaza, Omaha, NE 68152, USA;city;Omaha;68152;Douglas County;3;http://www.immanuelcommunities.com/;N/A;(402) 829-3220
ChIJV6O0Llnzk4cROLl8kwvEDfE;Fountain View Active Retirement Community;41.2031656/-96.0831312;5710 S 108 St, Omaha, NE 68137, USA;city;Omaha;68137;Douglas County;;http://fountainviewseniorliving.com/;N/A;(402) 596-9033
ChIJo0807P-Mk4cRcaiLqLcp2x4;Bickford of Omaha - Hickory;41.2428826/-96.0264371;7337 Hickory Dr, Omaha, NE 68124, USA;city;Omaha;68124;Douglas County;5;http://www.enrichinghappiness.com/branch/bickford-of-omaha-hickory;N/A;(402) 391-3000
ChIJJ9vpxaiNk4cRNZFdtq6ggrE;Aksarben Senior Living;41.2460644/-96.0216896;1330 S 70th St, Omaha, NE 68106, USA;city;Omaha;68106;Douglas County;4.4;http://www.aksarbenseniorliving.com/;N/A;(402) 810-9440
ChIJFSBzX1WMk4cRZXY3leBI_YM;Hickory Villa Assisted Living;41.2427372/-96.0255712;7315 Hickory St, Omaha, NE 68124, USA;city;Omaha;68124;Douglas County;5;http://www.hickoryvillane.com/;N/A;(402) 392-0767
ChIJafWOBheIk4cRKrBFJaHPnRE;Hillcrest Health Services;41.14069299999999/-95.91692399999999;1902 Harlan Dr Suite A, Bellevue, NE 68005, USA;city;Bellevue;68005;Bellevue;4;http://www.hillcresthealth.com/;N/A;(402) 682-4800
ChIJfW3tKyPsk4cRo7qc9XFdLo8;Ridgewood Senior Living Community;41.369649/-96.14743399999999;12301 N 149th Cir, Bennington, NE 68007, USA;city;Jefferson;68007;Douglas County;4.5;http://www.ridgewoodretirementcommunity.com/;N/A;(402) 884-7644
ChIJAyeKxFn2k4cRRz4MfFXbqT8;Oasis Senior Advisors Omaha;41.2483537/-96.0328092;7701 Pacific St Suite 103, Omaha, NE 68114, USA;city;South Central Omaha;68114;Omaha;;http://omaha.oasissenioradvisors.com/;N/A;(402) 669-9490
ChIJh1PbLaDyk4cRhDlacs2wFlE;Bickford Senior Living;41.278275/-96.0885459;11308 Blondo St, Omaha, NE 68164, USA;city;Omaha;68164;Douglas County;5;http://www.enrichinghappiness.com/branch/bickford-of-omaha-blondo;N/A;(402) 491-0400
ChIJsYZ9WkWNk4cRZnkxXfxl-20;Brighton Gardens of Omaha;41.27077200000001/-96.056928;9220 Western Ave, Omaha, NE 68114, USA;city;Omaha;68114;Douglas County;3.3;https://www.sunriseseniorliving.com/communities/brighton-gardens-of-omaha/overview.aspx;N/A;(402) 393-7313
ChIJCWhVI8iEk4cR6Eg5RgsgKN0;Midlands Living Center;41.286967/-95.83642999999999;2452 N Broadway, Council Bluffs, IA 51503, USA;city;Kane;51503;Pottawattamie County;4.5;http://www.midlandslivingcenter.com/;N/A;(712) 323-7135
ChIJm_VtBKaPk4cRjs64yZYOaoA;Assisted Living Guidance;41.2532057/-95.93001389999999;1023 Jones St, Omaha, NE 68102, USA;city;Omaha;68102;Douglas County;;N/A;N/A;N/A
ChIJh-U-KVKSk4cRi8vlQ3UKCRk;Alegent Health Immanuel Fontenelle Home;41.3215675/-96.01642009999999;6809 N 68th Plaza, Omaha, NE 68152, USA;city;Omaha;68152;Douglas County;4;http://www.immanuelcommunities.com/;N/A;(402) 572-2595
ChIJt2LyxxaIk4cRdEIhVwtqFF0;Harmony Court;41.1429093/-95.9157297;1802 Wall St, Bellevue, NE 68005, USA;city;Bellevue;68005;Sarpy County;3;http://harmonycourt.com/;N/A;(402) 291-4200
ChIJx8FCaxCOk4cRXxJ0nhtPumg;Golden Manor;41.275657/-95.97128500000001;3853 Decatur St, Omaha, NE 68111, USA;city;Omaha;68111;Douglas County;;http://www.goldenmanoromaha.com/;N/A;(402) 551-2484
ChIJUU2nZeWMk4cRoQQvjJziBvI;Senior Helpers;41.2333986/-96.03801799999999;8031 W Center Rd, Omaha, NE 68124, USA;city;Omaha;68124;Douglas County;;http://seniorhelpers.com/;N/A;(402) 991-6847
ChIJed1H8ZHyk4cRBv-XyChsXt0;Heritage Communities;41.2652974/-96.09878529999999;11717 Burt St # 102, Omaha, NE 68154, USA;city;West Omaha;68154;Omaha;;https://www.heritage-communities.com/;N/A;(402) 933-2561
ChIJo_Kvs1jpk4cRViFSluhqOPQ;Ridgewood Senior Living Community;41.3717991/-96.15363579999999;12221 N 149th Cir, Bennington, NE 68007, USA;city;Jefferson;68007;Douglas County;;http://www.ridgewoodretirementcommunity.com/;N/A;(402) 884-7644
ChIJETUEzkWIk4cRObhfgQ-TbTw;Richmont Village;41.1544573/-95.92806259999999;702 Fort Crook Rd S, Bellevue, NE 68005, USA;city;Bellevue;68005;Sarpy County;3;http://www.richmontseniorliving.com/;N/A;(402) 291-9800
ChIJJ9rvqmyKk4cRraDjolBKq6M;Hillcrest Country Estates;41.140616/-96.006185;6021 Grand Lodge Ave, Papillion, NE 68133, USA;city;Papillion Second II;68133;Sarpy County;3.3;http://www.hillcresthealth.com/locations/hillcrest-country-estates/;N/A;(402) 885-7007
ChIJi6cyslRdk4cRUk86sK0TufU;Oakland Heights;41.3159761/-95.38872130000001;409 Scenic Cir, Oakland, IA 51560, USA;city;Belknap;51560;Pottawattamie County;;N/A;N/A;(712) 482-3566
ChIJQTTc8ImSk4cR4LPT9BJxjKs;Skyline Assisted and Independent Living;41.2984488/-96.0272403;7350 Graceland Dr, Omaha, NE 68134, USA;city;Omaha;68134;Douglas County;3.8;http://skylinerc.com/;N/A;(402) 572-5750
ChIJQ35-g3GRk4cRcwHkc8Jmadg;Seven Oaks of Florence;41.3344239/-95.968317;3439 State St, Omaha, NE 68112, USA;city;Omaha;68112;Douglas County;4.5;N/A;N/A;(402) 451-4477
ChIJPXX20jA14ocRc3FtsfYD9Lk;Silvercrest Garner Farms;41.5730546/-90.59600329999999;1531 W 53rd St, Davenport, IA 52806, USA;city;Scott County;52806;Iowa;3.7;http://www.garnerfarms.com/;N/A;(563) 386-9196
ChIJN6vB6vs24ocRG4sFs_noSwU;Palmer Hills;41.5539555/-90.49368199999999;2617 Maplecrest Rd, Bettendorf, IA 52722, USA;city;Pleasant Valley;52722;Scott County;4.5;http://www.holidaytouch.com/our-communities/palmer-hills;N/A;(563) 607-5141
ChIJyXBIBEv8jYcReYlSkDMF30o;Joan L and Norm Waitt, Senior Apartments;42.47540650000001/-96.362954;3500 Peters Ave, Sioux City, IA 51106, USA;city;Woodbury County;51106;Iowa;;N/A;N/A;N/A
ChIJy5f1Fa8S7ocRGUpHRhOWQuo;Timberland Village Senior;42.18909319999999/-93.57493769999999;725 Timberland Dr, Story City, IA 50248, USA;city;Howard;50248;Story County;;http://www.bethanylife.org/;N/A;(515) 733-6500
ChIJI1aMPZVn7ocReouP3t7Iuts;Windsor Manor;42.0050233/-93.43898569999999;1642 S G Ave, Nevada, IA 50201, USA;city;Nevada;50201;Story County;;http://www.windsor-manor.com/;N/A;(515) 382-2980
ChIJe7G1g00N7ocRJwVchPEs-0k;Cedar Place;42.18281500000001/-93.591798;812 Cedar St, Story City, IA 50248, USA;city;Lafayette;50248;Story County;;http://www.bethanylife.org/admissions/cedar-place/;N/A;(515) 733-4325
ChIJZUZY2U4N7ocRsPi39UvbHdM;Bethany Life;42.1815168/-93.5921462;212 Lafayette Ave, Story City, IA 50248, USA;city;Lafayette;50248;Story County;5;http://bethanylife.org/;N/A;(515) 733-4325
ChIJU-Dh4-V57ocRz0LGjwH0an0;The Waterford at Ames;42.01051289999999/-93.677127;1325 Coconino Rd, Ames, IA 50014, USA;city;Washington;50014;Story County;1;http://www.capitalsenior.com/thewaterfordatames/;N/A;(866) 479-5833
ChIJQfr3ts5n7ocRbQBUpKibqms;Indian Creek Independent & Assisted Living;42.0118062/-93.45437059999999;100 6th St, Nevada, IA 50201, USA;city;Nevada;50201;Story County;;http://abcmcorp.com/indian-creek-independent-and-assisted-living-careers-47.html;N/A;(515) 382-1620
ChIJqekJyuV57ocRzYYC8xYLFzU;The Rose of Ames;42.01116/-93.67698299999999;1315 Coconino Rd, Ames, IA 50014, USA;city;Washington;50014;Story County;;http://evergreenredc.com/roseofames.php;N/A;(515) 268-8828
ChIJu3RnUexw7ocRRuyPGMaOfNs;Northcrest Community;42.042763/-93.63412989999999;1801 20th St, Ames, IA 50010, USA;city;Franklin;50010;Story County;4.8;http://www.northcrestcommunity.org/;N/A;(515) 232-6760
ChIJQwnAv9lw7ocRgocZK4e7EuY;Northridge Village;42.0534754/-93.6484119;W, 3300 George Washington Carver Ave, Ames, IA 50010, USA;city;Ames;50010;Franklin;4.3;http://northridgevillageames.com/;N/A;(515) 232-1000
ChIJX8qxaf5w7ocRKebLbaBjQNI;Windsor Oaks;42.058968/-93.625694;1100 Adams St, Ames, IA 50010, USA;city;Franklin;50010;Story County;;http://www.windsoroaksseniors.com/;N/A;(515) 233-0383
ChIJa2yN2upf7ocRgegpSsZKAHI;Heartland Senior Services;41.88733/-93.4000779;84 Main St, Maxwell, IA 50161, USA;city;Indian Creek;50161;Story County;;http://www.heartlandseniorservices.com/;N/A;(515) 387-1133
ChIJ_8CYKuxw7ocR44onaCSxSe4;Heartwood House;42.04536359999999/-93.63570159999999;1900 24th St, Ames, IA 50010, USA;city;Franklin;50010;Story County;4;https://www.northcrestcommunity.org/health-services/memory-care/;N/A;(515) 232-6760
ChIJdetkFjJm7ocRHi3ChFQ1rDE;Regency Retirement Residence;42.015066/-93.4640809;418 W 3rd St, Nevada, IA 50201, USA;city;Grant;50201;Story County;;http://iowa-seniorliving.com/;N/A;(515) 382-6169
ChIJ1-i9KTpb7ocRPiRFsQ40HA4;Heartland Senior Services;42.0185213/-93.31361079999999;309 Main St, Colo, IA 50056, USA;city;New Albany;50056;Story County;;http://www.heartlandseniorservices.com/;N/A;(641) 377-2233
ChIJcdK4LNBn7ocRaIQKc61_svw;Story County Medical Center: Senior Care;42.0175046/-93.4523988;630 6th St, Nevada, IA 50201, USA;city;Nevada;50201;Story County;4;http://www.storymedical.org/;N/A;(515) 382-7001
ChIJcfne4oF67ocRnIaYAJ5A124;Hartland Senior Services Congregate;42.02113629999999/-93.61734319999999;205 S Walnut Ave, Ames, IA 50010, USA;city;Washington;50010;Story County;;https://www.heartlandseniorservices.com/;N/A;(515) 233-6907
ChIJHW8u-huc7ocRNJhVX8FG518;Vintage Cooperatives information Center;41.71256399999999/-93.61787099999999;1631 SW Main St #201, Ankeny, IA 50023, USA;city;Prairie Trail;50023;Ankeny;;http://www.vintagecooperatives.com/;N/A;(515) 279-3003
ChIJSUcBmRRT4YcR-POkfc-GQ_8;Wapello Specialty Care;41.17167/-91.18786299999999;601 Hwy. 61 S., Wapello, IA 52653, USA;city;IA;52653;United States;5;http://www.careinitiatives.org/wapello-specialty-care;N/A;(319) 523-2001
ChIJvZ2s9G5T4YcRkINn5zm1WOg;United States Postal Service;41.1805859/-91.185987;206 N Main St, Wapello, IA 52653, USA;city;Wapello;52653;Louisa County;;https://tools.usps.com/go/POLocatorDetailsAction!input.action?&radius=20&locationType=po&locationTypeQ=po&locationID=1386370&utm_source=google-my-business-url&utm_medium=search&utm_campaign=yext;N/A;(800) 275-8777
ChIJe1qArrpL4YcRcfF0Wh0Uyto;Prairie Ridge Care & Rehabilitation;41.003889/-91.1635342;608 Prairie St, Mediapolis, IA 52637, USA;city;Des Moines County;52637;Iowa;1;https://www.fivestarseniorliving.com/communities/ia/mediapolis/prairie-ridge-care-rehabilitation;N/A;(319) 394-3991
ChIJtXx8rLLq5ocRHVPKonwWXEc;Sunnybrook at Mt. Pleasant;40.9516081/-91.5267456;1406 Linden Dr, Mt Pleasant, IA 52641, USA;city;Henry County;52641;Iowa;5;http://sunnybrookmtpleasant.com/;N/A;(319) 385-7227
ChIJETynAOSc7ocRYNaGj47bV2k;Merle Hay Rd / Cadence Apartments, JST;41.676194/-93.69781999999999;Johnston, IA 50131, USA;city;Polk County;50131;Iowa;;N/A;N/A;N/A
ChIJzey76Lqd7ocRtv1oBbuiIHk;Precision Retirement Group;41.64950899999999/-93.71489799999999;7065 Brookview Dr, Urbandale, IA 50322, USA;city;Webster;50322;Polk County;;http://www.prginfo.net/;N/A;(515) 252-1899
ChIJ3xNydZGd7ocRznVJ8GxuQxg;Healthy Living;41.6465878/-93.73075569999999;8205 Sharon Dr, Urbandale, IA 50322, USA;city;Webster;50322;Polk County;;http://www.healthylivingia.com/;N/A;(515) 309-2987
ChIJrTNOKLYn7IcRmNmzK0a7a1w;Central Iowa Housing Authority;41.67874399999999/-93.77703299999999;1201 SE Gateway Dr, Grimes, IA 50111, USA;city;Webster;50111;Polk County;3;http://cirhahome.org/;N/A;(515) 986-1882
ChIJz6E7PKkn7IcR5ZtmYUnUsvs;Retirement Solutions Group, Inc.;41.62993820000001/-93.7348975;8515 Douglas Ave #10, Urbandale, IA 50322, USA;city;Urbandale;50322;Webster;;http://www.retirementsolutionsgroup.org/;N/A;(866) 247-5695
ChIJHS_0RFFrjocRkatRLMWuosQ;Whispering Creek Senior Living;42.46428529999999/-96.31468169999999;2609 Nicklaus Blvd, Sioux City, IA 51106, USA;city;Woodbury County;51106;Iowa;;http://www.whisperingcreekseniorliving.com/;N/A;(712) 276-1879
ChIJV6TeVFj9jYcRM8b84fxPZY8;Brookdale Sioux City;42.51664789999999/-96.4044758;2562 Pierce St, Sioux City, IA 51104, USA;city;Woodbury County;51104;Iowa;5;https://www.brookdale.com/en/communities/brookdale-sioux-city.html;N/A;(712) 202-5218
ChIJHS_0RFFrjocR2I_BMqG19rM;Whispering Creek Active Retirement Community;42.4614031/-96.31607790000001;2609 Nicklaus Blvd, Sioux City, IA 51106, USA;city;Woodbury County;51106;Iowa;;http://www.whisperingcreekseniorliving.com/;N/A;(712) 276-2091
ChIJ5wC-hGz8jYcR9FLyQe7EYdg;Sunrise Retirement Community;42.477026/-96.336956;5501 Gordon Dr, Sioux City, IA 51106, USA;city;Woodbury County;51106;Iowa;4;http://www.sunriseretirement.com/;N/A;(712) 276-3821
ChIJi8lUqAb8jYcRpoSUIJQMuHs;CountrysideHealth Care Center;42.460243/-96.327832;6120 Morningside Ave, Sioux City, IA 51106, USA;city;Woodbury County;51106;Iowa;5;http://www.countrysidehealthcarecenter.com/;N/A;(712) 276-3000
ChIJXfK1pNrijYcRyTDM2R05lh4;Bickford Senior Living;42.5394662/-96.3733285;4020 Indian Hills Dr, Sioux City, IA 51104, USA;city;Woodbury County;51104;Iowa;3;http://www.enrichinghappiness.com/branch/bickford-of-sioux-city;N/A;(712) 239-6851
ChIJA9CO8sIHjocRMkPIykdEu4E;Holy Spirit Retirement Home;42.5171268/-96.43309859999999;1701 W 25th St, Sioux City, IA 51103, USA;city;Woodbury County;51103;Iowa;4;http://www.holyspiritretirementhome.com/;N/A;(712) 252-2726
ChIJQyzwiIcHjocR3xfaYSU8kK8;Prime Living Apartments;42.497877/-96.40826319999999;725 Pearl St, Sioux City, IA 51101, USA;city;Woodbury County;51101;Iowa;1;http://www.primeapartmentrental.com/Prime_Assisted_Living.php#Prime_Assisted_Living-SC;N/A;(712) 226-6300
ChIJP2LrubfijYcRvl-vpbOIQeY;The Heritage at Northern Hills;42.5379622/-96.3869327;4000 Teton Trace, Sioux City, IA 51104, USA;city;Woodbury County;51104;Iowa;;https://www.heritage-communities.com/senior-living/ia/sioux-city/heritage-at-northern-hills/;N/A;(712) 202-5330
ChIJ23bXCbbijYcRRi-DJqw4JQA;Touchstone Living Center;42.533748/-96.38675660000001;1800 Indian Hills Dr, Sioux City, IA 51104, USA;city;Woodbury County;51104;Iowa;3.3;http://www.welcov.com/;N/A;(712) 239-4582
ChIJf6XeVFj9jYcR71TPaL8uttU;Northpark Place;42.5166324/-96.4045498;2562 Pierce St, Sioux City, IA 51104, USA;city;Woodbury County;51104;Iowa;;N/A;N/A;(712) 255-1200
ChIJAft2KDvxjYcRoCZ4SA4qTb8;Char-Mac Assisted Living;42.4744393/-96.18277069999999;200 E Char-Mac Dr, Lawton, IA 51030, USA;city;Floyd;51030;Woodbury County;5;http://char-mac.com/;N/A;(712) 944-4893
ChIJU9azwd8FjocRmHsev_BOAGU;StoneyBrook Suites Assisted Living;42.50011/-96.49428399999999;301 Dakota Dunes Blvd, North Sioux City, SD 57049, USA;city;Big Sioux Township;57049;Union County;;http://www.stoneybrooksuites.com/;N/A;(605) 242-0013
ChIJm49ffQj_jYcRxysVA1t0dJA;Floyd Place;42.404157/-96.36335919999999;403 C St, Sergeant Bluff, IA 51054, USA;city;Woodbury;51054;Woodbury County;5;http://www.enlivant.com/communities/iowa/floyd-place-sergeant-bluff;N/A;(712) 823-0485
ChIJG6PBQqj9jYcRkQeRXvQcB4Q;Fairmount Park Senior Housing;42.4894802/-96.37367879999999;210 S Fairmount St, Sioux City, IA 51106, USA;city;Woodbury County;51106;Iowa;4;N/A;N/A;(712) 252-3022
ChIJq6qqqhr8jYcRkiQNl87sZlk;Whispering Creek Active Retire;42.4644043/-96.333242;Sioux City, IA 51106, USA;city;US;51106;51106;;http://www.whisperingcreekseniorliving.com/;N/A;(712) 276-1879
ChIJE4i12FAHjocRjDyLoxZveHo;Regency Square Care Center;42.45687700000001/-96.414749;3501 Dakota Ave, South Sioux City, NE 68776, USA;city;Dakota County;68776;Nebraska;;https://nyehealthservices.com/regency-square;N/A;(402) 494-4273
ChIJYSX5mhYGjocRPuk-GIKYktk;Riverside Gardens Senior;42.51073640000001/-96.47514299999999;715 Bruner Ave, Sioux City, IA 51109, USA;city;Woodbury County;51109;Iowa;5;N/A;N/A;(712) 277-2083
ChIJrV60X8IHjocRfwoPzZHLvKU;Evergreen Terrace Senior;42.5152729/-96.42991069999999;2430 West St, Sioux City, IA 51103, USA;city;Woodbury County;51103;Iowa;4.5;N/A;N/A;(712) 258-0508
ChIJV9O_z32BjYcRfvEDyxudaig;Valley Lodge;42.48203700000001/-95.77814099999999;1118 E Hwy 20, Correctionville, IA 51016, USA;city;IA;51016;United States;;http://www.careinitiatives.org/;N/A;(712) 372-4466
ChIJ6cAQCGH9jYcRHdt9tWoefJ8;Careage Management LLC;42.5064692/-96.4048839;1512 Pierce St, Sioux City, IA 51105, USA;city;Woodbury County;51105;Iowa;;N/A;N/A;(712) 293-0117
ChIJdx3TzBRjjYcRkHZa0Q-qoHQ;Char-Mac of Holstein;42.476196/-95.53728099999999;1500 S Kiel St, Holstein, IA 51025, USA;city;Griggs;51025;Ida County;;http://www.char-mac.com/;N/A;(712) 368-4893
ChIJt6MnlWL9jYcRVyCiXBxLih8;St Anne's of Sioux City;42.5009307/-96.40598879999999;1012 Douglas St, Sioux City, IA 51105, USA;city;Woodbury County;51105;Iowa;;N/A;N/A;(712) 255-4987
ChIJ5fbn5srijYcRFKts7rs_iE0;Opportunities Unlimited;42.5294546/-96.3846964;3510 Glen Oaks Blvd, Sioux City, IA 51104, USA;city;Woodbury County;51104;Iowa;;http://opportunitiesunlimited.com/;N/A;(712) 252-5691
ChIJOZ7bzIyEkocRH6ZrMstoftg;Willow Dale Care Center;42.3165462/-95.59671709999999;404 1st St, Battle Creek, IA 51006, USA;city;Maple;51006;Ida County;;http://www.abcmcorp.com/;N/A;(712) 365-4332
ChIJo75kiTb9jYcRF0l1zHcFDvU;Opportunities Unlimited Sunris;42.5243457/-96.3839064;3205 Glen Oaks Blvd, Sioux City, IA 51104, USA;city;Woodbury County;51104;Iowa;;N/A;N/A;(712) 252-5695
ChIJS2XLzQr_jYcRBouHcnIjuSI;Pioneer Valley Living and Rehab;42.392521/-96.36259;400 Sergeant Square Dr, Sergeant Bluff, IA 51054, USA;city;Woodbury;51054;Woodbury County;5;http://pvnursinghome.com/;N/A;(712) 943-2350
ChIJH2nihH6BjYcRar4YwxsrR3g;Correctionville Specialty Care;42.481056/-95.7769;1116 US-20, Correctionville, IA 51016, USA;city;Union;51016;Woodbury County;5;http://www.careinitiatives.org/correctionville-specialty-care;N/A;(712) 372-4466
ChIJMWEyJ1nRkYcRQcRS5He7GQc;Brookdale Wayne;42.2451811/-97.00527099999999;1500 Vintage Hill Dr, Wayne, NE 68787, USA;city;Hunter;68787;Wayne County;4.7;https://www.brookdale.com/en/communities/brookdale-wayne.html;N/A;(303) 552-5963
ChIJv1ET0Vj9jYcReW7C52zdFno;Connections Area Agency on Aging;42.51455180000001/-96.4055127;2301 Pierce St, Sioux City, IA 51104, USA;city;Woodbury County;51104;Iowa;;http://www.connectionsaaa.org/;N/A;(800) 432-9209
ChIJ7UM2OFpjjYcRIxaeS0YMaNM;Good Samaritan Society;42.4886089/-95.55098889999999;505 W 2nd St, Holstein, IA 51025, USA;city;Griggs;51025;Ida County;;http://www.good-sam.com/;N/A;(712) 368-4304
ChIJTy0JNVsGjocRORlrBmRt8sM;Senior Companion Program;42.4960644/-96.46484459999999;4200 War Eagle Dr, Sioux City, IA 51109, USA;city;Woodbury County;51109;Iowa;;http://rvrseniorvolunteerprograms.org/site/senior-companion-program/;N/A;(712) 224-2610
ChIJIX6AwNHijYcRMuz5eALgC3Y;Accura HealthCare of Sioux City;42.5360936/-96.3742912;3800 Indian Hills Dr, Sioux City, IA 51104, USA;city;Woodbury County;51104;Iowa;4.5;http://www.accura.healthcare/;N/A;(712) 239-5025
ChIJIwswN30SjYcRwuyJXJar7vk;The Gardens Assisted Living;42.769928/-95.551766;1610 IA-3, Cherokee, IA 51012, USA;city;Cherokee;51012;Cherokee County;5;http://www.cherokeegardenlifestyles.com/;N/A;(712) 225-2999
ChIJZzKyfmv8jYcRZOD3OzKRrC4;The Pointe at Sunrise Manor;42.4772522/-96.33651259999999;36 Eastview Dr, Sioux City, IA 51106, USA;city;Woodbury County;51106;Iowa;;N/A;N/A;(712) 212-9350
ChIJQab3tWRhkocRixCnNWkvVvE;Maple Heights Nursing Home;42.1634622/-95.7829409;2 Sunrise Ave, Mapleton, IA 51034, USA;city;Cooper;51034;Monona County;;http://www.pionet.net/~maplhgts/;N/A;(712) 881-1680
ChIJ14K1jZ7GjYcR8JimF7HxJNw;Good Samaritan Society Le Mars;42.79997909999999/-96.1479168;1140 Lincoln St NE, Le Mars, IA 51031, USA;city;America;51031;Plymouth County;;https://www.good-sam.com/locations/le-mars;N/A;(712) 546-4101
ChIJp_3kq6DijYcRvmW2mi3R_0c;Hospice of Siouxland;42.5443618/-96.4067094;4300 Hamilton Blvd, Sioux City, IA 51104, USA;city;Woodbury County;51104;Iowa;;http://www.hospiceofsiouxland.com/;N/A;(712) 233-4144
ChIJkVadbHz9jYcRG8fwuu5knk0;Three Rivers Independent Living;42.49608729999999/-96.40311149999999;520 Nebraska St # 324, Sioux City, IA 51101, USA;city;Sioux City;51101;Woodbury County;;http://www.ivrs.iowa.gov/clients/iowacentersforindependentliving.html;N/A;(712) 255-1065
ChIJ3x1bCQ7_jYcRY9VIPR3t06I;Embassy Rehab & Care Center;42.3997986/-96.35548;206 Port Neal Rd, Sergeant Bluff, IA 51054, USA;city;Woodbury;51054;Woodbury County;1;http://www.welcov.com/find-a-location/embassy-healthcare-community/;N/A;(712) 943-3837
ChIJkbenrEkGjocRs-ufHX9lVpI;Westwood Specialty Care;42.505275/-96.46118799999999;4201 N Fieldcrest Dr, Sioux City, IA 51103, USA;city;US;51103;51103;4;http://www.careinitiatives.org/;N/A;(712) 258-0135
ChIJGR369tH9jYcRfvjzuhjLGQI;Early Head Start;42.4616874/-96.37087269999999;2711 S Helen St, Sioux City, IA 51106, USA;city;Woodbury County;51106;Iowa;;http://www.caasiouxland.org/;N/A;(712) 274-9940
ChIJV8jcxPn9jYcReQW9i8HqKSM;Matneys Colonial Manor;42.459789/-96.403949;3200 G St, South Sioux City, NE 68776, USA;city;Dakota County;68776;Nebraska;4;http://www.matneyscolonial.com/;N/A;(402) 494-3043
ChIJ0Uo24WVPjYcRATfwEI-Rybg;Methodist Manor Retirement Community;42.6419731/-95.2164459;1206 W 4th St, Storm Lake, IA 50588, USA;city;Buena Vista County;50588;Iowa;4.7;http://www.mmrcsl.org/;N/A;(712) 732-1120
ChIJxSJdUcjDkocRkUFmsuTJ6dE;Eventide;42.0154643/-95.3438611;114 S 20th St, Denison, IA 51442, USA;city;Denison;51442;Crawford County;;http://www.eventidehome.com/;N/A;(712) 263-3114
ChIJowiAERbEjYcR4lLoUont68A;Prime Living Apartments;42.7946081/-96.1675175;108 1st Ave NW #, Le Mars, IA 51031, USA;city;America;51031;Plymouth County;;http://www.primeapartmentrental.com/;N/A;(712) 548-5488
ChIJ1_KpPlQPjocRHECPW1Euo9k;SYNERGY HomeCare;42.5022829/-96.4962092;319 Dakota Dunes Blvd d, Dakota Dunes, SD 57049, USA;city;Dakota Dunes;57049;Big Sioux Township;5;http://www.synergyhomecare.com/agencies/sd/dakota-dunes/sd01/;N/A;(605) 242-6056
ChIJwXKRv6j9jYcRdFwyhxQemWE;Community Action Agency;42.4874335/-96.3739715;2700 Leech Ave, Sioux City, IA 51106, USA;city;Woodbury County;51106;Iowa;3.6;http://www.caasiouxland.org/;N/A;(712) 274-1610
ChIJK3aeR52RjYcRIFVz7Y843nk;Kingsley Specialty Care;42.590798/-95.97252899999999;305 W 3rd St, Kingsley, IA 51028, USA;city;Garfield;51028;Plymouth County;;http://www.careinitiatives.org/kingsley-specialty-care/;N/A;(712) 378-2400
ChIJC5dkqJoHjocRCfeukx4t0yo;Siouxland Center for Active Generations;42.4995667/-96.41996159999999;313 Cook St, Sioux City, IA 51103, USA;city;Woodbury County;51103;Iowa;5;http://siouxlandseniorcenter.com/activities.php;N/A;(712) 255-1729
ChIJHTHyZ8TDkocR0c7_q6EYKZI;Reed Place;42.0205776/-95.3362654;2506 3rd Ave N, Denison, IA 51442, USA;city;Denison;51442;Crawford County;5;http://www.enlivant.com/communities/iowa-reed-place-denison;N/A;(712) 264-5685
ChIJK8P8M8jDkocRiT-FRwAoKkA;Silveridge Assisted Living;42.01446430000001/-95.34391970000001;222 S 20th St, Denison, IA 51442, USA;city;Denison;51442;Crawford County;;http://www.eventidehome.com/silveridge.asp;N/A;(712) 263-2639
ChIJI5WBLB6Lo4cRvGyrxY_4J_Y;Brookdale Great Bend;38.3637846/-98.8107584;1206 S Patton Rd, Great Bend, KS 67530, USA;city;Barton County;67530;Kansas;5;https://www.brookdale.com/en/communities/brookdale-great-bend.html;N/A;(620) 242-1886
ChIJKWyp6USSo4cR5NNrmzl5ViI;Country Place Senior Living - Hoisington, KS;38.5189791/-98.77962939999999;259 W 6th St, Hoisington, KS 67544, USA;city;Barton County;67544;Kansas;5;http://www.countryplaceliving.com/;N/A;(620) 653-4121
ChIJRw5APquLo4cRibAN2TEHIUg;River Bend;38.36677580000001/-98.79097829999999;3820 Broadway Ave, Great Bend, KS 67530, USA;city;Barton County;67530;Kansas;5;http://www.americareusa.net/assisted_living/Great_Bend_KS/zip_67530/americare/1296;N/A;(620) 603-0775
ChIJBW1x6D6Ho4cRsXvlSewW4Y0;Woodhaven Care Center;38.3626983/-98.58897069999999;510 W 7th St, Ellinwood, KS 67526, USA;city;Barton County;67526;Kansas;3.2;https://www.fivestarseniorliving.com/communities/ks/ellinwood/woodhaven-care-center;N/A;(620) 564-2337
ChIJDRsr8UiHo4cRLathZfngJo4;Country Place Senior Living;38.3569003/-98.5812107;302 N Main St #4, Ellinwood, KS 67526, USA;city;Ellinwood;67526;Barton County;;N/A;N/A;(620) 564-2100
ChIJFWC5QSCLo4cRYhuFLXfB4pc;Cherry Village Assisted Living;38.3647233/-98.8169102;5926 Eisenhower Ave, Great Bend, KS 67530, USA;city;Barton County;67530;Kansas;5;N/A;N/A;(620) 792-3207
ChIJMUvR6Gp5oYcRymdITn7MukA;Brookdale Hays;38.88601510000001/-99.30417440000001;1801 E 27th St, Hays, KS 67601, USA;city;Ellis County;67601;Kansas;5;https://www.brookdale.com/en/communities/brookdale-hays.html;N/A;(785) 200-3454
ChIJ3w5eubB2o4cRwO5U34p4NM4;Plum Creek Plz;38.5875329/-98.4066438;100 N County Rd, Holyrood, KS 67450, USA;city;Valley;67450;Ellsworth County;5;N/A;N/A;(785) 252-3800
ChIJyW3gtYcDpIcRLtaWzvsox6Y;Country Living of Larned;38.1830641/-99.1077787;710 W 9th St, Larned, KS 67550, USA;city;Pawnee County;67550;Kansas;5;http://www.countrylivingoflarned.com/;N/A;(620) 285-6900
ChIJUTtKgkITo4cRLVqCIzZ9fW0;Good Samaritan Society;38.7189072/-98.2355321;1156 KS-14, Ellsworth, KS 67439, USA;city;Ellsworth County;67439;Kansas;;http://www.good-sam.com/;N/A;(785) 472-3167
ChIJk_eb63SepIcRyo-DPzBVuzU;Country Living of Lyons - Lyons, Kansas;38.342393/-98.21739699999999;502 S Miles Ave, Lyons, KS 67554, USA;city;Rice County;67554;Kansas;;http://www.countryplaceliving.com/;N/A;(620) 257-5012
ChIJ0eVrQEJ5oYcRKEWAGID6REQ;Via Christi Village;38.8796531/-99.3000581;2225 Canterbury Dr, Hays, KS 67601, USA;city;Ellis County;67601;Kansas;5;https://www.viachristi.org/locations/seniors/via-christi-village-hays;N/A;(785) 628-3241
ChIJ0zTuDb15oYcRYp9MBfbh8-k;Wyndham Place Senior Residence;38.88801809999999/-99.3359727;2734 Hall St, Hays, KS 67601, USA;city;Ellis County;67601;Kansas;;https://www.beacon.cc/wyndamhays.html;N/A;(785) 625-5757
ChIJgUneDuyZpIcRBtXfHPSsJVg;Sterling Presbyterian Manor;38.21467359999999/-98.20851259999999;204 W Washington Ave, Sterling, KS 67579, USA;city;Rice County;67579;Kansas;4;http://sterlingpresbyterianmanor.org/;N/A;(620) 904-0025
ChIJydDdPbeLo4cR4ajraYUgGHY;ResCare;38.3755417/-98.77483789999999;2317 Washington Street, Great Bend, KS 67530, USA;city;US;67530;67530;;http://www.rescare.com/;N/A;(620) 793-8501
ChIJMWXwF7SLo4cR30_Vi0ypyKY;Southwest Ks Area Agency;38.3710026/-98.7745618;1905 Washington St, Great Bend, KS 67530, USA;city;Barton County;67530;Kansas;;http://www.swkaaa.org/;N/A;(620) 793-6633
ChIJBXjNTRV5oYcRdYjwQtt53NQ;Cedar View Assisted Living;38.8894068/-99.3013354;2929 Sternberg Dr, Hays, KS 67601, USA;city;Ellis County;67601;Kansas;5;http://cedarviewassistedliving.com/;N/A;(785) 628-3200
ChIJUTtKgkITo4cR3oDuI2ymheU;Prairie West Assisted Living;38.7182857/-98.23453529999999;1156 KS-14, Ellsworth, KS 67439, USA;city;Ellsworth County;67439;Kansas;;http://www.good-sam.com/;N/A;(785) 472-6044
ChIJsS7lESTiuocRnO-l3sJwG_w;Andover Court;37.72309509999999/-97.1415798;721 W 21st St, Andover, KS 67002, USA;city;Bruno;67002;Butler County;5;https://www.centurypa.com/senior-living/andover-court/;N/A;(316) 733-2662
ChIJVXTCf1b-uocROLsfbr1PMbQ;Life Care Center of Andover;37.722567/-97.14134000000001;621 W 21st St, Andover, KS 67002, USA;city;Bruno;67002;Butler County;2.2;http://lifecarecenterofandover.com/;N/A;(316) 733-1349
ChIJnXsrpdZTuocRaqHEBMPs7EY;Homestead of Augusta;37.692352/-96.96989599999999;1611 Fairway Dr, Augusta, KS 67010, USA;city;Butler County;67010;Kansas;1;http://www.midwest-health.com/augusta/;N/A;(316) 775-1000
ChIJZ8_h2tj-uocRTadk7uYJmKw;Summerfield Senior Residences;37.69285300000001/-97.138054;420 Lioba Dr, Andover, KS 67002, USA;city;Bruno;67002;Butler County;;http://mhrsi.org/our-properties/summerfield.html;N/A;(316) 733-7899
ChIJCyqW7Bazu4cRgdcPtUc4NDI;Lakepoint El Dorado;37.8034326/-96.86355979999999;1313 S High St, El Dorado, KS 67042, USA;city;Butler County;67042;Kansas;3.5;http://lakepointnc.net/;N/A;(316) 320-4140
ChIJRfZr73m0u4cRjjD6BNC4suY;Homestead of El Dorado;37.832787/-96.830641;1650 E 12th Ave, El Dorado, KS 67042, USA;city;El Dorado;67042;Butler County;5;http://www.midwest-health.com/eldorado;N/A;(316) 321-7777
ChIJLTAlCwr3uocRNj894878vE8;Lakepoint Nursing & Rehab Center;37.5679609/-97.136146;601 N Rose Hill Rd, Rose Hill, KS 67133, USA;city;Pleasant;67133;Butler County;;http://www.lakepointnc.com/;N/A;(316) 776-2194
ChIJBbIf21L5uocRHzlRJMqMMaY;Covenant Care Senior Living;37.675004/-97.17036499999999;14422 E Twinlake Dr, Wichita, KS 67230, USA;city;Minneha;67230;Sedgwick County;;http://www.covenantcareseniorliving.org/;N/A;(316) 733-1700
ChIJyXa8SgH9uocRJrcpnffbg2s;The Regent;37.7206074/-97.2244702;2050 N Webb Rd, Wichita, KS 67206, USA;city;Sedgwick County;67206;Kansas;5;https://www.legendseniorliving.com/locations/the-regent.php;N/A;(316) 631-3900
ChIJC1194gT9uocR1BRkFngHu8I;Brookdale East Wichita;37.7223074/-97.23110269999999;9191 E 21st St N, Wichita, KS 67206, USA;city;Sedgwick County;67206;Kansas;3;https://www.brookdale.com/en/communities/brookdale-east-wichita.html;N/A;(316) 768-4393
ChIJkVFHWdTvuocRuao_2HOwx-U;Glen Carr House;37.5612484/-97.2342972;1433 N Hamilton Dr, Derby, KS 67037, USA;city;Rockford;67037;Sedgwick County;;https://www.oxfordseniorliving.com/senior-living/ks/derby/glen-carr-house/;N/A;(316) 247-6465
ChIJc86WIxr9uocRffbGej1RHPk;Brookdale Tallgrass;37.7235867/-97.237027;8600 E 21st St N, Wichita, KS 67206, USA;city;Sedgwick County;67206;Kansas;;https://www.brookdale.com/en/communities/brookdale-tallgrass.html;N/A;(316) 854-2310
ChIJ4_jrCxn9uocRbHTkIsztqI4;Legend Senior Living;37.7218575/-97.23902269999999;8415 E 21st St N # 100, Wichita, KS 67206, USA;city;Wichita;67206;Sedgwick County;1.5;http://www.legendseniorliving.com/;N/A;(316) 616-6288
ChIJa7Jw1zXwuocRIXySgi-gz5A;Brookdale Derby;37.549212/-97.24542249999999;1709 Walnut Grove Rd, Derby, KS 67037, USA;city;Rockford;67037;Sedgwick County;5;https://www.brookdale.com/en/communities/brookdale-derby.html;N/A;(316) 854-2311
ChIJEeYM-DP9uocR9F7oZ6p_Ykg;Presbyterian Manors of Mid-America Corporate Office;37.72717499999999/-97.260373;2414 N Woodlawn St, Wichita, KS 67220, USA;city;Sedgwick County;67220;Kansas;;http://presbyterianmanors.org/;N/A;(800) 336-8511
ChIJ36QkEtSBsIcR1URhWUEeHJo;Arkansas City Presbyterian Manor;37.083515/-97.045514;1711 N 4th St, Arkansas City, KS 67005, USA;city;Cowley County;67005;Kansas;2;http://arkansascitypresbyterianmanor.org/;N/A;(620) 506-0130
ChIJ4ad75Rt7uocR2KdPidrzlW4;Winfield Senior Living Community;37.235873/-96.97004099999999;1320 Wheat Rd, Winfield, KS 67156, USA;city;Cowley County;67156;Kansas;3.7;http://www.winfieldseniorliving.com/contact/;N/A;(620) 221-4660
ChIJ0cS1dmN_uocR63OQXjJBVI4;Alderbrook Village Assisted Living;37.0930139/-97.03672;402 E Windsor Rd, Arkansas City, KS 67005, USA;city;Cowley County;67005;Kansas;;http://www.alderbrookvillage.com/;N/A;(620) 442-4400
ChIJyxMAe7qBsIcRw3ZUoMRsLxc;South Central Ks Agency-Aging;37.059626/-97.038583;304 S Summit St, Arkansas City, KS 67005, USA;city;Cowley County;67005;Kansas;;http://www.sckaaa.org/;N/A;(620) 442-0268
ChIJYX01_0vwuocRFkMmFM4jvL0;Avita Senior Living;37.549342/-97.23901389999999;719 N Klein Ct, Derby, KS 67037, USA;city;Rockford;67037;Sedgwick County;5;http://derbyassistedliving.com/;N/A;(316) 260-4447
ChIJFXrhnA3GvIcR6oXjPosdTJw;Brookdale Salina Kirwin;38.81472/-97.5925101;1200 E Kirwin Ave, Salina, KS 67401, USA;city;Saline County;67401;Kansas;3;https://www.brookdale.com/en/communities/brookdale-salina-kirwin.html;N/A;(785) 200-3458
ChIJAVu219XFvIcRKgjouR8tIn0;Brookdale Salina Fairdale;38.8277928/-97.57335209999999;2251 E Crawford St, Salina, KS 67401, USA;city;Saline County;67401;Kansas;;https://www.brookdale.com/en/communities/brookdale-salina-fairdale.html;N/A;(785) 200-3457
ChIJLZ3XjB7tx4cR-asKExNQSak;West Ridge Assisted Living;37.51464240000001/-94.8597764;950 W St John St, Girard, KS 66743, USA;city;Crawford County;66743;Kansas;;http://westridgeassistedliving.com/;N/A;(620) 724-6760
ChIJ37EKDA_Dx4cRvEww2bUN6N0;Carrington Place;37.41167910000001/-94.6737782;1909 E 4th St, Pittsburg, KS 66762, USA;city;Crawford County;66762;Kansas;5;http://www.americareusa.net/assisted_living/Pittsburg_KS/zip_66762/americare/1264;N/A;(620) 670-4203
ChIJy0l4OyrEvIcRZpqogXM2hdI;Salina Presbyterian Manor;38.828318/-97.563667;2601 E Crawford St, Salina, KS 67401, USA;city;Saline County;67401;Kansas;;http://salinapresbyterianmanor.org/;N/A;(866) 319-6431
ChIJ-1yZFe6hx4cRrCRYzeScaMk;Fort Scott Presbyterian Village;37.81126899999999/-94.71204539999999;2401 S Horton St, Fort Scott, KS 66701, USA;city;Bourbon County;66701;Kansas;;http://fortscottpresbyterianvillage.org/;N/A;(620) 644-4362
ChIJvzzpwSvDx4cRxVDtBN28p-c;Via Christi Village;37.3790321/-94.68120139999999;1502 E Centennial Dr, Pittsburg, KS 66762, USA;city;Crawford County;66762;Kansas;3;https://www.viachristi.org/locations/seniors/pittsburg;N/A;(620) 235-0020
ChIJYa6MrgwauIcRRP9ezw9jK7Q;Parsons Presbyterian Manor;37.3452009/-95.29031060000001;3501 Dirr Ave, Parsons, KS 67357, USA;city;Labette County;67357;Kansas;;http://www.parsonspresbyterianmanor.org/;N/A;(620) 717-4030
ChIJwXp1gSvCx4cR75F9olIhuP8;Oakview Estates;37.4481174/-94.7018695;316 Wickware Dr, Frontenac, KS 66763, USA;city;Crawford County;66763;Kansas;;http://www.oakview-estates.com/index.php/contact-us;N/A;(620) 232-3555
ChIJD84TZ70JyIcRepI8rnh-YNQ;Autumn Home Care Facilities;37.1678589/-94.8329232;311 S E Ave, Columbus, KS 66725, USA;city;Cherokee County;66725;Kansas;;http://www.autumnhomecare.com/;N/A;(620) 429-1011
ChIJj6IH46lEuIcRKbEb8Tnhvf0;Country Place Senior Living - Chanute, KS;37.67409300000001/-95.47855;701 Osa Martin Blvd, Chanute, KS 66720, USA;city;Neosho County;66720;Kansas;;http://countryplaceliving.com/;N/A;(620) 431-0599
ChIJ6UB6gliEt4cROxw9szF_e1Y;Medicalodges, Inc;37.0358235/-95.61780089999999;201 W 8th St, Coffeyville, KS 67337, USA;city;Montgomery County;67337;Kansas;5;http://www.medicalodges.com/;N/A;(800) 782-0120
ChIJgQhjgw7_t4cRPQd1ZuLRO6E;Oswego Home Place;37.1603422/-95.10785129999999;1010 S Commercial St, Oswego, KS 67356, USA;city;Labette County;67356;Kansas;;http://www.americareusa.net/assisted_living/Oswego_KS/zip_67356/americare/1289;N/A;(620) 869-4072
ChIJqUyZ54RTx4cRniDHdDRcQT4;Vintage Park of Osawatomie;38.499201/-94.9685358;1520 Parker Ave, Osawatomie, KS 66064, USA;city;Miami County;66064;Kansas;;http://www.vintageparkassistedliving.com/communities/osawatomie/;N/A;(913) 755-2167
ChIJGxDwrlcNyIcRFqWD2ZsVCVs;Autumn Place;37.0344086/-94.7335961;120 Aaron Ln, Baxter Springs, KS 66713, USA;city;Cherokee County;66713;Kansas;3;http://www.autumnplaces.com/;N/A;(620) 856-3999
ChIJQS8tZa8auIcRdIdEX786gjo;Woodridge Estates;37.34467209999999/-95.23604850000001;329 Kay Ln, Parsons, KS 67357, USA;city;Labette County;67357;Kansas;5;N/A;N/A;(620) 421-4700
ChIJI-CdjMWhx4cRWx67mDNc5E0;Country Place Senior Living - Fort Scott, KS;37.8310682/-94.71362789999999;820 S Horton St, Fort Scott, KS 66701, USA;city;Bourbon County;66701;Kansas;;http://www.countryplaceliving.com/;N/A;(620) 223-1822
ChIJw0LtmbyDt4cRXm_K0HGKCO8;Asbury Village;37.0457815/-95.6715121;3800 Asbury Dr, Coffeyville, KS 67337, USA;city;Montgomery County;67337;Kansas;4.8;http://www.legendseniorliving.com/location/Asbury%20Village;N/A;(620) 251-6270
ChIJg2bPvyvDx4cR28E-cH69kIQ;Vintage Place Assisted Living;37.3818371/-94.6818595;1004 E Centennial Dr, Pittsburg, KS 66762, USA;city;Crawford County;66762;Kansas;;N/A;N/A;(620) 231-4554
ChIJASNVUXbAx4cRDnoGKyTC9wc;Arma Meadows;37.54321780000001/-94.6992894;503 E South St, Arma, KS 66712, USA;city;Washington;66712;Crawford County;5;N/A;N/A;(620) 347-4001
ChIJb_Vii5qDt4cRQsUogQ3C61o;Assisted Living At Windsor Pl;37.0364181/-95.6586511;2904 W 8th St, Coffeyville, KS 67337, USA;city;Montgomery County;67337;Kansas;3;N/A;N/A;(620) 251-0214
ChIJl0-DSVpDuIcRKAo6A9CzEPg;Guest Homes Estate II;37.668752/-95.4705027;1202 S Plummer Ave, Chanute, KS 66720, USA;city;Neosho County;66720;Kansas;4;http://www.guesthomeestates.com/;N/A;(620) 433-5493
ChIJHY_4PgZfuIcRTfKtUla9_aU;Arrowood Lane;37.82013699999999/-95.439617;615 Franklin St, Humboldt, KS 66748, USA;city;Humboldt;66748;Allen County;;http://www.arrowood-tara.com/;N/A;(620) 473-3456
ChIJcUOccLKMuIcRFlJvIc53PzA;Greystone Residential Care Community;37.9448218/-95.39183349999999;2620 N Kentucky St, Iola, KS 66749, USA;city;Allen County;66749;Kansas;;http://www.greystonerescare.com/;N/A;(620) 365-6002
ChIJg2bPvyvDx4cR-sdbcvFYaHc;Highland Meadows;37.3811897/-94.6906173;902 E Centennial Dr, Pittsburg, KS 66762, USA;city;Crawford County;66762;Kansas;1;http://highlandmeadows.keymgmt.net/;N/A;(620) 232-1940
ChIJi5cbwivDx4cRGHhYwH-Khz0;Guest Home Estates;37.3813/-94.6768307;1910 E Centennial Dr, Pittsburg, KS 66762, USA;city;Crawford County;66762;Kansas;;http://www.guesthomeestates.com/;N/A;(620) 235-0522
ChIJr4pii5qDt4cRwPG767YDclM;Windsor Place of Coffeyville;37.0435928/-95.65879179999999;2921 W 1st St, Coffeyville, KS 67337, USA;city;Montgomery County;67337;Kansas;4.6;http://www.windsorplace.net/;N/A;(620) 251-5190
ChIJO1LjRfPCx4cR3ZqgPyBZgx4;Windsor Place At Home Care;37.4112669/-94.70705;202 W 4th St, Pittsburg, KS 66762, USA;city;Crawford County;66762;Kansas;;http://www.windsorplace.net/;N/A;(620) 231-6410
ChIJKV8JGqz0uIcRn_hlAWdUPAw;Windsor Place;37.9337637/-95.3969553;600 E Garfield St, Iola, KS 66749, USA;city;Allen County;66749;Kansas;4.5;http://www.windsorplace.net/;N/A;(620) 365-3183
ChIJLWTsNZFtuIcRNfitmQ2hhqw;Guest Home Estates;37.58037650000001/-95.24259239999999;114 Marshall St, Erie, KS 66733, USA;city;Erie;66733;Neosho County;;http://www.guesthomeestates.com/;N/A;(620) 244-5301
ChIJJxVIst3Cx4cR-n6_kb3ekCg;Comfortcare Homes of Pittsburg;37.3942398/-94.6933591;704 Lakeview Dr, Pittsburg, KS 66762, USA;city;Crawford County;66762;Kansas;;http://www.cchpittsburg.com/;N/A;(620) 308-6520
ChIJ5TVYjVNduIcRDFdD5jeTm-0;Guest Home Estate III;37.689729/-95.40817609999999;7440 220th Rd, Chanute, KS 66720, USA;city;Tioga;66720;Neosho County;5;http://www.guesthomeestates.com/;N/A;(620) 431-7115
ChIJ485xrU4IyIcRhpiLecMG5ZM;Gran Villas;37.1710155/-94.8578445;101 N Lee Ave, Columbus, KS 66725, USA;city;Cherokee County;66725;Kansas;5;http://medicalodges.com/;N/A;(620) 429-4317
ChIJF8XbIroSyIcRpo2_LCWRZP4;Senior Citizens Village;37.0158042/-94.7395392;1945 Grant Ave, Baxter Springs, KS 66713, USA;city;Cherokee County;66713;Kansas;;N/A;N/A;(620) 856-4106
ChIJhemlZ1iEt4cRmSlICBc5Jew;Assisted Living At Windsor Plc;37.0373005/-95.6163665;Coffeyville, KS 67337, USA;city;US;67337;67337;;N/A;N/A;(620) 251-1805
ChIJacX6HawsuIcRHBol40Xkbo4;Eagle Estates;37.2516523/-95.7237794;1354 Taylor Rd, Independence, KS 67301, USA;city;Montgomery County;67301;Kansas;;http://www.eagle-estates.com/;N/A;(620) 331-1662
ChIJXetKcPvowIcRQ4kYIwWtWJI;Kingswood Senior Living Community;38.9472967/-94.59783550000002;10000 Wornall Rd, Kansas City, MO 64114, USA;city;KCMO;64114;Kaw Township;3.7;http://www.kingswoodathome.org/;N/A;(816) 942-0994
ChIJF6V9F4RTx4cRzpU98q5cB80;Woodland Hills Estates;38.4995619/-94.97079479999999;502 Woodland Hills Cir, Osawatomie, KS 66064, USA;city;Miami County;66064;Kansas;;N/A;N/A;(913) 755-2600
ChIJ2ReYMtChx4cR39EAOdaU1XQ;Guest Home Estates;37.8328632/-94.7175024;737 Heylman St, Fort Scott, KS 66701, USA;city;Bourbon County;66701;Kansas;1;N/A;N/A;(620) 223-1620
ChIJdx4eBSvCx4cR8Gj-n_7Yjdg;Somerse Village Senior Living Center;37.45753810000001/-94.6884141;178-198 N Crawford St, Frontenac, KS 66763, USA;city;Crawford County;66763;Kansas;;http://wilhoitproperties.com/rentals/kansas/somersetvillage/?p=5;N/A;(620) 231-5670
ChIJVWIkHSktuIcRmzZgWDlh3ng;Gansel House;37.2894401/-95.7170256;3768 Cr 5250, Independence, KS 67301, USA;city;Sycamore;67301;Montgomery County;;N/A;N/A;(620) 331-7422
ChIJ32TPvyvDx4cR0nKZ9m_Lcho;Gran Villas Pittsburg;37.38069389999999/-94.6894908;1004 E Centennial Dr, Pittsburg, KS 66762, USA;city;Crawford County;66762;Kansas;;http://www.granvillaspittsburg.com/;N/A;(620) 231-4554
ChIJFeIjjcWhx4cRXIRNOXGH7xY;Medicalodges Fort Scott;37.8298077/-94.7131802;915 Horton St, Fort Scott, KS 66701, USA;city;Bourbon County;66701;Kansas;;http://medicalodgesfortscott.com/;N/A;(620) 223-0210
ChIJ9_xJ7bcMuIcRvc_5gna6xGE;Prairie Mission Retirement Village Inc;37.516731/-95.1628006;242 Carroll St, St Paul, KS 66771, USA;city;Mission;66771;Neosho County;5;http://www.pmrv.com/;N/A;(620) 449-2400
ChIJa7TmAGeEt4cRYh2Mh7dVo6c;Medicalodge of Coffeyville;37.0434524/-95.6271651;720 W 1st St, Coffeyville, KS 67337, USA;city;Montgomery County;67337;Kansas;4.8;http://medicalodgescoffeyvilleks.com/;N/A;(620) 251-3705
ChIJ5RSTU6b0uIcRnta4MzrhYsQ;Guest Homes Estates V of Iola;37.9362345/-95.40703959999999;1336 N Walnut St, Iola, KS 66749, USA;city;Allen County;66749;Kansas;1;N/A;N/A;(620) 365-6989
ChIJVacaaCnDx4cRxBFiCzf396Y;Pittsburg Health And REHABILITATION CENTER;37.382407/-94.68877259999999;1005 Centennial Dr, Pittsburg, KS 66762, USA;city;Crawford County;66762;Kansas;4;N/A;N/A;(620) 231-1120
ChIJEW7ntZihx4cRrImlOQH5Tbw;Hillside Guest Home;37.8216761/-94.691407;1735 Williams St, Fort Scott, KS 66701, USA;city;Scott;66701;Bourbon County;5;http://www.hillside.family/;N/A;(620) 223-6132
ChIJoTeLTmY0uIcRIZ6L4T3MXOA;Vintage Park At Neodesha LLC;37.43629609999999/-95.67951619999999;400 Fir St, Neodesha, KS 66757, USA;city;Wilson County;66757;Kansas;;http://www.morningstarcarehomes.com/;N/A;(620) 325-2244
ChIJbUamtxEruIcRkk7nnHIETGU;Gran Villas Independence;37.2170123/-95.69986489999999;621 S 2nd St, Independence, KS 67301, USA;city;Montgomery County;67301;Kansas;;http://www.granvillasindependence.com/;N/A;(620) 331-2260
ChIJS96Ok4DqwIcRxiwdM-qyfoE;Rose Estates Assisted Living Community;38.8973285/-94.68742879999999;12700 Antioch Rd, Overland Park, KS 66213, USA;city;Overland Park;66213;Johnson County;5;http://roseestatesalf.com/;N/A;(913) 825-9600
ChIJoUX7FhYruIcRUjeYsm5RkQc;Montgomery Place;37.2171716/-95.7076905;614 S 8th St, Independence, KS 67301, USA;city;Montgomery County;67301;Kansas;1.2;http://www.americareusa.net/skilled_nursing_facility/Independence_KS/zip_67301/americare/5105;N/A;(620) 330-9197
ChIJbZG-izytpYcRJ9IbD76c_tA;Moran Manor;37.9221714/-95.175444;3940 US-54, Moran, KS 66755, USA;city;Marmaton;66755;Allen County;1;http://www.americareusa.net/skilled_nursing_facility/Moran_KS/zip_66755/americare/1350;N/A;(620) 263-3323
ChIJweR3dgCTwIcR7Jc_jAt8BgY;Shawnee Hills Senior living;39.01378500000001/-94.76907600000001;6335 Maurer Rd, Shawnee, KS 66217, USA;city;Shawnee;66217;Johnson County;4.8;https://www.spectrumretirement.com/senior-living/ks/shawnee/shawnee-hills-senior-living/;N/A;(913) 871-1172
ChIJKau63W7ZuocR9mtvcvfIBd0;Dove Estates Senior Living Community;37.6679795/-97.55253569999999;1400 S. 183rd St. West, Goddard, KS 67052, USA;city;KS;67052;United States;;http://www.doveestateskansas.com/;N/A;(316) 550-6343
ChIJR9rsmS3qwIcReaDu0nzahj0;Park Meadows Senior Living;38.933659/-94.6543542;5901 W 107th St, Overland Park, KS 66207, USA;city;Overland Park;66207;Johnson County;4.4;https://www.spectrumretirement.com/senior-living/ks/overland-park/park-meadows-senior-living/;N/A;(913) 871-4502
ChIJ0eYTlO0auIcRIkWZDGHqDKo;Woodworth;37.3265505/-95.25696069999999;Labette County, 1217 S 15th St, Parsons, KS 67357, USA;city;Labette County;67357;Kansas;;N/A;N/A;(620) 421-2431
ChIJUSq4vBPswIcROICbGvTwKNI;Overland Park Place;38.992238/-94.662432;6555 W 75th St, Overland Park, KS 66204, USA;city;Overland Park;66204;Johnson County;5;https://www.fivestarseniorliving.com/communities/ks/overland-park/overland-park-place;N/A;(913) 383-9876
ChIJc9P3gq5uv4cReZeeJjkjzhU;Brandon Woods at Alvamar;38.956103/-95.303478;1501 Inverness Dr, Lawrence, KS 66047, USA;city;Douglas County;66047;Kansas;3.8;https://www.fivestarseniorliving.com/communities/ks/lawrence/brandon-woods-at-alvamar;N/A;(785) 838-8000
ChIJQ-89ak1ZuocRCYdN9gfFE2U;Douglass Senior Center Inc;37.51680899999999/-97.0186559;124 W 4th St, Douglass, KS 67039, USA;city;Douglass;67039;Butler County;4.2;http://www.cityofdouglassks.com/satterwaite-senior-center.htm;N/A;(316) 746-3227
ChIJwZy_cgBcuocRRz3D2l32Wr8;Medicalodges Douglass;37.51479399999999/-97.006942;619 US-77, Douglass, KS 67039, USA;city;Douglass;67039;Butler County;3.8;http://www.medicalodgesdouglass.com/;N/A;(316) 747-2157
ChIJ-Uo9twWgoYcR93pMZv33yTA;Meadow Lark Assisted Living;38.9355875/-99.55400619999999;1101 Spruce St # 1, Ellis, KS 67637, USA;city;Ellis;67637;Ellis County;;N/A;N/A;(785) 726-3101
ChIJK7UitwWgoYcRBto9sbue3Cs;Good Samaritan Society;38.93521519999999/-99.55326129999999;1101 Spruce St, Ellis, KS 67637, USA;city;Ellis County;67637;Kansas;;http://www.good-sam.com/;N/A;(785) 726-3101
ChIJQVwOn7Mbp4cR_SCoKRFVQ7Q;Brookdale Dodge City;37.77717680000001/-100.032143;2400 N 14th Ave, Dodge City, KS 67801, USA;city;Ford County;67801;Kansas;5;https://www.brookdale.com/en/communities/brookdale-dodge-city.html;N/A;(620) 242-1881
ChIJz8zTR70bp4cRLyrOX6QJzas;Manor of Plains;37.7758849/-100.0134012;200 Campus Dr, Dodge City, KS 67801, USA;city;Ford County;67801;Kansas;3;http://manoroftheplains.org/;N/A;(620) 682-4059
ChIJnzQ-5dPxCYcRYrUgyG5ZWwI;Homestead of Garden City;37.9885368/-100.8501849;2414 Henderson Dr, Garden City, KS 67846, USA;city;Finney County;67846;Kansas;3;http://www.midwest-health.com/garden-city;N/A;(620) 277-3329
ChIJKdXj-tLxCYcR6TmFAizhW5c;The Cottages Senior Care Living;37.9911811/-100.8473742;2002 Labrador Blvd, Garden City, KS 67846, USA;city;Finney County;67846;Kansas;;https://www.thecottagesatgc.com/;N/A;(620) 290-0469
ChIJGwpsiDDuCYcRWmU9ZyEcDVQ;Garden Valley Retirement Village;37.968873/-100.855664;1505 E Spruce St, Garden City, KS 67846, USA;city;Finney County;67846;Kansas;3.4;N/A;N/A;(620) 275-9651
ChIJNamcRhvuCYcRpdVMpcCYacU;Finney County Retired & Senior;37.973735/-100.878089;907 N 10th St, Garden City, KS 67846, USA;city;Finney County;67846;Kansas;5;http://www.seniorcenterfc.com/;N/A;(620) 272-3620
ChIJ2WpIYVWDCYcRWvGDHR5M75Y;Assisted Living Apartments;37.9459935/-101.2540149;500 N Thorpe St, Lakin, KS 67860, USA;city;Lakin;67860;Kearny County;;N/A;N/A;(620) 355-1349
ChIJ3f-4wLMUCocR6y70qP1GuOY;Park Lane Nursing Home;38.4743357/-100.9046397;210 Park Ln, Scott City, KS 67871, USA;city;Scott County;67871;Kansas;3;http://www.parklanenursinghome.org/;N/A;(620) 872-5871
ChIJw8JPNLIUCocRvkG-PuFxpFc;Park Place Assisted Living;38.4740583/-100.9042041;310 Park Ln, Scott City, KS 67871, USA;city;Scott County;67871;Kansas;;N/A;N/A;(620) 872-5871
ChIJrdSA7a7muocR0V8Hh9nH2Gg;Prairie Homestead Senior Living;37.6573154/-97.35875759999999;1605 W May St, Wichita, KS 67213, USA;city;Wichita;67213;Sedgwick County;3.5;http://prairiehomestead.org/;N/A;(316) 263-8264
ChIJCcPNr7uMwIcRy_QUGQPidhI;Victory Hills Retirement Community;39.1274039/-94.7409303;1900 N 70th St, Kansas City, KS 66102, USA;city;Kansas City;66102;Wyandotte County;2;http://victoryhillsseniorliving.com/;N/A;(913) 299-1166
ChIJY4ixg4jfuocR8_QSLRaJSQc;The Oxford Grand Assisted Living & Memory Care;37.7387516/-97.47078049999999;3051 N Parkdale St, Wichita, KS 67205, USA;city;Sedgwick County;67205;Kansas;3.5;https://www.oxfordseniorliving.com/senior-living/ks/wichita/oxford-grand/;N/A;(316) 252-0030
ChIJd_yBY7MUCocRdTJktcsSb0E;Never Alone Living Assistance;38.4760373/-100.906917;105 W 11th St, Scott City, KS 67871, USA;city;Scott County;67871;Kansas;;N/A;N/A;(620) 872-7000
ChIJ6XR9_9XpwIcRA66sWpivcuM;Brookdale Leawood State Line;38.89700019999999/-94.6089035;12724 State Line Rd, Leawood, KS 66209, USA;city;Leawood;66209;Johnson County;5;https://www.brookdale.com/en/communities/brookdale-leawood-state-line.html;N/A;(913) 800-5561
ChIJV8YhPc5uv4cRf4-NVmrGlXg;Lawrence Presbyterian Manor;38.95858399999999/-95.279623;1429 Kasold Dr, Lawrence, KS 66049, USA;city;Lawrence;66049;Douglas County;1;http://lawrencepresbyterianmanor.org/;N/A;(785) 371-0577
ChIJ6VAz5gfSvYcRMnunvow35S8;Meadowlark Hills Retirement Community;39.2090886/-96.577004;2121 Meadowlark Rd, Manhattan, KS 66502, USA;city;Riley County;66502;Kansas;3.7;http://www.meadowlark.org/;N/A;(785) 537-4610
ChIJo6YDiNx8wIcR4j1fc1eBM80;Twin Oaks Assisted Living;39.266283/-94.91109399999999;657 W Eisenhower Rd, Lansing, KS 66043, USA;city;Leavenworth County;66043;Kansas;;http://www.twinoaks-retirement.com/;N/A;(913) 297-2223
ChIJZWocbysdv4cR1EZp0HvsaS0;Brewster Place;39.01373469999999/-95.69274679999999;1205 SW 29th St, Topeka, KS 66611, USA;city;Topeka;66611;Shawnee County;3.7;http://www.brewsterliving.org/;N/A;(785) 274-3350
ChIJfb95iwsTu4cRO8R_1zOyQNE;Newton Presbyterian Manor;38.0515387/-97.32599040000001;1200 E 7th St, Newton, KS 67114, USA;city;Harvey County;67114;Kansas;3.5;http://newtonpresbyterianmanor.org/;N/A;(316) 281-4363
ChIJkxLMxmICv4cR9smHm6cFroA;Atria Hearthstone;39.0576237/-95.7187965;3415 SW 6th Ave, Topeka, KS 66606, USA;city;Topeka;66606;Shawnee County;4;http://www.atriaseniorliving.com/retirement-communities/atria-hearthstone-topeka-ks/;N/A;(785) 783-5894
ChIJrcoBd1PguocRkMebYOEJly4;Wichita Presbyterian Manor;37.710232/-97.39740499999999;4700 W 13th St N, Wichita, KS 67212, USA;city;Wichita;67212;Sedgwick County;2.7;http://wichitapresbyterianmanor.org/;N/A;(316) 202-3676
ChIJUyrSrpz9vocRTWBSdinKbQ0;Topeka Presbyterian Manor;39.0597837/-95.74043619999999;4712 SW 6th Ave, Topeka, KS 66606, USA;city;Topeka;66606;Shawnee County;;http://topekapresbyterianmanor.org/;N/A;(785) 256-0946
ChIJkYvA37yUwIcRRy-8l2P2xU0;Lakeview Village;38.963104/-94.74596699999999;9100 Park St, Lenexa, KS 66215, USA;city;Johnson County;66215;Kansas;4.7;http://www.lakeviewvillage.org/;N/A;(913) 888-1900
ChIJV4_Qx8CVwIcRDWotFHxugy0;Aberdeen Village;38.914839/-94.790747;17500 W 119th St, Olathe, KS 66061, USA;city;Olathe;66061;Johnson County;5;http://www.aberdeenvillage.com/;N/A;(913) 213-1686
ChIJSQj_A2vpwIcRzezG391AC9c;The Forum at Overland Park;38.955852/-94.62662399999999;3501 W 95th St, Overland Park, KS 66206, USA;city;Overland Park;66206;Johnson County;3.8;https://www.fivestarseniorliving.com/communities/ks/overland-park/the-forum-at-overland-park;N/A;(913) 648-4500
ChIJj-JJmcHBwIcRgTRHT42HjiQ;Tallgrass Creek;38.878346/-94.6716187;13800 Metcalf Ave, Overland Park, KS 66223, USA;city;Johnson County;66223;Kansas;4.2;https://www.ericksonliving.com/tallgrass-creek?utm_source=google&utm_medium=local&utm_campaign=TCK;N/A;(913) 897-2700
ChIJK2KlyI3pwIcRGWzNm-x7Q8c;Brookdale Leawood;38.9209083/-94.63666579999999;4400 W 115th St, Leawood, KS 66211, USA;city;Leawood;66211;Johnson County;4.8;https://www.brookdale.com/en/communities/brookdale-leawood.html;N/A;(913) 871-6797
ChIJXYkBgN7xCYcRK_XF2zhr3Nw;Homestead Health & Rehab;37.9864279/-100.864882;2308 N 3rd St, Garden City, KS 67846, USA;city;Finney County;67846;Kansas;;http://www.midwest-health.com/homestead-health-rehab/;N/A;(620) 276-7643
ChIJ7T5j4d7BwIcRKraJTuLbqcs;Silvercrest Deer Creek Senior;38.8917155/-94.66959229999999;13060 Metcalf Ave, Overland Park, KS 66213, USA;city;Overland Park;66213;Johnson County;4.3;http://www.silvercrestdeercreek.com/;N/A;(913) 681-1101
ChIJNVnTlHa3pIcRkY8k8gLd6sA;Wesley Towers;38.0939/-97.9443;700 Monterey Pl, Hutchinson, KS 67502, USA;city;Reno County;67502;Kansas;3.3;http://www.wesleytowers.com/;N/A;(620) 663-9175
ChIJ_YAFtj2VwIcRdZyrAyXgoRI;Santa Marta;38.918863/-94.746217;13800 W 116th St, Olathe, KS 66062, USA;city;Johnson County;66062;Kansas;4.6;http://www.santamartaretirement.com/;N/A;(913) 906-0990
ChIJEQsF_fi_wIcR40OT52DTrIg;Sunrise of Overland Park;38.88439199999999/-94.72923299999999;12500 W 135th St, Overland Park, KS 66221, USA;city;Overland Park;66221;Johnson County;;https://www.sunriseseniorliving.com/communities/sunrise-of-overland-park/overview.aspx;N/A;(913) 685-3340
ChIJdQjQg7TuwIcRExaNuF38FCA;Claridge Court;38.98188819999999/-94.6293529;8101 Mission Rd, Prairie Village, KS 66208, USA;city;Johnson County;66208;Kansas;4;http://www.lifespacecommunities.com/senior-living-kansas-city/;N/A;(913) 383-2085
ChIJSxdo6L3uwIcRW0jNBFhgkqU;Brighton Gardens of Prairie Village;38.9991477/-94.6293659;7105 Mission Rd, Prairie Village, KS 66208, USA;city;Prairie Village;66208;Johnson County;2.7;https://www.sunriseseniorliving.com/communities/brighton-gardens-of-prairie-village/overview.aspx;N/A;(913) 262-1611
ChIJB1eLTFHowIcRloAPAkd25GU;Brookdale Wornall Place;38.93365989999999/-94.59779999999999;501 W 107th St, Kansas City, MO 64114, USA;city;KCMO;64114;Kaw Township;4.9;https://www.brookdale.com/en/communities/brookdale-wornall-place.html;N/A;(816) 398-8448
ChIJLYlOlIzpwIcR8tYV7tsp5NM;Sunrise of Leawood;38.9181673/-94.6388743;11661 Granada Ln, Leawood, KS 66211, USA;city;Leawood;66211;Johnson County;4;https://www.sunriseseniorliving.com/communities/sunrise-of-leawood/overview.aspx;N/A;(913) 906-0200
ChIJ_7hTreaioIcRR6xYt-tLf5s;Diamond View Estates;38.4819612/-100.4670844;775 Diamond View Dr, Dighton, KS 67839, USA;city;Dighton;67839;Lane County;;N/A;N/A;(620) 397-5111
ChIJL6AbGutOvIcRSpUWaMzJQp0;Brookdale Junction City;39.0129567/-96.8601894;1022 Caroline Ave, Junction City, KS 66441, USA;city;Geary County;66441;Kansas;;https://www.brookdale.com/en/communities/brookdale-junction-city.html;N/A;(785) 200-3456
ChIJ0We_2tDswIcRnuDq2O2XBbg;Brookdale Shawnee;39.01161829999999/-94.71941270000001;11400 W 65th St, Shawnee, KS 66203, USA;city;Shawnee;66203;Johnson County;4.9;https://www.brookdale.com/en/communities/brookdale-shawnee-mc.html;N/A;(913) 827-0028
ChIJmZeCutx8wIcRyiamT29s1Tk;Homestead of Leavenworth;39.268543/-94.90985259999999;5150 Hughes Rd, Leavenworth, KS 66048, USA;city;Leavenworth County;66048;Kansas;5;http://www.midwest-health.com/leavenworth;N/A;(913) 297-2477
ChIJM5ZOx-D1wIcRIAhboWyjZ-I;Stonecrest at Burlington Creek;39.208609/-94.6482249;6311 N Cosby Ave, Kansas City, MO 64151, USA;city;KCMO;64151;Fox Township;5;http://www.stonecrestatburlingtoncreek.com/;N/A;(816) 505-3030
ChIJU6dslU-2pIcRvRQo1YfyLSg;Brookdale Hutchinson;38.08113689999999/-97.9059937;2416 Brentwood St, Hutchinson, KS 67502, USA;city;Reno County;67502;Kansas;5;https://www.brookdale.com/en/communities/brookdale-hutchinson.html;N/A;(913) 904-0484
ChIJiw1rbhfqwIcRhUmLVMMIhmY;Brookdale Overland Park 119th;38.9119745/-94.65627219999999;6101 W 119th St, Overland Park, KS 66209, USA;city;Overland Park;66209;Johnson County;4.9;https://www.brookdale.com/en/communities/brookdale-overland-park-119th.html;N/A;(913) 800-5563
ChIJ_YTFExP9vocRxSs1o3DjA6Y;Brookdale Topeka;39.0405349/-95.7528028;5800 SW Drury Ln, Topeka, KS 66604, USA;city;Topeka;66604;Shawnee County;3.2;https://www.brookdale.com/en/communities/brookdale-topeka.html;N/A;(785) 200-3445
ChIJgx0rq-pOvIcRCirsze7N5Ng;Valley View Senior Life;39.0131711/-96.8544663;1417 W Ash St, Junction City, KS 66441, USA;city;Geary County;66441;Kansas;2.3;http://vvseniorlife.com/;N/A;(785) 762-2162
ChIJTS82scFOvIcR8bezdj5qF4k;Valley View Estates;39.0125688/-96.8548383;1440 Pearl Dr # A, Junction City, KS 66441, USA;city;Junction City;66441;Geary County;5;http://vvseniorlife.com/;N/A;(785) 762-6018
ChIJa54e9FFJvIcRVy0FRTiBHaU;Bartell Place Senior Residence;39.0285544/-96.82969799999999;614 N Washington St, Junction City, KS 66441, USA;city;Geary County;66441;Kansas;;https://www.newlifestyles.com/listings/bartell-place-senior-residence-214662;N/A;(785) 238-3000
ChIJJRKyyN7NvYcRVVZ931APPwc;Via Christi Village;39.2139054/-96.6063059;2800 Willow Grove Rd, Manhattan, KS 66502, USA;city;Riley County;66502;Kansas;5;https://www.viachristi.org/locations/seniors/manhattan;N/A;(785) 539-7671
ChIJNyeopiXMvYcRFlrC2ig_jKU;Stoneybrook Assisted Living & Memory Care;39.20750399999999/-96.6334509;2029 Little Kitten Ave, Manhattan, KS 66503, USA;city;Riley County;66503;Kansas;3;http://www.midwest-health.com/stoneybrook/;N/A;(785) 376-0339
ChIJD49IjFgKvYcRXb6vvMZ8Dbg;Country Place Senior Living of Clay Center;39.39141499999999/-97.1212666;722 Liberty St, Clay Center, KS 67432, USA;city;Clay County;67432;Kansas;;http://www.countryplaceliving.com/;N/A;(785) 632-5052
ChIJ5xmImTrMvYcRk8w5kRV1zWQ;Homestead Assisted Living;39.2031091/-96.63200190000001;1923 Little Kitten Ave, Manhattan, KS 66503, USA;city;Riley County;66503;Kansas;1;http://www.midwest-health.com/manhattan/;N/A;(785) 776-1772
ChIJV1vKRiXMvYcRfgfWxL4mDRI;Stoneybrook Health & Rehab;39.2055859/-96.63283799999999;2025 Little Kitten Ave, Manhattan, KS 66503, USA;city;Riley County;66503;Kansas;2;http://www.midwest-health.com/stoneybrook-health-rehab;N/A;(785) 543-0331
ChIJl-tmE0QKvYcRiWl4pZXhLrs;Clay Center Presbyterian Manor;39.3792275/-97.12020919999999;924 8th St, Clay Center, KS 67432, USA;city;Clay County;67432;Kansas;;http://claycenterpresbyterianmanor.org/;N/A;(785) 363-3544
ChIJIf8ZV_NOvIcRMRCXgXejJ4k;4-H Center;39.0123737/-96.87157789999999;1107 S Spring Valley Rd, Junction City, KS 66441, USA;city;Smoky Hill;66441;Geary County;;http://rocksprings.net/;N/A;(785) 762-3009
ChIJEfeZetTNvYcR790virAAou0;At Home Assisted Care;39.179492/-96.56195699999999;400 Poyntz Ave, Manhattan, KS 66502, USA;city;Riley County;66502;Kansas;;http://www.athomeassisted.com/;N/A;(785) 473-7007
ChIJb6RpYH7wvIcRlJK8TT-6hkg;Abilene Place South;38.92696280000001/-97.22472569999999;1102 N Vine St, Abilene, KS 67410, USA;city;Dickinson County;67410;Kansas;;http://www.enlivant.com/communities/kansas/abilene-place-abilene/?utm_campaign=local&utm_source=listings&utm_medium=Y;N/A;(785) 330-9509
ChIJ_QbDKkHGvIcRyo30IdK-klo;Eaglecrest Retirement Community;38.79884699999999/-97.58690999999999;1501 E Magnolia Rd, Salina, KS 67401, USA;city;Saline County;67401;Kansas;4;http://www.midwest-health.com/eaglecrest;N/A;(785) 309-1501
ChIJMwsVN2obvIcRVZWf53GnnYM;Council Grove Assisted Living;38.6638524/-96.5134554;554 Country Ln, Council Grove, KS 66846, USA;city;Morris County;66846;Kansas;1;http://councilgroveretirement.com/;N/A;(620) 767-5600
ChIJJZvsMTXjvocRN-uYRc6jsVg;Aldersgate Village;39.01050800000001/-95.791299;7220 SW Asbury Dr, Topeka, KS 66614, USA;city;Mission;66614;Shawnee County;3.6;http://www.aldersgatevillage.org/;N/A;(785) 478-9440
ChIJQVEvyyVXvIcRUrr-ZwV0pxg;Chapman Valley Manor;38.97729159999999/-97.0196921;1009 N Marshall St, Chapman, KS 67431, USA;city;Noble;67431;Dickinson County;5;http://www.chapmanvalleymanor.org/;N/A;(785) 922-6525
ChIJ2Qlr84nSvYcRMMXA4mqu7F8;Colorado Plaza Apartments;39.1764466/-96.5626401;420 Colorado St # 5O, Manhattan, KS 66502, USA;city;Manhattan;66502;Riley County;;https://www.nationalchurchresidences.org/communities/ks/manhattan/colorado-plaza;N/A;(785) 776-7994
ChIJ3WVoOy98vocRu_pjtgfbU5E;Vintage Park At Wamego;39.19965999999999/-96.316339;1607 4th St, Wamego, KS 66547, USA;city;Wamego;66547;Pottawatomie County;5;http://www.vintageparkassistedliving.com/communities/wamego/;N/A;(785) 456-8997
ChIJEyuhY136vIcRfFLtM-Q1qFs;Countryside Home;38.952647/-97.213078;2454 KS-15, Abilene, KS 67410, USA;city;Grant;67410;Dickinson County;5;N/A;N/A;(785) 263-7197
ChIJu4UUnjCpvYcRT2g2lz995mE;Wakefield;39.21984629999999/-97.0175127;509 Grove St, Wakefield, KS 67487, USA;city;Republican;67487;Clay County;;N/A;N/A;(785) 461-5417
ChIJrZ13ykjeuocRQGDmvs2aL9A;Park West Plaza Retirement Community;37.6906949/-97.4642923;505 N Maize Rd, Wichita, KS 67212, USA;city;Sedgwick County;67212;Kansas;5;http://www.legendseniorliving.com/location/Park%20West%20Plaza;N/A;(316) 729-4114
ChIJryZbkbCXuocRcOTpOEyPXTw;Brookdale Wellington;37.2697766/-97.41003599999999;500 N Plum St, Wellington, KS 67152, USA;city;Sumner County;67152;Kansas;;https://www.brookdale.com/en/communities/brookdale-wellington.html;N/A;(620) 242-1883
ChIJP7tzcTpWu4cRoZjkQKbCL4A;Brookdale McPherson;38.38843209999999/-97.6662441;1460 N Main St, McPherson, KS 67460, USA;city;McPherson County;67460;Kansas;5;https://www.brookdale.com/en/communities/brookdale-mcpherson.html;N/A;(620) 242-1882
ChIJ7UQimD_9uocRYvdVsnGhShc;Larksfield Place Assisted Living & Memory Support;37.73347099999999/-97.24576139999999;2727 N Rock Rd, Wichita, KS 67226, USA;city;Sedgwick County;67226;Kansas;;http://www.larksfieldplace.org/;N/A;(316) 361-2800
ChIJq5kwccLjuocRZrZrRpXyRIg;oxford senior living;37.6870978/-97.3372521;125 N Market St, Wichita, KS 67202, USA;city;Sedgwick County;67202;Kansas;;http://www.oxfordseniorliving.com/contact_us;N/A;(316) 201-3210
ChIJQY2CbzniuocRoD-iVTM_4Pg;Mennonite Housing;37.7221273/-97.3347323;2145 N Topeka St, Wichita, KS 67214, USA;city;Sedgwick County;67214;Kansas;;http://www.mhrsi.org/;N/A;(316) 942-4848
ChIJ30QDNeHfuocRnOiSKeeym18;Reflection Ridge Retirement Community;37.726191/-97.44341399999999;2300 N Tyler Rd, Wichita, KS 67205, USA;city;Sedgwick County;67205;Kansas;5;http://www.reflectionridgeretirement.com/;N/A;(316) 712-4678
ChIJpQTVcqLkuocRxQxblgyoYBs;Via Christi Village;37.66209899999999/-97.28635299999999;1655 S Georgetown St, Wichita, KS 67218, USA;city;Wichita;67218;Sedgwick County;5;https://www.viachristi.org/locations/seniors/via-christi-village-georgetown;N/A;(316) 685-0400
ChIJBwGGKnPhuocR1JCZazNc26c;Via Christi Village;37.697753/-97.3731169;777 N McLean Blvd, Wichita, KS 67203, USA;city;Wichita;67203;Sedgwick County;4.3;https://www.viachristi.org/locations/seniors/mclean;N/A;(316) 942-7000
ChIJKyj-m7ECu4cRLkP7zEAz-xI;Catholic Care Center;37.768715/-97.2602933;6550 E 45th St N, Bel Aire, KS 67226, USA;city;Sedgwick County;67226;Kansas;3.7;https://www.viachristi.org/locations/seniors/catholic-care-center;N/A;(316) 744-2020
ChIJzxLKbeEfu4cRKfx-41D_Xiw;Via Christi Village on Ridge;37.74911919999999/-97.4226484;400, 3636 N Ridge Rd, Wichita, KS 67205, USA;city;Wichita;67205;Sedgwick County;2;https://www.viachristi.org/locations/seniors/ridge;N/A;(316) 462-3636
ChIJmVRsLHpqu4cRYwQj9y9IrXE;Schowalter Villa;38.13128899999999/-97.43312700000001;200 Cedar St, Hesston, KS 67062, USA;city;Emma;67062;Harvey County;5;http://www.svilla.org/;N/A;(620) 327-0400
ChIJqdoEN1jiuocRN9Y9u-aYkj8;Plaza North Senior Residences;37.72194839999999/-97.31094259999999;2113 N Madison Ave, Wichita, KS 67214, USA;city;Wichita;67214;Sedgwick County;4.1;http://plazanorth.keymgmt.net/;N/A;(316) 263-1411
ChIJv_9di4jfuocRSyDsMBElD4U;Oxford Villa Active Senior Apartments;37.7387331/-97.4696589;3130 N Parkdale Cir, Wichita, KS 67205, USA;city;US;67205;67205;;https://www.oxfordseniorliving.com/senior-living/ks/wichita/oxford-villa/;N/A;(316) 202-2401
ChIJqwkTPFnhuocRzNS7oK3_bIk;Masonic Towers;37.6794834/-97.3552674;402 S Martinson St, Wichita, KS 67213, USA;city;Wichita;67213;Sedgwick County;5;http://www.ksmasonic.org/;N/A;(316) 267-0271
ChIJ7ywof0K2pIcRrk7pHh2e64k;Waldron Place;38.0799012/-97.89417019999999;1700 E 23rd Ave, Hutchinson, KS 67502, USA;city;Reno County;67502;Kansas;3.7;http://www.americareusa.net/assisted_living/Hutchinson_KS/zip_67502/americare/10609;N/A;(620) 860-0302
ChIJZcxcJJe2pIcRVImcq9LaAQg;Pleasant Hills;38.110779/-97.88529799999999;2500 Pleasant Hills Pkwy, Hutchinson, KS 67502, USA;city;KS;67502;United States;;http://www.pleasant-hills.com/;N/A;(620) 665-6639
ChIJf6mYPb_DuocRGgwH-XEDKKg;Clearwater Retirement Community;37.510286/-97.49471699999999;440 N 4th St, Clearwater, KS 67026, USA;city;Ninnescah;67026;Sedgwick County;5;N/A;N/A;(620) 584-2271
ChIJe82cbwzIpIcRXmiQwglt220;Mennonite Friendship Communities;38.0298/-97.95299999999999;600 W Blanchard Ave, South Hutchinson, KS 67505, USA;city;Reno;67505;Reno County;4.5;http://www.mennofriend.com/;N/A;(620) 663-7175
ChIJWWLwb68-u4cR2KV9bRUC_8c;Homestead of Halstead;37.9988309/-97.5158666;715 W 6th St, Halstead, KS 67056, USA;city;Harvey County;67056;Kansas;;http://www.midwest-health.com/halstead;N/A;(316) 351-6008
ChIJ45cASlnhuocRwX1OdcNP5xE;Kansas Masonic Assisted Living;37.6799666/-97.3555221;400 S Martinson St, Wichita, KS 67213, USA;city;Wichita;67213;Sedgwick County;;http://www.ksmasonic.org;N/A;(316) 269-7500
ChIJSQ6nXenjuocRn1sZqGgkrCo;Omega Senior Living;37.6827295/-97.33595219999999;333 S Broadway St, Wichita, KS 67202, USA;city;Sedgwick County;67202;Kansas;;http://omegasrliving.com/;N/A;(316) 260-9494
ChIJ__EPO_XeuocR_WM7i2YOOqs;Homestead of Wichita;37.6782139/-97.48279149999999;12221 W Maple St, Wichita, KS 67235, USA;city;Sedgwick County;67235;Kansas;3.7;http://www.midwest-health.com/wichita;N/A;(316) 729-2400
ChIJ15nBgDP9uocRiuN3fDKtry8;Sedgwick Plaza;37.72796870000001/-97.2627135;2455 N Woodlawn St, Wichita, KS 67220, USA;city;Wichita;67220;Sedgwick County;4.6;http://sedgwickplaza.com/;%20https://www.facebook.com/pg/Sedgwickplazawichitaks/reviews/;N/A;(316) 687-3741
ChIJj6XTJ7HfuocRrhsOLwfQ8ac;Grasslands Estates;37.70755369999999/-97.4659338;10665 W 13th St N, Wichita, KS 67212, USA;city;Sedgwick County;67212;Kansas;4.9;http://www.holidaytouch.com/our-communities/grasslands-estates?utm_source=Local&utm_medium=organic&utm_term=5548&utm_content=IL&utm_campaign=gmb;N/A;(316) 854-1571
ChIJCyI7ZeaxvIcRsULkEpZccVE;Bethany Home;38.57692/-97.68082699999999;321 N Chestnut St, Lindsborg, KS 67456, USA;city;McPherson County;67456;Kansas;4;http://bethanyhome.com/;N/A;(785) 227-2334
ChIJB3Iix6vhuocRDKZyLKjWlow;Lakepoint Of Wichita;37.707489/-97.39116609999999;1315 N West St, Wichita, KS 67203, USA;city;Sedgwick County;67203;Kansas;3.9;http://lakepointnc.net/;N/A;(316) 943-1295
ChIJjx0i4a79uocRNIfFgyC8RnE;Chaucer Estates;37.72413939999999/-97.21528049999999;10550 E 21st St N, Wichita, KS 67206, USA;city;Sedgwick County;67206;Kansas;3.8;https://communities.seniorlifestyle.com/ks/wichita/10550-east-21st-street-n.html;N/A;(316) 221-2728
ChIJ-12Qy0XyuocRsQ0vc26fP-U;Maria Court;37.4747369/-97.23538099999999;633 E Main St, Mulvane, KS 67110, USA;city;Gore;67110;Sumner County;2.7;http://villamariainc.org/;N/A;(316) 777-9917
ChIJ33R-FVb8uocRAo6zJxlRfR4;Regent Park Rehab & Healthcare;37.7093406/-97.21342109999999;10604 E 13th St N, Wichita, KS 67206, USA;city;Minneha;67206;Sedgwick County;4;http://www.regentparkrehab.net/;N/A;(316) 337-5450
ChIJeWKQIW3euocRnWyeJXrPVx4;West Wichita Assisted Living;37.6731434/-97.46551009999999;629 S Maize Ct, Wichita, KS 67209, USA;city;Sedgwick County;67209;Kansas;;N/A;N/A;(316) 361-2500
ChIJxWL2WAi-wIcROBRu4n4DAmY;Memorial Living Center;37.570303/-101.7599557;102 E Lane Dr, Johnson City, KS 67855, USA;city;Stanton;67855;Stanton County;;N/A;N/A;(620) 492-2356
ChIJDWsUCnwUCIcRjnMeiBo9jXI;Brookdale Liberal Springs;37.0547421/-100.9305623;1500 Terrace Ave, Liberal, KS 67901, USA;city;Seward County;67901;Kansas;5;https://www.brookdale.com/en/communities/brookdale-liberal-springs.html;N/A;(913) 904-0483
ChIJAW9p6Zu3CIcRE32q-9uONKA;Morton County Senior Living Community;37.0023459/-101.9074415;400 Buckmaster Dr, Elkhart, KS 67950, USA;city;Taloga;67950;Morton County;4;http://mortoncountyslc.com/;N/A;(620) 697-2728
ChIJ9VR6ZNx8wIcRdJMu3mB4Kro;Twin Oaks Retirement Community;39.266172/-94.91008979999999;457 W Eisenhower Rd, Lansing, KS 66043, USA;city;Leavenworth County;66043;Kansas;4;N/A;N/A;(913) 727-3400
ChIJo0Guob58wIcRJLbnnPG5-zY;Hillcrest Manor;39.2846634/-94.90980139999999;3414 Hughes Rd, Leavenworth, KS 66048, USA;city;Leavenworth County;66048;Kansas;;http://hillcrestmanorks.org/;N/A;(913) 682-3428
ChIJ24SdikB7wIcRQcR9AH3qfis;Planters II;39.3196348/-94.9113706;200 Shawnee St, Leavenworth, KS 66048, USA;city;Leavenworth County;66048;Kansas;;N/A;N/A;(913) 682-2200
ChIJq6qqqmqFwIcRdkkt2647fWU;Country Place Senior Living - Basehor, KS;39.114779/-94.94414900000001;15707 Pinehurst Dr, Basehor, KS 66012, USA;city;Fairmount;66012;Leavenworth County;3;http://www.countryplaceliving.com/basehor;N/A;(913) 662-7330
ChIJt3lXhaj0wIcRjZ7Qrhlw8hg;Manor Place Retirement Apartments;39.1455243/-94.71811169999999;6016 Leavenworth Rd, Kansas City, KS 66104, USA;city;Kansas City;66104;Wyandotte County;4.5;http://www.manor-place.com/;N/A;(913) 334-2065
ChIJJanuPIF7wIcR4zKy-j0Ca_k;Medicalodges of Leavenworth;39.302413/-94.93921;1503 Ohio St, Leavenworth, KS 66048, USA;city;Leavenworth County;66048;Kansas;5;http://medicalodgesleavenworth.com/;N/A;(913) 772-1844
ChIJLemlw0B7wIcRwuTDtRXXwVM;Cody Plaza Apartments;39.3192208/-94.91037129999999;111 Shawnee St, Leavenworth, KS 66048, USA;city;Leavenworth County;66048;Kansas;4;N/A;N/A;(913) 651-2423
ChIJt64UbidwwIcRimEsddrNkn8;Bristol Manor;39.41102040000001/-94.8920158;178 Walnut St, Weston, MO 64098, USA;city;Weston Township;64098;Platte County;;http://www.bristol-manor.com/;N/A;(816) 386-5507
ChIJ0-Wy8aj0wIcRHCzp2ackDBQ;Life Care Center of Kansas City;39.145393/-94.71914;3231 N 61st St, Kansas City, KS 66104, USA;city;Kansas City;66104;Wyandotte County;3;http://lifecarecenterofkansascity.com/;N/A;(913) 299-1770
ChIJTYTh2C_owIcRbayygCiep-4;Senior Star at Villa Ventura;38.9076996/-94.59536639999999;12100 Wornall Rd, Kansas City, MO 64145, USA;city;KCMO;64145;Kaw Township;5;http://www.seniorstar.com/villaventura/;N/A;(816) 787-0915
ChIJI4SBw5N8wIcRwbsoEFU8-8U;Fairway Hills Apartments;39.283485/-94.92111899999999;3200 Shrine Park Rd, Leavenworth, KS 66048, USA;city;Leavenworth County;66048;Kansas;4.1;http://www.fairwayhillsapts.com/;N/A;(913) 772-4344
ChIJn40rdG-epIcRETQByx8E8Vk;Lyons Good Samaritan Center;38.3345727/-98.2076802;1311 S Douglas Ave, Lyons, KS 67554, USA;city;Rice County;67554;Kansas;5;https://www.good-sam.com/locations/lyons;N/A;(620) 257-5163
ChIJI1iWp7VXu4cRueaE8SHvCL4;The Cedars, Inc.;38.379907/-97.65288299999999;1021 Cedars Dr, McPherson, KS 67460, USA;city;McPherson County;67460;Kansas;4.5;http://www.thecedars.org/;N/A;(620) 241-0919
ChIJpfhZ6DZWu4cRt4WZQo07TKY;Angel Arms Residential;38.3854319/-97.6621456;1318 Oaklane St, McPherson, KS 67460, USA;city;McPherson County;67460;Kansas;5;N/A;N/A;(620) 245-0848
ChIJw_dMqD5Wu4cRrGGWTVi98IY;Loving Care of McPherson;38.386154/-97.67160799999999;1411 Dover Rd, McPherson, KS 67460, USA;city;McPherson County;67460;Kansas;;N/A;N/A;(620) 718-5047
ChIJnWOPBrJXu4cRtyVxI7_R60E;Harmony Home Assisted Living/Dementia Care Home;38.372269/-97.64986589999999;1108 E Simpson St, McPherson, KS 67460, USA;city;McPherson County;67460;Kansas;5;N/A;N/A;(620) 242-7981
ChIJi99zfK5Xu4cRVLZAPiZ5sxg;MTM Boarding Care Home;38.36972799999999/-97.6489409;101 N Maxwell St, McPherson, KS 67460, USA;city;McPherson County;67460;Kansas;;N/A;N/A;(620) 241-4671
ChIJwUvO8zlWu4cRfy3N6xwGMm0;Edinburgh Manor Apartments;38.38555119999999/-97.66528190000001;120 Oak Park Dr, McPherson, KS 67460, USA;city;McPherson County;67460;Kansas;5;https://www.voa.org/housing_properties/edinburgh-manor;N/A;(620) 241-1258
ChIJIdzsU0VWu4cRSw9YtgLEcDY;Mc Pherson Senior Center;38.371174/-97.666056;112 E Euclid St, McPherson, KS 67460, USA;city;McPherson County;67460;Kansas;5;http://www.mcphersonks.org/;N/A;(620) 241-1848
ChIJr9pf_JKywIcRMwAtWXoumLU;North Point;38.582278/-94.874391;908 N Pearl St, Paola, KS 66071, USA;city;Miami County;66071;Kansas;3.8;http://www.americareusa.net/skilled_nursing_facility/Paola_KS/zip_66071/americare/1351;N/A;(913) 937-9804
ChIJ9wMe6OuywIcRQglbVCYCbU0;Vintage Park of Paola;38.5771081/-94.86677709999999;601 N East St, Paola, KS 66071, USA;city;Miami County;66071;Kansas;4.8;http://www.vintageparkassistedliving.com/;N/A;(913) 557-0202
ChIJi9-f3rTLwIcRprQBnKSJ_VY;Vintage Park At Louisburg;38.61905000000001/-94.68585060000001;202 Rogers St, Louisburg, KS 66053, USA;city;Miami County;66053;Kansas;3.7;http://vintageparkassistedliving.com/;N/A;(913) 837-5133
ChIJAT5Iy5ykwIcRn73w6_a3pyI;Vintage Park At Gardner LLC;38.796977/-94.924672;869 Juniper Terrace, Gardner, KS 66030, USA;city;Johnson County;66030;Kansas;;http://www.vintageparkassistedliving.com/;N/A;(913) 856-7643
ChIJ0TTzAaCwwIcRIfepzwBL440;Assisted Lifestyles;38.7200535/-94.8307178;22550 S Franklin St, Spring Hill, KS 66083, USA;city;Miami County;66083;Kansas;5;http://blackhawkassistedliving.com/;N/A;(913) 686-3170
ChIJlR3B49XpwIcRxwUUrQqH5oo;Homestead of Leawood;38.897934/-94.608785;12720 State Line Rd, Leawood, KS 66209, USA;city;Leawood;66209;Johnson County;;http://www.homesteadofleawood.com;N/A;(913) 565-2722
ChIJuQR3RrW9wIcRNXIqjJ5kgeA;Cedar Lake Village;38.8469404/-94.83236029999999;15325 S Lone Elm Rd, Olathe, KS 66061, USA;city;Olathe;66061;Johnson County;4.6;http://www.cedarlakevillagekc.org/;N/A;(913) 780-9916
ChIJg1RZqhbqwIcRQqbCXYosjlE;Brookdale Overland Park;38.9106935/-94.660431;12000 Lamar Ave, Overland Park, KS 66209, USA;city;Johnson County;66209;Kansas;4.1;https://www.brookdale.com/en/communities/brookdale-overland-park.html;N/A;(913) 871-9209
ChIJacRkFiuVwIcRkbqj54l2NvQ;Brookdale College Square;38.9303495/-94.72934789999999;11000 Oakmont St, Overland Park, KS 66210, USA;city;Overland Park;66210;Johnson County;5;https://www.brookdale.com/en/communities/brookdale-college-square.html;N/A;(913) 538-2444
ChIJ-VyCVbzBwIcRIi7I77bJCTk;Vintage Park of Stanley LLC;38.865948/-94.668454;14430 Metcalf Ave, Overland Park, KS 66223, USA;city;Overland Park;66223;Johnson County;5;http://www.vintageparkassistedliving.com/communities/stanley/;N/A;(913) 897-1414
ChIJebScI7Z9v4cRHf-ffvv7PiQ;Vintage Park;39.1051341/-95.0951269;120 W 8th St, Tonganoxie, KS 66086, USA;city;Tonganoxie;66086;Leavenworth County;;http://www.vintageparkassistedliving.com/communities/tonganoxie/;N/A;(913) 845-2204
ChIJBeYdNI1uv4cRF2ZhyQAC7-k;Monterey Village;38.98426200000001/-95.289666;3901 Peterson Rd, Lawrence, KS 66049, USA;city;Lawrence;66049;Douglas County;3;http://www.americareusa.net/senior_living/Lawrence_KS/zip_66049/americare/15342;N/A;(785) 227-9101
ChIJF-u7iuPFvIcRflBevug-P9U;Kenwood View Health and Rehabilitation Center;38.8292701/-97.59655649999999;900 Elmhurst Blvd, Salina, KS 67401, USA;city;Saline County;67401;Kansas;3.2;http://centers.consulatehealthcare.com/ks/salina/900-elmhurst-blvd..html;N/A;(785) 825-5471
ChIJJ4AcZRHGvIcRedxMSnZ-GGg;Arbor Court Retirement Community at Salina;38.810447/-97.595687;1000 Schippel Dr, Salina, KS 67401, USA;city;Saline County;67401;Kansas;;http://www.arborcourt-salina.com/;N/A;(785) 825-4523
ChIJz2pu79_FvIcR_O8hTatV2V8;Dignity Care Home;38.825503/-97.589001;745 Faith Dr, Salina, KS 67401, USA;city;Saline County;67401;Kansas;3.7;http://www.dignitycarehome.com/;N/A;(785) 823-3434
ChIJPVI-VvnFvIcR_b7dNJaPF9c;McCall Manor;38.829146/-97.60607299999999;626 S 3rd St, Salina, KS 67401, USA;city;Saline County;67401;Kansas;5;https://www.mccallmanor.org/;N/A;(785) 879-4232
ChIJueQ88zDEvIcRUpAOYlbrSsE;Midwest Health Services;38.840053/-97.55865;2825 Resort Dr, Salina, KS 67401, USA;city;Saline County;67401;Kansas;;http://www.midwest-health.com/;N/A;(785) 820-9305
ChIJEWYUy_LFvIcRt5ZHSKeTj90;Residence 600;38.8451016/-97.603224;600 E Elm St, Salina, KS 67401, USA;city;Saline County;67401;Kansas;4;http://www.residence600.com/;N/A;(785) 914-0546
ChIJzX157_vFvIcRFlRgfSuBe-s;Windsor Estates;38.8296149/-97.60529199999999;623 S 3rd St, Salina, KS 67401, USA;city;Saline County;67401;Kansas;3.3;N/A;N/A;(785) 825-6757
ChIJpdVke-zFvIcRwqWMm-U8iII;Smoky Hill Health and Rehabilitation;38.842049/-97.595709;1007 Johnstown Ave, Salina, KS 67401, USA;city;Saline County;67401;Kansas;5;http://www.smokyhillhealthandrehabilitation.com/;N/A;(785) 823-7107
ChIJGXniFF_PvIcRVv-DXE756gA;Sunflower Adult Day Services;38.840147/-97.612892;401 W Iron Ave, Salina, KS 67401, USA;city;Saline County;67401;Kansas;;http://www.sunfloweradultday.org/;N/A;(785) 823-6666
ChIJxxnE6vbLvIcREJpQ0BPY830;Foster Care Homes Recruitment;38.8405307/-97.6047351;425 E Iron Ave, Salina, KS 67401, USA;city;Saline County;67401;Kansas;;N/A;N/A;(785) 493-8059
ChIJJWB0joLIvIcRNr1jASulcm0;Market Place Apartments;38.7899609/-97.611796;2715 Market Pl, Salina, KS 67401, USA;city;Saline County;67401;Kansas;;https://www.voa.org/housing_properties/market-place;N/A;(785) 826-1618
ChIJqUBKbGDPvIcR6FgxTpPCltQ;Saline County Commission-Aging;38.844701/-97.6130249;245 9th St, Salina, KS 67401, USA;city;Saline County;67401;Kansas;4.5;http://www.salinecoa.org/;N/A;(785) 827-9818
ChIJBWPoSPoXu4cRug94m0XfYys;Diversicare of Sedgwick;37.9200981/-97.42959289999999;712 Monroe Ave N, Sedgwick, KS 67135, USA;city;Sedgwick;67135;Harvey County;4;http://diversicareofsedgwick.com/;N/A;(316) 772-5185
ChIJhcpoezP9uocRPG0YznC9uDA;Sedgwick Plaza;37.72797049999999/-97.2629664;2455 N Woodlawn St, Wichita, KS 67220, USA;city;Wichita;67220;Sedgwick County;4;http://www.sedgwickplaza.com/;N/A;(316) 687-3741
ChIJK1CqYfcXu4cRSlMp0EuTOP4;Sedgwick Senior Center;37.91719880000001/-97.425451;107 W 5th St, Sedgwick, KS 67135, USA;city;Sedgwick;67135;Harvey County;;http://www.cityofsedgwick.org/seniorservices.html;N/A;(316) 772-0393
ChIJBWPoSPoXu4cRz4Wq6nGdbQo;Sedgwick Health Care;37.92014700000001/-97.42947099999999;712 Monroe Ave N, Sedgwick, KS 67135, USA;city;Sedgwick;67135;Harvey County;2;https://diversicareofsedgwick.com/;N/A;(316) 772-5185
ChIJu6PIO9GSwIcRAj1iEPMKRns;Brookdale Rosehill;39.02298460000001/-94.73450240000001;12802 Johnson Dr, Shawnee, KS 66216, USA;city;Johnson County;66216;Kansas;4.6;https://www.brookdale.com/en/communities/brookdale-rosehill.html;N/A;(913) 871-9934
ChIJjyzjbaGTwIcRnTECPd6YBWo;Heartland Assisted Living;38.997915/-94.77352279999999;16207 Midland Dr, Shawnee, KS 66217, USA;city;Shawnee;66217;Johnson County;2;https://shawneeheartlandalf.com/;N/A;(913) 248-6600
ChIJOfXDx6qTwIcRj1orsumsUAg;Wyndam Place Senior;39.015399/-94.766679;15510 W 63rd St, Shawnee, KS 66217, USA;city;Johnson County;66217;Kansas;4;http://www.livewyndamplace.com/;N/A;(913) 248-8787
ChIJYzrr15XswIcR8nvRpGvvd9w;Garden Terrace at Overland Park;38.99172199999999/-94.704971;7541 Switzer Rd, Overland Park, KS 66214, USA;city;Johnson County;66214;Kansas;4.9;http://gardenterraceatoverlandpark.com/;N/A;(913) 631-2273
ChIJ51hLzGOQwIcRlsw2R98mmuU;Clover Care Home;39.01380100000001/-94.878811;6320 Zarda Dr, Shawnee, KS 66226, USA;city;Johnson County;66226;Kansas;;http://www.clovercarehomes.com/;N/A;(913) 991-2605
ChIJm72VFYOUwIcRyza5CbRwaOo;Sunrise of Lenexa;38.9705537/-94.76037479999999;15055 W 87th St Pkwy, Lenexa, KS 66215, USA;city;Lenexa;66215;Johnson County;;https://www.sunriseseniorliving.com/communities/sunrise-of-lenexa/overview.aspx;N/A;(913) 307-0665
ChIJpwcNKqSUwIcRlsBG4VN9V04;Homestead of Lenexa;38.969933/-94.740864;8740 Caenen Lake Rd, Shawnee Mission, KS 66215, USA;city;Lenexa;66215;Shawnee Mission;4;http://www.midwest-health.com/lenexa;N/A;(913) 565-2133
ChIJbzRPc6eUwIcRL8ge3JH7rmU;Covenant Place of Lenexa;38.9736814/-94.7409055;8505 Pflumm Rd, Lenexa, KS 66215, USA;city;Johnson County;66215;Kansas;4.5;http://covenantplacelenexa.org/;N/A;(913) 307-2000
ChIJk48nfiyTwIcRyWIAdzNqpqU;Shawnee Gardens Healthcare and Rehabilitation Center;39.01173319999999/-94.73021700000001;6416 Long Street, Shawnee, KS 66216, USA;city;Shawnee;66216;Johnson County;3.7;N/A;N/A;(913) 631-2146
ChIJ2xrlx3TswIcRL5_vw8q5TkA;Morningside Place;38.98164370000001/-94.66645349999999;6921 W 81st St, Overland Park, KS 66204, USA;city;Overland Park;66204;Johnson County;3;https://www.anthemmemorycare.com/senior-living/ks/overland-park/morningside-place/;N/A;(913) 945-1544
ChIJ37Is9CrswIcRK47kv7I-LBE;Bickford Senior Living;39.0181542/-94.64694999999999;5350 W 61st Pl, Mission, KS 66205, USA;city;Johnson County;66205;Kansas;5;http://www.enrichinghappiness.com/branch/bickford-at-mission-springs;N/A;(913) 831-7700
ChIJQe8lfaaUwIcRTqSQ_hvszFA;Vintage Park of Lenexa;38.9704369/-94.74055;8710 Caenen Lake Rd, Shawnee Mission, KS 66215, USA;city;Lenexa;66215;Shawnee Mission;;http://www.vintageparkassistedliving.com/communities/lenexa/;N/A;(913) 894-6979
ChIJyYVuSJHrwIcRWfaDYF8FTnA;Brookdale Overland Park Glenwood;38.96275829999999/-94.67212379999999;9201 Foster St, Overland Park, KS 66212, USA;city;Overland Park;66212;Johnson County;4.5;https://www.brookdale.com/en/communities/brookdale-overland-park-glenwood.html;N/A;(913) 871-1557
ChIJ2WkM1tCSwIcRWQLbZkImPLk;Village Cooperative of Shawnee;39.02242009999999/-94.7355814;12830 Johnson Dr, Shawnee, KS 66216, USA;city;Johnson County;66216;Kansas;5;http://www.villagecooperative.com/shawnee-ks;N/A;(913) 631-0464
ChIJF8Qm7SCTwIcR0umDRJD1Fy0;Residential Solutions LLC;39.01488550000001/-94.74505710000001;6251 Rene St, Shawnee, KS 66216, USA;city;Shawnee;66216;Johnson County;1;N/A;N/A;(913) 744-2954
ChIJRb7KeQiRwIcR-7I4nW1CCGM;Senior Care Authority of Johnson County, Kansas;39.0104989/-94.841527;22052 W 66th St Suite 179, Shawnee, KS 66226, USA;city;Monticello Center;66226;Shawnee;;https://seniorcare-kansascity.com/;N/A;(913) 320-0027
ChIJvdxPkjTrwIcRQc4JCvPsxH8;Garden Villas of Lenexa;38.950804/-94.7258248;9705 Monrovia St, Lenexa, KS 66215, USA;city;Johnson County;66215;Kansas;3;http://www.delmargardens.com/facilities/garden-villas-of-lenexa/;N/A;(913) 492-1133
ChIJ97T90jLswIcRgC68ibgJ-Bg;Mission Square;39.0198709/-94.65745750000001;6220 Martway St, Mission, KS 66202, USA;city;Johnson County;66202;Kansas;;http://mission-square.com/;N/A;(913) 403-8200
ChIJpX9NL9XqwIcRyGY_MPHUCLg;Delmar Gardens-Overland Park;38.9317575/-94.72722760000001;12100 W 109th St, Overland Park, KS 66210, USA;city;Overland Park;66210;Johnson County;3.8;http://www.delmargardens.com/facilities/delmar-gardens-of-overland-park/;N/A;(913) 469-4210
ChIJad1LfEvqwIcRdEPD3jHfxOc;The Atriums Senior Living Community;38.934184/-94.67151000000001;7300 W 107th St, Overland Park, KS 66212, USA;city;Overland Park;66212;Johnson County;4.5;http://atriumsretirement.com/;N/A;(913) 381-6000
ChIJb5TFNy3vwIcRCeSo20Ax_iU;Armour Oaks Senior Living Community;38.98139/-94.59474400000001;8100 Wornall Rd, Kansas City, MO 64114, USA;city;KCMO;64114;Kaw Township;5;http://www.armouroaks.org/;N/A;(816) 787-0120
ChIJLdYA2TTqwIcRa7H6iuy6vDw;Bickford of Overland Park;38.9356958/-94.663168;10665 Barkley, Overland Park, KS 66212, USA;city;Overland Park;66212;Johnson County;3.2;http://www.enrichinghappiness.com/branch/bickford-of-overland-park;N/A;(913) 642-5400
ChIJrYa2LhfqwIcRlny9Y0hU4B8;Lamar Court Assisted Living;38.9113906/-94.65727389999999;11909 Lamar Ave, Overland Park, KS 66209, USA;city;Overland Park;66209;Johnson County;2.5;http://www.lamarcourtalf.com/;N/A;(913) 906-9696
ChIJ6QiwIJNYwIcRxHRMAOrQkes;Primrose Retirement Community of Kansas City;39.2490057/-94.6161377;8559 N Line Creek Pkwy, Kansas City, MO 64154, USA;city;KCMO;64154;May;4.6;http://www.primroseretirement.com/kansas-city-missouri-senior-living-communities/;N/A;(816) 545-9790
ChIJaV18lSXtwIcR0GyIlE7fu44;Bluejacket Lodge Apartments;39.02413689999999/-94.7162589;11212 W 58th St, Shawnee Mission, KS 66203, USA;city;Shawnee Mission;66203;Johnson County;4;N/A;N/A;(913) 268-6470
